{"type":"FeatureCollection","name":"gis.vn","features":[{"type":"Feature","properties":{"ma_huyen":"644","ten_huyen":"Buôn Hồ","loai":"Thị xã","cap":2,"stt":2,"ma_tinh":"66","ten_tinh":"Đắk Lắk"},"geometry":{"type":"MultiPolygon","coordinates":[[[[108.27371234753828,12.75431955264373],[108.2625047663384,12.753542308560608],[108.2617113093077,12.753754978759622],[108.26075000534179,12.754256611850678],[108.26018543031141,12.754622821646029],[108.25935382649358,12.755934124809393],[108.25825519292876,12.757110958540435],[108.25739307212203,12.75733793258017],[108.25738544222611,12.757511501475856],[108.25680560857863,12.757821445863442],[108.25646991558605,12.757763271373426],[108.25443286762196,12.756939296421844],[108.2536088920566,12.757053737745602],[108.23854083805294,12.757957822455847],[108.23120898998017,12.758261090482902],[108.22760028584162,12.758354551345722],[108.223694036275,12.767795927909514],[108.22138233059798,12.773252852314078],[108.22051257933751,12.779311545297604],[108.21987170969382,12.781584151015188],[108.21833820221786,12.783317931944387],[108.21609515976006,12.786382088071894],[108.21404285301354,12.788748153739492],[108.21147174667534,12.789743790525966],[108.20663471097699,12.790694602998135],[108.20492572685404,12.790676483276272],[108.20425433998007,12.790499100192946],[108.20273608971726,12.789594063568202],[108.20033283040497,12.790068992636044],[108.19973773740551,12.79065741028754],[108.19922656868908,12.791389831558474],[108.198425482221,12.792927155017004],[108.19777698408409,12.79362333836663],[108.1969758963836,12.794101127891762],[108.19699115614036,12.794346223319636],[108.19674701578471,12.79458654896605],[108.19670123847828,12.794705758367787],[108.19673175641621,12.794894584870868],[108.19702930299503,12.795112023272184],[108.19773883678532,12.795470604994064],[108.1980211237931,12.795852075259269],[108.19858570031724,12.796382316670027],[108.19951648568716,12.796978363725708],[108.19979114378721,12.79783285581533],[108.19999713803186,12.798181900792382],[108.20082874173379,12.79842794923633],[108.2013475399528,12.79875219821279],[108.20150012792983,12.799010644378836],[108.20086688896714,12.800007234004958],[108.2007982242707,12.800434479704982],[108.20151538733059,12.801004776793365],[108.20150012840513,12.801539787834484],[108.20182056302856,12.802363763398349],[108.20269031428454,12.804085145023297],[108.20378131709023,12.804862389335893],[108.20462055153023,12.805807481518862],[108.20555133772814,12.807860741355276],[108.20609302469103,12.809706101382577],[108.20636768308763,12.810816178205016],[108.20670337546353,12.812506088967915],[108.20735187475107,12.813577065643555],[108.20836658389378,12.816125283817641],[108.20867938976292,12.817430863719132],[108.20842762046225,12.818483720559556],[108.20769519858798,12.819919953380344],[108.20639057136081,12.822283158368094],[108.20436115285302,12.824856171556878],[108.20265216808714,12.824800858662812],[108.20092792521848,12.824952494308926],[108.19855518321727,12.824854264913542],[108.19602222457493,12.825985322961262],[108.19475574493303,12.826869379606315],[108.1935731879089,12.827474962346702],[108.19281787818562,12.827751528443573],[108.19202442171762,12.828288446721025],[108.19042224877875,12.829660784800986],[108.18931598622163,12.829175363759816],[108.1880647660578,12.829091441305462],[108.18730945637378,12.829294573626326],[108.18768329663021,12.829692255892923],[108.18798084228834,12.830197702826728],[108.18856830652217,12.831926714543668],[108.18901844089741,12.832542788335452],[108.19014759048856,12.833833109567932],[108.19135303610958,12.835788142008257],[108.19152851138001,12.836919199816649],[108.19156665899419,12.838283907954827],[108.19129199998355,12.839331042005732],[108.19111652389078,12.840642344351778],[108.19115467138191,12.841744792107782],[108.19174976406256,12.843824756023377],[108.19397754773213,12.848970782457616],[108.19755573406212,12.852996242626496],[108.19805164487336,12.853663814008945],[108.20024128063945,12.856347453111539],[108.20483417693573,12.859951388480471],[108.20929737292538,12.863171945931441],[108.20980091350148,12.863374125472232],[108.21006031199065,12.863381755165749],[108.21047229907529,12.863466632204634],[108.21071644008136,12.863751780622989],[108.2109682105442,12.86417235168125],[108.21125049875951,12.864378345741972],[108.21177692658769,12.864590060100424],[108.21253986507465,12.864650142095087],[108.21340198744501,12.865149866923192],[108.21539325979514,12.865248095233662],[108.21691150895121,12.866304767013402],[108.2181703588679,12.866779696490088],[108.21986408435679,12.867300403455005],[108.22082538857305,12.867532145430504],[108.22110004700266,12.86753214509841],[108.22145862765328,12.867242227625923],[108.2219240216493,12.867057216242715],[108.22208423896204,12.866911943874612],[108.22208423857153,12.867315660587925],[108.22168750990312,12.868677508250252],[108.22115345328966,12.869579683760909],[108.22047443698095,12.870608698801375],[108.21925373321196,12.871411693218743],[108.2175294895364,12.872413051378373],[108.21716327870443,12.872722995506141],[108.21649189339671,12.873695743820692],[108.21604938784468,12.874527347533686],[108.21599598225684,12.875190150508997],[108.21598072354931,12.876106631956869],[108.21554584804144,12.877122294416703],[108.2150651961552,12.878108395171774],[108.21445484391612,12.878488910739348],[108.21427173931147,12.878827465039311],[108.21398182220804,12.879180324909171],[108.21293659480857,12.880040538796667],[108.21240253722178,12.881140124878664],[108.2124864599229,12.88215483513042],[108.21270771350338,12.882718455645694],[108.21351642971995,12.883424174867338],[108.21501179004945,12.88438261814853],[108.21569843608884,12.885256184082413],[108.21623249386667,12.886384380150975],[108.21668262768033,12.887047184314799],[108.21566791968408,12.901571644527037],[108.21937580530468,12.902116192251135],[108.22605152576855,12.903280628740722],[108.22642536523622,12.903866184072514],[108.22679157624691,12.904636753499778],[108.22756214582144,12.905596149408398],[108.22811909180126,12.906526936352977],[108.22898884300392,12.907673252407053],[108.23011036421453,12.908927334363177],[108.23115559097785,12.909945858222265],[108.23313160456524,12.911245716269157],[108.23438282515143,12.91165198118072],[108.23185749554389,12.91461218680711],[108.23127766163914,12.915884388440384],[108.23129292032148,12.917979610550782],[108.23087330382769,12.919101131679069],[108.2297517827488,12.920145405722327],[108.22826405088513,12.92067946311746],[108.22705097728361,12.922174825069263],[108.22590656790484,12.92327059711033],[108.22744007668364,12.924468411852587],[108.2271883066999,12.925588025275884],[108.22438831875873,12.925450696616474],[108.22379322548899,12.926575078574245],[108.2234727921799,12.929068936157531],[108.22217579443074,12.930287732856126],[108.22164173697546,12.930406941231348],[108.22052784446431,12.931510343564376],[108.22128315522065,12.931983366148195],[108.22170277149223,12.931949987571276],[108.22222919942064,12.931371106619165],[108.22237415850437,12.930940045718943],[108.22283192154046,12.93071974802098],[108.22334309178369,12.93019331895421],[108.22409840160532,12.92968882598801],[108.2248918592435,12.929362668832365],[108.22586842062688,12.9290784735034],[108.22670002500158,12.929268254320139],[108.2273408944781,12.929561986687103],[108.22820301581672,12.93020380913601],[108.22893543806092,12.930624378910041],[108.22965260072284,12.931876554307669],[108.2309267106451,12.93476523380308],[108.23408527909257,12.93693579668143],[108.2361757344229,12.939159764286133],[108.2368928970842,12.939553632201854],[108.23782368367927,12.940178289374156],[108.23965473733678,12.941282643780456],[108.240318495913,12.941733731527847],[108.24237080281124,12.94267596191291],[108.24265309017896,12.942699803643382],[108.24292774838392,12.94282759592795],[108.24213429173561,12.944528951280773],[108.24666615182589,12.948052777489943],[108.2478715966351,12.949056995894578],[108.25114460725274,12.945270909242396],[108.25218220383326,12.945161236977679],[108.25266285600769,12.944821728727467],[108.25379963587076,12.943457020706438],[108.25559254416902,12.941570652561314],[108.25891896057398,12.94460333706128],[108.26033039860557,12.945481670897081],[108.26245136950939,12.946305645923406],[108.2697755884481,12.948628796037841],[108.2724763943112,12.948306454252583],[108.27334614600703,12.94834650837782],[108.27351399209078,12.947212589317402],[108.27346821570373,12.9469970594263],[108.27320881631444,12.9469856153236],[108.27278156966524,12.947246922502968],[108.27252979985481,12.94709910192031],[108.27244587654033,12.946600330536494],[108.27266712976667,12.946214091953516],[108.2727663118337,12.945840252225507],[108.27262898237026,12.945545566641021],[108.27236958298714,12.945310962910368],[108.27217884786167,12.944217098446284],[108.27170582534794,12.943373095931292],[108.27120228501279,12.942843806601951],[108.27116413827461,12.942251574597869],[108.27172871316517,12.941508662547795],[108.27246113514533,12.940992725062486],[108.27282734647413,12.940211665638794],[108.2733156275463,12.938863170905893],[108.27333851524017,12.938536059684592],[108.27352925016257,12.93842257280196],[108.27393360787852,12.938410174462444],[108.27442188942409,12.938586604770606],[108.27478810069213,12.938573253955312],[108.27490254122678,12.938384425765046],[108.27488728254897,12.937868487628938],[108.27492542884688,12.937741649636179],[108.2751161646768,12.937678706408068],[108.27564259248383,12.937994372557126],[108.2761995384443,12.938120257150118],[108.27631397935487,12.937968623660394],[108.27629109158424,12.93772925171465],[108.27593250915841,12.937238109908925],[108.27597065655014,12.937099826370485],[108.27623768562229,12.93707407722082],[108.27697773596267,12.937288653533306],[108.27718373054162,12.9372886538692],[108.27724476522798,12.937199962246021],[108.27703114190727,12.936785113841564],[108.27703114235256,12.936570537321366],[108.27719898888867,12.936482799348662],[108.2774507591164,12.936545741353436],[108.27845783959651,12.938082110327088],[108.27877064446844,12.938195598435357],[108.27906056161584,12.938082110523698],[108.27921314909902,12.937855136078737],[108.2792589253294,12.937326799974667],[108.27915974374861,12.936645877503512],[108.27925129649628,12.93654574121591],[108.27941151358037,12.936621081624908],[108.27990742418434,12.937124621071868],[108.28018208214048,12.937162768134735],[108.28025837642114,12.93702448630041],[108.28019734113622,12.936318767217342],[108.28000660614353,12.93566359188278],[108.27962513596006,12.935134303314424],[108.27896137897855,12.935046564921553],[108.27857228016366,12.934933078250259],[108.27848072706242,12.93471850093182],[108.27848072700989,12.934504878395327],[108.27878590300297,12.934152019578622],[108.27950306589723,12.933987987144073],[108.27976246562625,12.933799158852905],[108.27993794184142,12.933345210182374],[108.27990742443372,12.932665240339004],[108.27997608911419,12.932186496095085],[108.28020496991377,12.932174098420704],[108.28082295148481,12.932728183540071],[108.28097553890132,12.932690036167674],[108.2811128683197,12.932551752738814],[108.28103657435955,12.931758296235468],[108.28120442112602,12.931216608777849],[108.28179188384593,12.930435549684178],[108.28196510337807,12.929513523572778],[108.28206654259411,12.928973567183238],[108.2822801659371,12.928859125636121],[108.28292866374817,12.929639232190679],[108.28337879849968,12.929840457015699],[108.28378315639449,12.929823290475545],[108.28400440891033,12.929704082172279],[108.28416462611781,12.928981195676442],[108.2843019548811,12.928657901214928],[108.28479023584634,12.928521525077542],[108.28504200642617,12.928623568718043],[108.28537769997456,12.929202448420725],[108.29781361308096,12.929394136123083],[108.3006136010477,12.92959822326731],[108.30117054739573,12.922408472069984],[108.30170460365764,12.92087305599538],[108.3016206812507,12.9204744192728],[108.30183430424673,12.919799218387537],[108.30221577417711,12.919377694486434],[108.30258198477338,12.919079194588264],[108.3029176777416,12.918115029396954],[108.30327625862581,12.91760004554175],[108.30383320504342,12.916985879743676],[108.30471058608583,12.916912446200222],[108.30815144322082,12.917124162459277],[108.31008930908668,12.917453179184434],[108.31370564233056,12.9230550618486],[108.31434651156259,12.92467058606914],[108.33428212026737,12.925125488592126],[108.33436604335368,12.924644836210213],[108.33428212014472,12.923541435664072],[108.33457203666896,12.922986397311607],[108.33517475904544,12.922282584985181],[108.33547230446302,12.92104566937144],[108.33540364050205,12.919625648179734],[108.3357088164408,12.918136962666285],[108.34141560319716,12.91445196501453],[108.34321614107274,12.913526900211787],[108.34568806416621,12.912293799024377],[108.3476945944378,12.91142309500831],[108.34985371372363,12.91088140772477],[108.35102101015909,12.90897978092132],[108.35482807813253,12.907184011726383],[108.35662861590812,12.906650907959513],[108.35787983639425,12.906454450561222],[108.35836811788663,12.906013853552798],[108.35935993987238,12.90549886906987],[108.35973377967169,12.905241377849956],[108.36090107651478,12.903470403223704],[108.36247273255445,12.901232130229516],[108.36254902606983,12.900931721800408],[108.36255665506083,12.900224095928964],[108.36261006160554,12.899673825714789],[108.3627245024927,12.899256116960228],[108.3630220481654,12.898603802944695],[108.3631441179203,12.897805578421657],[108.36294575432863,12.897527105391362],[108.36298390135678,12.897258168577027],[108.363083083582,12.896970158545715],[108.36364002885968,12.896947271080247],[108.36494465492773,12.889328366430453],[108.366241651713,12.88447893224954],[108.36828632974071,12.87941587473787],[108.36839314186732,12.8792594729055],[108.3694612559757,12.873725299350983],[108.3695375497073,12.868287449177283],[108.37053700115173,12.862331752271036],[108.37171955692446,12.860412960208116],[108.37168903894711,12.860006693726266],[108.37199421487573,12.859108333231205],[108.37240620199059,12.858103160587243],[108.37239094277928,12.857922915597552],[108.3722765024539,12.857922915842815],[108.37213154335674,12.857995394927643],[108.37196369654319,12.858210925690182],[108.3717805914174,12.858234768332943],[108.37163563233055,12.858030680800503],[108.37169666891619,12.857743624523666],[108.37202473262191,12.857551937307807],[108.37209339670174,12.857277279114518],[108.37191029152484,12.85688150398166],[108.37216206156168,12.856570605659424],[108.37249775417014,12.856318835499032],[108.37249775456912,12.855971697752615],[108.37216206159856,12.855564478374971],[108.37199421416938,12.854977969751689],[108.37213154355963,12.854811076701528],[108.37210865555133,12.854546909169226],[108.37184162635991,12.854380016180928],[108.37148304507456,12.853685740786426],[108.37149830369562,12.85333765003496],[108.37185688521937,12.852847461110464],[108.37191029114463,12.852476481625338],[108.37156696818866,12.851806048291992],[108.37150593327037,12.851482752906719],[108.37158222769217,12.851338748429134],[108.37181873799388,12.851267223028545],[108.37190266149359,12.851015452904115],[108.3720933961731,12.850907687885886],[108.37211628464789,12.850812320000069],[108.37204761989736,12.850692156214935],[108.37173481507966,12.85060823378669],[108.37156696793,12.850381259623683],[108.37168903856961,12.849782351426274],[108.37196369599138,12.849219683810185],[108.3719942138227,12.8488963884371],[108.37179585060825,12.84875333769557],[108.37171955616303,12.848621729285108],[108.37173481480238,12.848489169921033],[108.37188740200692,12.848430041151834],[108.37217731916301,12.84848916985067],[108.37236042476245,12.848441485859064],[108.37239094262362,12.848202113376018],[108.37219257833426,12.847867373912992],[108.37220020804655,12.8475679193491],[108.37244434787058,12.84723222664735],[108.37240620072747,12.847100619198441],[108.37207813737878,12.847052935274085],[108.37152882132919,12.846765879347585],[108.37078877025006,12.846742037646534],[108.37057514693792,12.846658114847815],[108.37051411091747,12.846418742550284],[108.37080402811648,12.846203211251261],[108.37082691727184,12.846106890605338],[108.37060566438974,12.846059207153278],[108.37033100582411,12.846059207773786],[108.37019367735044,12.84593999780571],[108.37020130557389,12.845795992122941],[108.37064381061062,12.845580462101664],[108.37074299280987,12.845377329355856],[108.37129993864455,12.845244769109232],[108.3713533446497,12.845054034058977],[108.37131519845279,12.844873789583463],[108.37160511484272,12.844766024015282],[108.37169666835415,12.844562892337102],[108.37168903775103,12.84441888745338],[108.37141437974599,12.844311122681384],[108.37131519781067,12.84410798950971],[108.3714220089333,12.843952540214524],[108.37186451423005,12.843653085987906],[108.3719026609621,12.843545321707367],[108.37180347858607,12.843401316436603],[108.37143726779946,12.84323442333923],[108.37114735045411,12.843006495760482],[108.3711626103207,12.842874888305262],[108.37150593305306,12.842539195499567],[108.3717500724467,12.84245622562724],[108.3717577032247,12.842348459997048],[108.37146015565335,12.842312220291626],[108.37141437987965,12.84212053219445],[108.37163563185098,12.841678027600476],[108.37184162621261,12.841534022437363],[108.37190266048214,12.841246966625368],[108.37146778587409,12.841150644854249],[108.37146778566589,12.841031436575648],[108.37171955605996,12.840958955889498],[108.3718339966065,12.840851191105653],[108.37183399654509,12.840708140482255],[108.37155170857537,12.840504053999652],[108.37158985567707,12.840229394966107],[108.37180347874813,12.839738253273552],[108.3717577029889,12.839635255844698],[108.37139912058596,12.839522723129022],[108.37119312797617,12.839414957913677],[108.37068195803606,12.838074091986712],[108.37030811785986,12.838074091904188],[108.36960621241377,12.837777499456028],[108.35451527026233,12.833187464382362],[108.35396595374368,12.832983378561599],[108.35186786971184,12.831550007023306],[108.35013599818888,12.83052671398077],[108.34861011916423,12.829756144912285],[108.34819813053929,12.829399470471376],[108.34790821354852,12.827577952323434],[108.34797687859876,12.826524143047369],[108.34824390755034,12.825170878398133],[108.34950275771267,12.822370890008266],[108.34993000347846,12.821693781761429],[108.35162372974345,12.819755914930015],[108.35227222702544,12.81921041436854],[108.35260792011888,12.818861369067884],[108.35281391412602,12.81848752835583],[108.3529207262312,12.818161372162793],[108.35288257890747,12.817720774375859],[108.34404773954267,12.813643816832712],[108.34415455112222,12.812880877596795],[108.344154550739,12.812289599422648],[108.34453602069321,12.811011675219307],[108.34367389889208,12.806858424418298],[108.34261341394674,12.805844668228493],[108.33695240201205,12.804100397945358],[108.33577747559177,12.804021242902426],[108.33503742457411,12.803852441852696],[108.33476276639684,12.803633097382376],[108.33416004340617,12.802791002869572],[108.31713886360866,12.792393092335944],[108.31435413428478,12.789393786423133],[108.31092853567158,12.784885768412236],[108.3107225413761,12.784162882617563],[108.310569954686,12.782677058248222],[108.31058521292877,12.781219843382898],[108.31048603052103,12.780265215598039],[108.310150337161,12.778473261268493],[108.3097764974844,12.777151469605418],[108.30934925027131,12.772405032359268],[108.30903644526562,12.76447332179818],[108.30857868192224,12.759298685681753],[108.30823535844344,12.759039285142192],[108.3082429871582,12.758142831310884],[108.30834979955219,12.756872536998689],[108.30818195262015,12.756444337786686],[108.30783862941891,12.756013277261701],[108.30769367116686,12.755585077122028],[108.30765552389651,12.755114915101323],[108.30793781083071,12.753281000013764],[108.30714435436757,12.75134504152343],[108.30602283313044,12.751639725864306],[108.30545062948522,12.752229097179848],[108.30506915875972,12.753008249493945],[108.30473346622834,12.753209474784382],[108.30394000877536,12.75338971969594],[108.30347461655948,12.753788354110627],[108.30316181047861,12.75391042565153],[108.30252094124987,12.753771188610573],[108.30226154221164,12.753983858407588],[108.30178851882616,12.754468324374407],[108.30120868536828,12.755119684887916],[108.30069751580689,12.755521181978384],[108.29975147107783,12.756504420130641],[108.29898090210436,12.756574038158957],[108.2982561101187,12.756864908948994],[108.29526538693456,12.759330157290139],[108.29409046025191,12.759662988823685],[108.29274768749839,12.759565714673352],[108.2913209903636,12.75928914898407],[108.2896043763974,12.75958002028511],[108.2871629699544,12.759261492480498],[108.28525562191321,12.758582476718958],[108.28437824072174,12.758540515925981],[108.28325671963302,12.759066943830348],[108.28209705186319,12.759524706991666],[108.2816469179608,12.759510401644283],[108.28123493142682,12.759136561988885],[108.28067798490106,12.758098011023893],[108.28019733303701,12.757571581562864],[108.2791139583761,12.756933573541868],[108.27809161948444,12.756574039098416],[108.27700824602948,12.755119685890127],[108.2764741878246,12.754230860299772],[108.27371234753828,12.75431955264373]]]]}}]}