{"type":"FeatureCollection","name":"gis.vn","features":[{"type":"Feature","properties":{"ma_huyen":"643","ten_huyen":"Buôn Ma Thuột","loai":"Thành phố","cap":2,"stt":1,"ma_tinh":"66","ten_tinh":"Đắk Lắk"},"geometry":{"type":"MultiPolygon","coordinates":[[[[108.03314989477354,12.56600225682981],[108.03265398351175,12.566082366057831],[108.03224199627246,12.566449529683805],[108.03188341394306,12.56687486904103],[108.03165453236865,12.566957838806385],[108.0302278360327,12.566456205941527],[108.02862566355199,12.566661246252304],[108.02684801467554,12.566470511443402],[108.02609270393447,12.566490537811378],[108.02553575804846,12.566626914098006],[108.02453630728971,12.567445165926667],[108.02415483697031,12.567640670459326],[108.02397936112847,12.567638762398511],[108.02294176377634,12.566712745128823],[108.02271288184718,12.566681273402601],[108.02247637094204,12.566793807697215],[108.02174394891473,12.56727064433783],[108.02072160981864,12.567488081946616],[108.01842516236862,12.56709135351195],[108.01801317528707,12.567115195790969],[108.01743334128672,12.567366011076755],[108.01592272102157,12.568536170404702],[108.01574724524511,12.568604835058554],[108.01192491847429,12.572447188560245],[108.00913256004227,12.571987518319224],[108.00852220801137,12.572066673024608],[108.00801866769342,12.572204002207682],[108.0072938765521,12.572166809182175],[108.00671404204705,12.571932204823622],[108.00647753055075,12.571929343765815],[108.00618761291977,12.572098144271338],[108.00585954938646,12.572522529375064],[108.00550859682511,12.572747597241987],[108.0041963409225,12.572760948407934],[108.0029985262794,12.572947868834387],[108.00180834107454,12.573328384386198],[108.00102251346699,12.573377022687371],[108.00003832121503,12.573586830941117],[107.99752062094079,12.575109848802112],[107.99645250585186,12.575593362032413],[107.9960481484659,12.575609573691395],[107.9953233560529,12.575432190819388],[107.99498766225474,12.575436004944175],[107.99449175199459,12.575627693790432],[107.9932863068095,12.5763791894023],[107.99037187785942,12.577589401795313],[107.98940294504507,12.578109155030141],[107.9889604413672,12.578269372679634],[107.98767107259285,12.578209290205868],[107.98555010064344,12.577885995609796],[107.98400896330187,12.577967057614744],[107.98332231750555,12.576681504169652],[107.98297899494203,12.576766381803937],[107.98281114910657,12.576753030016551],[107.98248308460755,12.576826463740945],[107.98217790927465,12.577103982536707],[107.98213213180613,12.577217469719855],[107.98213976198826,12.57738150161655],[107.98197191455789,12.577590356482288],[107.98159044487835,12.578353295746501],[107.9815980753212,12.578600297399644],[107.98184221469263,12.57947195561609],[107.98186510433978,12.57990206232486],[107.98181169822827,12.580738435290687],[107.98172014545918,12.580851922984431],[107.98159044541437,12.580908189922598],[107.98127763985889,12.580912004018895],[107.98114794057189,12.580968270755827],[107.98091142858307,12.581281075508437],[107.98060625345559,12.581306825940093],[107.98005693739239,12.581454644335386],[107.97956102613101,12.58177507973858],[107.97901171029454,12.581897150030203],[107.97883623367673,12.582113634224593],[107.97868364618832,12.582812676989425],[107.97853105816033,12.582934747800223],[107.97811144132096,12.58314741704478],[107.97788255983316,12.583340059221914],[107.97774523139574,12.583661447079015],[107.97746294338688,12.583912264122521],[107.97718065478622,12.58430422401564],[107.97708147336566,12.584535967006245],[107.97702043795135,12.584893594984536],[107.97689836833585,12.585022341186503],[107.97687548023556,12.585218798024481],[107.97689073810587,12.585318933077607],[107.97711199074344,12.585447679061575],[107.97708910299366,12.585783372753198],[107.97689836857386,12.585962664425972],[107.97657030407227,12.586494813912031],[107.97650926906492,12.586727510479726],[107.97654741661742,12.586831460755608],[107.97679155579371,12.58704889904052],[107.97696703221625,12.587302576100413],[107.97722643191435,12.58792437232381],[107.97722643188858,12.58829630533355],[107.97717302583318,12.588361153956575],[107.97663133912015,12.588278184819947],[107.9762880166733,12.588343035267188],[107.97604387622928,12.58850420614291],[107.97574632969315,12.58863295252961],[107.9753496016485,12.588647256969566],[107.97509020157564,12.588757883660588],[107.9749757603307,12.588875185694029],[107.9748918375138,12.589469324177085],[107.97479265540288,12.589622865992036],[107.97423570928255,12.590009104631289],[107.97373216962787,12.590241800187117],[107.9732667763759,12.591113459582742],[107.97293871193352,12.591369997945831],[107.97167223253025,12.591888796523227],[107.97095506937558,12.591745745924904],[107.97074907589487,12.591868769412091],[107.97048967603453,12.592162500370824],[107.97037523521203,12.59217394464469],[107.97016924242963,12.592105281007816],[107.96973436662729,12.591727626075732],[107.9696504433624,12.591710459505466],[107.96955888994766,12.591749559298123],[107.96948259667705,12.591833483479451],[107.96943682066205,12.591974626729163],[107.96945207971338,12.59253634191085],[107.96942156138023,12.592694651645704],[107.96936815525889,12.592769991372935],[107.96927660368532,12.592791925385779],[107.96875017435116,12.59262026495643],[107.9686662510701,12.592668901766247],[107.9686357334535,12.592915903991807],[107.96880358000105,12.593216310614649],[107.96881121078319,12.593352686935386],[107.96873491621804,12.593432795005711],[107.96858995699125,12.59343660957653],[107.96788805360856,12.593291652049887],[107.96724718406091,12.593617807851484],[107.96683519629859,12.593573939231746],[107.96623247385493,12.593622576801923],[107.96558397653229,12.592821489675714],[107.95407884861024,12.577622782687245],[107.95453661142582,12.576637637021925],[107.95477312318985,12.57588423373638],[107.95552080285377,12.574749361815671],[107.95538347432115,12.572830568347511],[107.95546739840677,12.571474443278198],[107.9561921903191,12.570134530976816],[107.95611589594796,12.569319139267494],[107.95224016322459,12.56246794344037],[107.94937150984313,12.556692491463],[107.94892137610272,12.556501757319692],[107.94722764998274,12.556544672202651],[107.94488542604299,12.55678404394797],[107.94287889612453,12.557408701089157],[107.94229906240861,12.557300936263513],[107.94209306845676,12.55712355279587],[107.9412538350985,12.555572878751388],[107.94080369957884,12.555201899046915],[107.93892686852172,12.554666887700561],[107.93716447856308,12.554784189417068],[107.93608873392671,12.554592501289369],[107.93502061900554,12.554048907092339],[107.93465440811049,12.554036508772533],[107.93331163468818,12.55481852147551],[107.93172472030635,12.555522333554222],[107.92935960776697,12.555834185788996],[107.92655962031476,12.555831325144178],[107.92547624674629,12.555631053193517],[107.92492692940627,12.555670154336754],[107.92469804775396,12.555884729863143],[107.92434709556545,12.556484590949905],[107.9235994160854,12.558175456103388],[107.9232255746284,12.558735263814967],[107.92280595833813,12.55887068564342],[107.92260759361837,12.558856379235069],[107.92225664165102,12.55866373781067],[107.92104356773523,12.557059657309225],[107.9207536500887,12.556818377462196],[107.9192659183313,12.557071101389527],[107.91807573328556,12.557329547961343],[107.91727464654838,12.55730570608403],[107.91557329259909,12.556849849841525],[107.91255968165154,12.555829417460536],[107.91065233192452,12.555539500791161],[107.90867631924061,12.55536497878436],[107.9077836797579,12.555383098546155],[107.90474718090046,12.556460750785773],[107.90203111592098,12.556707752569777],[107.8954011717224,12.55716170136331],[107.89511888514241,12.557615650264257],[107.89476030286647,12.55795801925924],[107.89392869918274,12.558556927983007],[107.89239519145043,12.559477222740218],[107.89207475575664,12.56000174346398],[107.89203660894047,12.56024493072883],[107.89237993212414,12.56083334805],[107.89320390751232,12.561499013237986],[107.89328020112309,12.561882389782028],[107.89321153595363,12.562547100534733],[107.89275377239657,12.563735378936746],[107.89276140221727,12.563997639858078],[107.89294450748477,12.564499272075158],[107.8933946422659,12.56512297524943],[107.89393632926202,12.56568278245043],[107.89486711543027,12.566348447422037],[107.89548509671593,12.567050351152561],[107.89574449589766,12.567251576171074],[107.89643114199194,12.567524326932876],[107.89720170937638,12.567657842339575],[107.89848344833365,12.567566289275106],[107.8990175058751,12.567664516993732],[107.89920061175593,12.567783726733294],[107.90000169800756,12.568684948763996],[107.90029924480518,12.568802250679072],[107.90202348800736,12.56903780760726],[107.90229051704432,12.56918467373664],[107.90328996666065,12.570285214004258],[107.90425889957035,12.570990932650387],[107.90506761635406,12.572057140931719],[107.90621202499065,12.573173894028152],[107.90657823638401,12.573477161489002],[107.90798967401356,12.575422657661793],[107.9084626974946,12.575734509918785],[107.90978258238697,12.576080692998998],[107.91063707432427,12.57611883993898],[107.91133897969782,12.576298130607341],[107.91232317076592,12.5766824619397],[107.91267412337493,12.576963795591798],[107.91337602741011,12.577845944105169],[107.9140168965692,12.57839621477933],[107.91515367677987,12.578886402384622],[107.9156724754218,12.578977001973053],[107.91642015568237,12.579099072534524],[107.91785448130031,12.579478634807284],[107.9193803609597,12.580190075307012],[107.92162340264618,12.58072413370826],[107.92310350531106,12.580909145767246],[107.92402666306785,12.580943478714175],[107.92527025355902,12.58085478607159],[107.92711656713024,12.580998791139077],[107.92898576903599,12.581332577385421],[107.93093126502482,12.582252872392408],[107.93239610803806,12.5832837939625],[107.93286913117036,12.58392466411688],[107.93390672900925,12.586861980261773],[107.93405168700343,12.588864697008695],[107.93363970001212,12.590932262403069],[107.9336397004703,12.591638935766776],[107.93373125221663,12.592370403315785],[107.9348375154703,12.595495594109321],[107.93490617983012,12.59603728117798],[107.93485277365045,12.596726788724778],[107.93463915125335,12.597481144901618],[107.9342042761142,12.597909344663496],[107.93310564250541,12.598447216533476],[107.93049639020656,12.598754299586862],[107.92924516998421,12.599419010991602],[107.9284746004013,12.600468052701059],[107.92798631933684,12.603384389144496],[107.9278108433294,12.605072392902434],[107.9280168369861,12.607221974281485],[107.92847460150692,12.608488454662517],[107.92848985931748,12.609472646392655],[107.92907732372231,12.612351789556282],[107.92926042895797,12.614994420116155],[107.92917650561779,12.61589755055183],[107.92891710701907,12.616471662981931],[107.92798631945512,12.617570294926013],[107.92705553387589,12.618146314496535],[107.92574327726102,12.618440999673993],[107.92260759672492,12.618244542728311],[107.92183702794921,12.61842478800697],[107.92119615898257,12.618654622821783],[107.92081468946384,12.619024648703551],[107.92023485570381,12.620561017871857],[107.920158562031,12.621064558456988],[107.92022722611071,12.621778860203753],[107.922180350949,12.625548734806799],[107.92247789837865,12.626648321014974],[107.92266100294508,12.628157988446477],[107.92267626244383,12.629492177996822],[107.92240923273783,12.630834952546957],[107.92176073439255,12.632933035316533],[107.92137163562947,12.63368739174075],[107.92011278534328,12.63441123029628],[107.91911333488414,12.634904280711947],[107.91885393506018,12.635216132098483],[107.91886919474912,12.635642424925157],[107.91928118165119,12.636840239872578],[107.92013567342076,12.63844908824762],[107.92069261963155,12.640221968999318],[107.9209520193916,12.64176501383633],[107.92103594251671,12.643077269650146],[107.92090624256477,12.644128219145996],[107.92057817835418,12.645342246295938],[107.91996782810838,12.646542922294971],[107.9190828174995,12.647514715897314],[107.91780870911182,12.64809073630366],[107.91680925768678,12.64820613062428],[107.91223162196066,12.646504776008845],[107.91059893034463,12.645983115935213],[107.90930193398192,12.64590109944336],[107.90800493643579,12.646048919523505],[107.90679186256025,12.646639243431235],[107.90583818892848,12.647476569566301],[107.90489977363646,12.648690598069546],[107.90431231009273,12.649921791297077],[107.90412920495159,12.650627510264268],[107.90422838720012,12.651268379185513],[107.90468615034608,12.652138130205797],[107.90568560104875,12.653483764725243],[107.90701311621578,12.654384033260627],[107.90882891246562,12.655076400918867],[107.91133135306696,12.655662910557401],[107.91255205660663,12.656187432276896],[107.91365068924478,12.65704573798822],[107.91440599958466,12.658227340613836],[107.91455095845123,12.658801453025042],[107.91404741844288,12.662903206450032],[107.91363543044673,12.664783852162314],[107.91280382707771,12.665679352617614],[107.91132372461114,12.666880982105987],[107.90979784532713,12.66764487546343],[107.9085313654025,12.66848887807278],[107.90750902689742,12.66970385915188],[107.90661638757524,12.670770066573981],[107.90474718719487,12.673878090751357],[107.90452593425277,12.67469729668475],[107.90450304630558,12.675029175815972],[107.90464037524897,12.675400155395124],[107.90495318004288,12.675924675971018],[107.90509050860133,12.676335710147839],[107.9051591735764,12.676959413014528],[107.9056550850392,12.678300279030513],[107.90628069501692,12.679051774027535],[107.90647905873323,12.67978324189824],[107.90640276561227,12.680382149866405],[107.90624254793927,12.680944818061759],[107.90633410107772,12.681364434544689],[107.90724962786952,12.682588951931404],[107.9078447210847,12.684731859475082],[107.90816515520426,12.685180085248879],[107.90903490636474,12.685742753374704],[107.91001909867411,12.686151880108437],[107.91034716219107,12.68649711058657],[107.91050738066991,12.687009233281318],[107.91062945043019,12.688127893437958],[107.91101092074729,12.690001863226804],[107.91127794871775,12.690486329323816],[107.92941302010725,12.689696686990633],[107.92951220195107,12.688825028370376],[107.93010729504574,12.687928574903435],[107.9302827705836,12.687505142889336],[107.93008440704124,12.687281029209526],[107.93008440656924,12.68688239332375],[107.93073290479255,12.686359780278543],[107.93180102066322,12.685961144747512],[107.93219774871382,12.686285393719052],[107.93252581295687,12.686434166305284],[107.93286913641842,12.68643416587387],[107.93331927022675,12.685985938988116],[107.93351763377184,12.685985939707567],[107.93374651615868,12.686135666219279],[107.93391436260045,12.686160461844478],[107.93414324462549,12.686036484194128],[107.9342653150426,12.685712235296235],[107.93453997292755,12.68556346220003],[107.93463915463104,12.68518962093071],[107.93444079064756,12.684790985162945],[107.93463915473029,12.68404425852742],[107.93605822322586,12.68252505534325],[107.93680590318189,12.682276145617069],[107.93740099629098,12.682350533306046],[107.93801134792153,12.682338134770239],[107.93883532161766,12.68203963475556],[107.93968218462662,12.68194045308647],[107.94013231997232,12.681990043396587],[107.94047564203377,12.681765930078159],[107.94075029973565,12.68126811165828],[107.94189470989573,12.680894271224574],[107.94200152135171,12.680570975793621],[107.94192522703433,12.6801971358939],[107.94212359084351,12.680047408541851],[107.94289416010845,12.6800722049931],[107.94299334205839,12.679872886569939],[107.94301623094809,12.67957438694483],[107.94321459525936,12.679524795981644],[107.94342058899227,12.679574386346188],[107.94358843485941,12.679674522617125],[107.94371813492084,12.679375068917517],[107.94423693395213,12.679026977320145],[107.94506090830514,12.679051772273137],[107.94635790476144,12.677682296432915],[107.94739550306925,12.677106277048438],[107.94881457038142,12.677167312216328],[107.94989031520838,12.67702521451291],[107.95083636004912,12.676741973540983],[107.9512254593869,12.676883116947447],[107.95169085164444,12.677531615356024],[107.95199602760054,12.677754774650092],[107.95224016882922,12.677713767200318],[107.95249956770941,12.676904097587418],[107.95404070620721,12.676275626136675],[107.95426195803593,12.676215545199634],[107.95464342780875,12.676538840004872],[107.95541399744437,12.676599875441147],[107.95608538294324,12.676356688622706],[107.95618456610578,12.675911322997132],[107.95667284738859,12.675668135441546],[107.95758074459305,12.67574919796139],[107.9580461383653,12.676498785858715],[107.95822924278852,12.676559820400866],[107.95855730728773,12.676356689142548],[107.95893877710806,12.675769224580156],[107.96011370368585,12.675009146341122],[107.96054094985956,12.674947157816652],[107.96114367216221,12.675009146680951],[107.96231859894432,12.6753410259556],[107.96291369213407,12.67531622920439],[107.964302240923,12.67493475930853],[107.96619433081581,12.673682585271525],[107.96684282978654,12.673498526667496],[107.96750658707707,12.673522368085354],[107.96697252880568,12.672700300605385],[107.9669649002311,12.672288313176766],[107.96733873984174,12.671648397884933],[107.96754473368219,12.670684233440344],[107.96765917485617,12.670478239487538],[107.9681245683844,12.670347586404777],[107.96936053043123,12.669654265294854],[107.96990221683609,12.669187917842272],[107.9702989447372,12.668527021642106],[107.97065752661035,12.668301953598576],[107.97100084990294,12.668350592177685],[107.9713136552406,12.6684535884411],[107.9715959429364,12.6686052230016],[107.97208422376643,12.668762579016894],[107.97253435768896,12.668811215419954],[107.9726106519097,12.668860807971786],[107.97277849882683,12.669154538530995],[107.97290819809835,12.669219388420132],[107.97347277424896,12.669419660486778],[107.9736177319667,12.66936816201],[107.9738771320074,12.669379605957584],[107.97422808382818,12.669585599946902],[107.97451037103963,12.669438733366034],[107.97457140576662,12.66931952438196],[107.9746248117757,12.668948546131075],[107.9746934769193,12.66888846347236],[107.97486895349638,12.669116391357623],[107.97482317611558,12.669229878837932],[107.97483843479053,12.669303311781272],[107.97520464643414,12.669357671262214],[107.97567766930906,12.669225110797866],[107.97604387975687,12.669019116252395],[107.97616595033561,12.668897046289809],[107.97628802002534,12.668888463683349],[107.97648638377542,12.6690238852464],[107.976585567032,12.669232741012546],[107.97688311276924,12.66951979541054],[107.97695177856531,12.669509305454032],[107.97704333017641,12.66942824325495],[107.9771119951125,12.669248952367314],[107.9771959177704,12.669206037903255],[107.97726458277526,12.669241323327414],[107.97734087742515,12.66938246703045],[107.97781389877453,12.669865979427344],[107.978065668906,12.66998137441145],[107.9788209791543,12.6701434985325],[107.97934740687154,12.67017115575437],[107.97971361824742,12.67024840357275],[107.98009508856846,12.670421971816562],[107.98025530514944,12.6704410456578],[107.98031634126633,12.670499219505706],[107.98032397008072,12.670587911083933],[107.98049181760403,12.670943631061302],[107.98055285230767,12.67096651979097],[107.98060967731942,12.670972438200424],[107.98134630904214,12.671152486434297],[107.98166674356766,12.671326055683593],[107.9822160600792,12.671310796449609],[107.98320788168513,12.67145384768573],[107.98452013740433,12.67142809841704],[107.98439043719047,12.671561612395712],[107.98436792422348,12.671564114313774],[107.98416155522871,12.671499623224168],[107.98387163814179,12.671604528481966],[107.9833452103849,12.671670331158165],[107.98271960030704,12.672430409350644],[107.98274248831218,12.6733049295739],[107.98303240558838,12.673335446609704],[107.98333758145382,12.673491849417253],[107.98352831635985,12.673538579559384],[107.98400133874645,12.673798932704722],[107.98396319152654,12.674569501387772],[107.98471087245825,12.674598111609448],[107.98474138975742,12.67580737033702],[107.98468798461579,12.678287878020988],[107.98475664879662,12.679802312381872],[107.98471087270431,12.681257619613366],[107.98474139004317,12.68177164949107],[107.98605364567551,12.681421651282442],[107.98619860483964,12.682285680807952],[107.98639696946866,12.683079137805551],[107.98627489899869,12.683951749754016],[107.9858781699644,12.68485678707025],[107.98568743468087,12.685565367284417],[107.98571795342403,12.685750380033399],[107.9859086885821,12.68619288530954],[107.98595446414997,12.686456098595825],[107.98591631688245,12.687054052374064],[107.98582476417876,12.687207594068115],[107.98569506480322,12.68732680259954],[107.98545092395013,12.687880888147117],[107.98593920506185,12.688326254080987],[107.98628252864796,12.68947829258372],[107.98664111013804,12.691702261476046],[107.98727434911278,12.693890944044862],[107.98725909187974,12.69596327819641],[107.98819750672213,12.698468580517812],[107.98379534571554,12.699461355564944],[107.98328417636051,12.700646772508634],[107.98299425939776,12.701690093065393],[107.98249834906362,12.702783958141845],[107.98201006828758,12.703632728074995],[107.98144549316136,12.704921141674784],[107.98103350583868,12.705567733208046],[107.97969836168444,12.708382979741785],[107.97840899378662,12.711333647898698],[107.9777376073024,12.713136092476919],[107.97765368442703,12.713227645626947],[107.97679156253562,12.715014831442165],[107.97567004121868,12.717448608529287],[107.9756929297728,12.717475310515317],[107.97560900632119,12.717553512870875],[107.97534960726543,12.718185798890199],[107.97457903870988,12.71982325738555],[107.97430438048842,12.720310584851118],[107.97364825252357,12.721710578828882],[107.9729310897291,12.723478690705454],[107.9722215557298,12.72496165476977],[107.9719926733821,12.72558440383896],[107.97177905039077,12.725651160956845],[107.97161883336277,12.72589816311262],[107.9713746923769,12.726578133274387],[107.9711229230675,12.727022545347436],[107.96987933207633,12.72962989163311],[107.9695588966921,12.73008384061232],[107.96935290415458,12.730238335206497],[107.96912402206802,12.73061980584131],[107.96910876305043,12.730744736347615],[107.96833819357133,12.7329496313202],[107.96647662225067,12.740277665046246],[107.96659106305765,12.740802186054903],[107.96651476903955,12.741327661282524],[107.96659106304551,12.741645233660442],[107.96683520301669,12.742015260156922],[107.9674379263342,12.742343324319144],[107.96882647517369,12.742879289261845],[107.96967333818412,12.74308051380603],[107.97000903148788,12.74348201129561],[107.97025317237076,12.743974106733825],[107.9703981317447,12.744035142179854],[107.97074145376787,12.74393500610221],[107.97078723068918,12.744095224048033],[107.97090930042438,12.744139093438921],[107.97110003568545,12.744081871674803],[107.97124499350286,12.74408854801017],[107.9779512314049,12.736036675502593],[107.9781267073077,12.735958473113634],[107.9782487783946,12.736039536077076],[107.97828692561923,12.73635138697824],[107.97841662440953,12.736501114350796],[107.97853869545445,12.736542122234233],[107.9786683945562,12.736513512243194],[107.97876757634732,12.736588852246246],[107.9787752064508,12.736669914059295],[107.97860735913635,12.736953156661004],[107.97860735926548,12.73703707967578],[107.97876757652953,12.737430946996017],[107.97917193445204,12.737879173413464],[107.97924059921114,12.738047974754497],[107.97924822866685,12.738344567440159],[107.97929400520695,12.738394158578403],[107.97936266923885,12.738394158120984],[107.97946185166339,12.73828162434261],[107.97956866331796,12.738291161128593],[107.97982043320201,12.738657372479254],[107.97991961588525,12.73874224901649],[107.98007983215453,12.738776581734927],[107.98017138596951,12.738850968074392],[107.98044604377614,12.738829033353488],[107.98056811481666,12.73891963206321],[107.9806978136311,12.738916771363183],[107.98081225490074,12.738872902170552],[107.98085040128792,12.738750832351748],[107.98094195480942,12.738735573389645],[107.98112505997167,12.738991158525728],[107.98104876556751,12.739194290318794],[107.98106402418331,12.73935927641044],[107.98156756500322,12.739384072285665],[107.98161334135351,12.739356415270777],[107.98159808256055,12.73924674244525],[107.98138445918279,12.73902262934223],[107.98137682944167,12.738934891652331],[107.98149127035407,12.738848107221873],[107.98156756418568,12.738669769098555],[107.98165148902952,12.738664047272696],[107.98181933494067,12.738900558856777],[107.98188036931413,12.738907234052043],[107.98211688201204,12.738673584143628],[107.98217028685922,12.73866404716084],[107.98225421094756,12.73875083204261],[107.98236102163962,12.738732711986],[107.98236102202348,12.73861064235547],[107.9824449456869,12.738539116001334],[107.98281878528789,12.738642113603902],[107.98286456149445,12.738144295656877],[107.98302477989235,12.737976448342744],[107.98313159058945,12.737964050143248],[107.9832307723245,12.737991706929371],[107.98326891920766,12.738051789572081],[107.98346728329659,12.739027397655338],[107.9839250474513,12.739296334272057],[107.9840852642557,12.73920382679989],[107.9844896227529,12.739223854582873],[107.9849779050481,12.73934878586896],[107.98509234496791,12.739420310956666],[107.9851838973634,12.739821808208028],[107.98529833902282,12.7398017813255],[107.98546618581,12.73951663194774],[107.98555773906452,12.739468949461083],[107.98574847227627,12.739452735895645],[107.98589343165465,12.739263909084416],[107.98602313206753,12.7392724917411],[107.98605364854197,12.739320175114155],[107.98603838963076,12.739589111771844],[107.98619860815626,12.739817992797127],[107.98633593650237,12.739829436861262],[107.98637408333578,12.739774123849784],[107.98640460088664,12.739697829870154],[107.9863893428202,12.739536658764258],[107.98643511906317,12.739452735804527],[107.98675555310254,12.739552872455034],[107.98715991042404,12.739549057284155],[107.98722857573884,12.739713089314764],[107.98747271680986,12.740058319479616],[107.98764056288424,12.740174667802492],[107.98761004562685,12.740279572337942],[107.98766345062927,12.740379707976727],[107.98861712623965,12.740620033444767],[107.98880786115949,12.740868941608552],[107.98896044869889,12.740937606913345],[107.98919696010606,12.741161720237585],[107.99021166917734,12.741334336357582],[107.99052447383409,12.741290466759951],[107.99073809713273,12.741334336124337],[107.99163836633147,12.74121798711004],[107.99179095381282,12.741246596979181],[107.99191302417132,12.741134063982143],[107.99214953446456,12.741065398838334],[107.99224871758332,12.741073982198555],[107.99232501102944,12.741106406730342],[107.99244708202883,12.741382972882949],[107.99245471115877,12.741486922781338],[107.99253100471844,12.741526978167686],[107.99272173964039,12.741579429694017],[107.99359149100061,12.741668122259759],[107.99390429635312,12.741583244720736],[107.99501055820598,12.741426841891778],[107.99552935729945,12.741170303678429],[107.99571246328904,12.740941422100386],[107.99588030937997,12.740899460079437],[107.99591082680946,12.740707771989085],[107.9960939318439,12.740584747520145],[107.99610811773799,12.740550761729065],[107.99613970881981,12.740525619560692],[107.9961306808446,12.740496702873564],[107.99613970880748,12.740475074971833],[107.99607867407428,12.740330116086026],[107.99591845599679,12.740163223112216],[107.99585742093527,12.74002112607885],[107.99588030850975,12.739933387962346],[107.9959718623344,12.739829436386625],[107.99600237948005,12.739715949242886],[107.99612444997102,12.739611999597997],[107.99621600299211,12.739242927824224],[107.9963533315156,12.739037887665637],[107.9967424305644,12.738868133924562],[107.99681872533854,12.738735572270311],[107.99683398415422,12.73830451201354],[107.99693316603211,12.738099471362723],[107.99687213106759,12.737935439385183],[107.99689501861845,12.737686530462392],[107.99712390115994,12.73746909314783],[107.99739855919474,12.73705615220044],[107.9975587760413,12.736936942417511],[107.99791735776579,12.736770049459903],[107.99801653995908,12.736507789841232],[107.9981386100306,12.73636950637329],[107.99842089774236,12.736366645111232],[107.99867266784487,12.7364229121543],[107.9988557730142,12.736577406996929],[107.99892443756508,12.736584083878325],[107.99903887907762,12.73653449260825],[107.99926776057062,12.736539259986515],[107.99949664156192,12.736626998737101],[107.99960345382728,12.736537353596855],[107.99998492342061,12.73657550031407],[108.00019091669967,12.736547842948385],[108.00033587555964,12.73665751610155],[108.00043505821517,12.736650840230935],[108.00053424012422,12.73656787064755],[108.00071734444327,12.736561195395778],[108.00110644506479,12.736759559702575],[108.00148028455166,12.736713782219384],[108.00194567773796,12.736745254001788],[108.00199080180373,12.736720275252353],[108.00206774787657,12.736833945529703],[108.00289172327976,12.737342254697593],[108.00317401059773,12.73739566002952],[108.00347155690835,12.737382308647852],[108.00379199114654,12.737491980879353],[108.0038530271607,12.73760737505758],[108.00411242587666,12.737738029361077],[108.00427264306083,12.737736121267586],[108.00436419594803,12.737777128967975],[108.00450915482543,12.73791350526077],[108.00484484763957,12.73796786460632],[108.00489062414186,12.737841979073423],[108.00540942288077,12.737807647421597],[108.00555438164467,12.737737075078075],[108.00555438196082,12.737539796014191],[108.00582140983084,12.737444297351278],[108.00610369816523,12.737273589046522],[108.00622576835791,12.737153426153915],[108.0065690910315,12.737202064068775],[108.00678271421388,12.737136259835339],[108.00719470134453,12.736836806141778],[108.00728625448087,12.736819640394353],[108.00752276465661,12.737016097333417],[108.00775164732241,12.736939803088864],[108.00786608820022,12.736979858082371],[108.00791949422603,12.736839667159199],[108.00797290028967,12.736833944657],[108.00804156393833,12.736985580324431],[108.00820941113221,12.73701037471752],[108.00832385182044,12.736868277898871],[108.00850695745854,12.736948386020881],[108.00867480372997,12.736862555615128],[108.00879687413061,12.73686827798189],[108.00893420336537,12.736799612951167],[108.00928515581904,12.736756697658334],[108.00943774310335,12.73678244727513],[108.00960559029926,12.736637489134944],[108.00975054908442,12.736568823616702],[108.0098039538704,12.736577406712938],[108.00989550729523,12.736682311266383],[108.01013964788679,12.73669947684849],[108.01027697740113,12.736788169281253],[108.01068133524677,12.736411467459408],[108.01074237037321,12.736311331977376],[108.0107576294242,12.73611487532093],[108.01084155207568,12.735977545415789],[108.01097888078245,12.735846893133935],[108.01116961637592,12.735778227857809],[108.0114900506881,12.735586539186803],[108.01194781372365,12.735498800788386],[108.01257342463234,12.73548163482757],[108.01287097098415,12.735501662184394],[108.0130006711535,12.735578909352908],[108.01316088808726,12.735558882435893],[108.01356524567115,12.735415831624726],[108.01380175700967,12.735401526801455],[108.0140916740596,12.73547305192135],[108.01430529687707,12.735441580459646],[108.0143663318277,12.73537291539809],[108.01438921966654,12.735241308666831],[108.01451892045726,12.735227003948502],[108.01467913665859,12.735238448066251],[108.01477068981897,12.735438719442161],[108.01503009041832,12.735553160389207],[108.01515978930817,12.73575533997417],[108.0152818605697,12.73582972606186],[108.01538867133668,12.73582686480613],[108.0160447991543,12.735573187875305],[108.01632708710474,12.735524550662621],[108.01653308044612,12.735749617924792],[108.01673907447245,12.735721007613103],[108.01698321509177,12.735812559135438],[108.01907366926433,12.737374678759695],[108.02098101690993,12.737885847690787],[108.02310198979815,12.737915411543367],[108.02422350998089,12.737668409663542],[108.02540606618318,12.737190619687748],[108.0264665527345,12.737144842432418],[108.02731341527237,12.73738516818631],[108.02760333251308,12.737590208351067],[108.0279237666273,12.737940207616573],[108.02824420125573,12.738521947971645],[108.02898425297184,12.740349187851606],[108.02912921123641,12.740841284470667],[108.02937335154553,12.74280680733363],[108.02931994714854,12.744684591559523],[108.0293814696647,12.74482216563568],[108.02938861131162,12.7448381334592],[108.0294039923098,12.744833426203899],[108.02960986397275,12.74477042282789],[108.02996081586996,12.74449862563975],[108.03022784464454,12.744429960670733],[108.03045672543763,12.744270697665256],[108.03068560774689,12.744277372495091],[108.0315477299541,12.744061842547039],[108.0317689816948,12.744078055018834],[108.03183764718636,12.743963614622176],[108.03186343913362,12.743949750294675],[108.03189962351948,12.7439303010963],[108.03191394048083,12.74392260642074],[108.03207415789933,12.74401320561079],[108.0322725216912,12.744031324359275],[108.03238696266057,12.744162932027795],[108.03248614525332,12.744202985833596],[108.03263110425053,12.744110479041902],[108.03279895012355,12.744073286545238],[108.03318805033172,12.744212522816527],[108.03347796716102,12.744367972220028],[108.03371447834711,12.744367972190867],[108.03390521253445,12.744509115522652],[108.03450793475703,12.744513883861268],[108.0347520751954,12.74443282113123],[108.03501147455361,12.744474783169869],[108.03520983929882,12.744408026550476],[108.03545397971905,12.744525327949724],[108.03544635029687,12.744759932103728],[108.03604144312881,12.744808568789681],[108.03623217810741,12.74473704345927],[108.036552612939,12.74441374779165],[108.03697985857258,12.74440707179695],[108.03712481732082,12.744146719356488],[108.0373842170818,12.744206801446925],[108.03810138039731,12.744223012832546],[108.03825396831647,12.744349851839996],[108.03913134849265,12.744330777802409],[108.0394594121805,12.74411715476248],[108.03959674132462,12.744142904012417],[108.03964251703192,12.744109525842989],[108.03971881098218,12.743911162279229],[108.03978747585133,12.743859663161658],[108.03994006433388,12.743804349586073],[108.04022235093251,12.743814840151495],[108.04033679225041,12.743688001427428],[108.04032954263899,12.743673705258393],[108.04026812788034,12.74355257943029],[108.04031390379954,12.74346293518918],[108.04048175134358,12.743387593525785],[108.04078692665229,12.743654622885126],[108.04084033198538,12.743647946903753],[108.04093188462058,12.743505849726091],[108.04100817898707,12.74346293485298],[108.0410539553826,12.743462934836],[108.04117818134492,12.743561458805127],[108.04127520789174,12.743638411200665],[108.04130932599298,12.743637462442639],[108.0413760404572,12.743635609717227],[108.04141253688788,12.743634596072688],[108.04153460719583,12.743527783420689],[108.04159564173155,12.743414297150181],[108.04229754750392,12.74343909236012],[108.04331988616183,12.743620291015246],[108.04338855041787,12.743718518752281],[108.04366320822938,12.743935002950648],[108.04370135517175,12.744017972817808],[108.04426592995074,12.744169606683439],[108.04488391105238,12.744273557973777],[108.04502887016227,12.744392766604978],[108.04500598266196,12.744765653876948],[108.04531115846045,12.744882955801526],[108.04556292831317,12.745111837009143],[108.04594439755653,12.745129957067766],[108.04604357962147,12.745211019719568],[108.04665393108566,12.745456113859557],[108.04744738861667,12.744781865748743],[108.04854602096302,12.744177236527344],[108.04999560653243,12.743762387457586],[108.05117053308646,12.743758573043097],[108.05312365848488,12.743880643543287],[108.05390948564421,12.743872059960388],[108.05458850134015,12.743746175652475],[108.05582446342731,12.74289263648192],[108.05604571656296,12.742844953214922],[108.05637378060865,12.742848767126096],[108.05718249517784,12.743041409929628],[108.05764788854675,12.743062390112577],[108.05783099439637,12.743014706732376],[108.05830401594511,12.742393864566884],[108.05894488604042,12.741924656777597],[108.05921191480715,12.741972341256279],[108.05960864372521,12.742157353211612],[108.05976123125943,12.742157353034322],[108.0606233520585,12.74163378600718],[108.06091326893763,12.741507901177227],[108.06063098271676,12.74652613598785],[108.06101245185496,12.7465261359933],[108.06592578302755,12.746271504043332],[108.06600970578768,12.746084583373088],[108.06600207580752,12.745975864484983],[108.06893176376448,12.745979679801927],[108.06896228195967,12.742090595576789],[108.0792390759426,12.741906536315767],[108.08059710802765,12.741884602001294],[108.08094805940601,12.741305721053584],[108.08177203504675,12.74020327421218],[108.08228320379658,12.739950549589544],[108.08308429032736,12.739789378725588],[108.08372515981648,12.741474521606015],[108.08381671300042,12.742043864683888],[108.08389300652641,12.743416203044355],[108.08389300696743,12.743603122662826],[108.08381671342107,12.743792903537797],[108.08306903236661,12.744894398323108],[108.08290118475458,12.745081317569346],[108.08267993305509,12.745214831888669],[108.0823518692429,12.745324505206037],[108.08194751119211,12.745417011033638],[108.08133715899507,12.745450389852396],[108.08093280206668,12.745562923054937],[108.080513185296,12.746162784917797],[108.08281726259537,12.748770129990158],[108.0856401387763,12.750580204218968],[108.08566302611123,12.751086604894562],[108.08531970306221,12.75133551446148],[108.0851594861685,12.751625431581123],[108.08480090564186,12.75196780014055],[108.08472461126358,12.752069843062456],[108.08471698110436,12.752257716970975],[108.0846635768088,12.75234450264509],[108.08446521165743,12.752367390434706],[108.08440417680454,12.752558125463068],[108.08399981863711,12.75269545435223],[108.08384723005508,12.752992046172096],[108.08352679637332,12.753108394877271],[108.08337420841711,12.753595722711912],[108.08335894930444,12.75390852707073],[108.08317584488836,12.75404680994087],[108.0831453262733,12.754530323656914],[108.08285540970265,12.754592312349642],[108.08277911510292,12.75472582634774],[108.08234424044157,12.755047215138557],[108.08242816383344,12.755434406588995],[108.08495349216415,12.75672949617006],[108.0854188868036,12.756916416322655],[108.08601397890111,12.756970776764593],[108.08622760180015,12.75692118520535],[108.08630389546077,12.756678951234257],[108.0860979027075,12.756035220912157],[108.08608264375592,12.75575770193235],[108.08625049053538,12.75547160004472],[108.08641833631155,12.755380046870938],[108.0864564837787,12.755291355137034],[108.08651751861467,12.755259884254663],[108.08684558220786,12.755192172988759],[108.08692187657074,12.75514448948954],[108.08695239423261,12.75498999396602],[108.0869434402054,12.754925077259697],[108.08692950634848,12.75482405491053],[108.08695625472158,12.754794695686169],[108.08713115119167,12.75460271741838],[108.0871736461824,12.754556071777847],[108.08719441597512,12.754545923362077],[108.08725757096828,12.754515064125354],[108.08738726941021,12.754563702325283],[108.08739498787236,12.754570718001126],[108.08746078655027,12.75463053562447],[108.0874711935456,12.754639996328288],[108.08758563487945,12.755012882480516],[108.08771533330467,12.755873096671456],[108.08761615162058,12.75673712549431],[108.08745593481265,12.757168186559475],[108.0864107074101,12.758238209421364],[108.08574695111382,12.75904215626799],[108.08561725106294,12.759364498821531],[108.08558673248602,12.75986231632936],[108.08637256077652,12.763191593247793],[108.08638781980275,12.764056576320913],[108.08615130823215,12.765200031744826],[108.08616656688078,12.766661060869987],[108.08705920585349,12.769882572932904],[108.08785266301967,12.769700420741975],[108.0883485747587,12.769574535421896],[108.08865375037239,12.769556416982738],[108.09334032012356,12.768759254240866],[108.09336108661479,12.76876105178077],[108.0934755275259,12.76873625643767],[108.09398669710411,12.768453968534534],[108.09423083748969,12.768212688737451],[108.09431476122224,12.768000973230084],[108.09459704820321,12.76757277331831],[108.09477252459531,12.767165554273307],[108.09508532892889,12.76712359274081],[108.09521502911419,12.767044437031116],[108.09534472937135,12.76687468358685],[108.09537524618895,12.766596210284408],[108.09547442968828,12.766388309320469],[108.09561175868778,12.766296757067055],[108.09603900455548,12.765794169910054],[108.09624499730259,12.76573122813405],[108.09633655047149,12.765590084026964],[108.096389956562,12.765311611517822],[108.09646624995035,12.765191448250967],[108.09693927258942,12.76475466557415],[108.09696216060088,12.764592541252481],[108.09720630142846,12.764426600974673],[108.09753436482362,12.764297855087472],[108.0979158348958,12.764567745331057],[108.09806842372868,12.764754665516657],[108.09825152825461,12.764747036207309],[108.09844226284241,12.764643084748498],[108.09854907545395,12.764514338983732],[108.09857196301905,12.764297855108262],[108.09860248032219,12.764276874851054],[108.09894580371751,12.764273060100436],[108.09925097934725,12.76415289694603],[108.09968585470305,12.764514339290034],[108.09978503646593,12.764514339159577],[108.0998689606462,12.764401806354192],[108.09993762446672,12.764033688170704],[108.09999103055063,12.763950718268148],[108.10011310025517,12.763917338737771],[108.10033435311269,12.763689411048748],[108.10086078130189,12.763651263552623],[108.10105914557771,12.76369704127469],[108.10124987996286,12.763576877898101],[108.10136432174177,12.76359308975307],[108.10173053222408,12.763821972388493],[108.10202044961258,12.763874424260681],[108.10211200205167,12.763816250198087],[108.10214251971568,12.763740910120456],[108.10206622553393,12.763474833884668],[108.1021120020917,12.763383282295907],[108.10233325392808,12.763284099865741],[108.10255450729531,12.763292683157914],[108.10321826434603,12.76353300880824],[108.10345477552212,12.763583553000032],[108.10368365750143,12.763467205150443],[108.10395068667783,12.763201129653076],[108.10408038661934,12.763009440421895],[108.1042482327905,12.762951266673566],[108.10443896757668,12.762926471659233],[108.10500354269294,12.763150585219623],[108.1051790182157,12.763176333966824],[108.10534686503223,12.763118159536523],[108.1052705716668,12.762668979961944],[108.1052782012787,12.762360942397512],[108.10546130631697,12.76216162476182],[108.10572833533759,12.76204527668144],[108.1062395041191,12.762161624280361],[108.10666675042624,12.762195003359452],[108.10712451396924,12.762128246019966],[108.10865039375675,12.761463534579983],[108.10884875735569,12.761480700986022],[108.10913867470543,12.761579883123035],[108.10940570347404,12.761588466559969],[108.10995501905725,12.761405360802256],[108.11055774270437,12.760756862384294],[108.11080188262001,12.760715854441704],[108.11107654003895,12.760807406834129],[108.1113054226947,12.761031520440799],[108.11154193360234,12.761089694174226],[108.11195392133214,12.760998141082585],[108.11217517330998,12.76098955800936],[108.11229724314728,12.761073482129154],[108.1124345731924,12.761546504072859],[108.11262530787829,12.761638057401084],[108.11278552565278,12.761630427167118],[108.11308307137494,12.761480700689978],[108.1136552760301,12.761563670655285],[108.11399096921443,12.76138056561542],[108.11418933384537,12.761113536464089],[108.11461657913283,12.76108206524593],[108.11573810060136,12.761310945969145],[108.11662311081494,12.761753451295865],[108.11740130882744,12.760600458940484],[108.11750049122463,12.759749782133962],[108.11673755167813,12.758529077740018],[108.1154710726545,12.755275141994279],[108.11721057450089,12.755010973506897],[108.11724109102325,12.755033862059744],[108.11756915546732,12.753066431389602],[108.11721820301534,12.74850596021441],[108.11714190850556,12.748028170215484],[108.11637896955973,12.7453016152718],[108.11613482884248,12.743961702067361],[108.1161653466379,12.74340094205355],[108.1173479027161,12.743714701469349],[108.1183092058655,12.743786226696434],[108.11904925764495,12.743478189286323],[108.11957568552832,12.742743860497967],[108.11984271427839,12.74264372421159],[108.12055987804078,12.742572198838769],[108.12094134730117,12.742412935243479],[108.12142199887553,12.742033373548583],[108.12181109767444,12.741560350512074],[108.12235278426438,12.741341005096915],[108.12412280477783,12.741099725813267],[108.12467212066112,12.74077261451815],[108.12568683104877,12.740072617810204],[108.12592334160914,12.7399686682579],[108.12604541175033,12.739875207896006],[108.12615985283766,12.73960531762121],[108.12622088850836,12.739569077584497],[108.12700671602794,12.739378343480173],[108.12728900336352,12.739081751146092],[108.12735766723853,12.739054093361641],[108.12754077354067,12.739090333441405],[108.1276781024567,12.739042649811644],[108.1279832786947,12.73904264981648],[108.12814349545467,12.738975892717392],[108.12825030690631,12.738906274350814],[108.12834948944165,12.738540063279688],[108.12834185971485,12.73789156456251],[108.12838000690932,12.737821946581956],[108.12913531708502,12.73772181102638],[108.12945575205799,12.73780668753105],[108.12954730474787,12.737906823534566],[108.12967700377455,12.737944970758527],[108.1298143330712,12.737862954929957],[108.12990588602267,12.737659821177653],[108.13004321496012,12.737563500433433],[108.13021869108861,12.737690339970191],[108.13025683742578,12.737778077703789],[108.13076037794673,12.737938294112686],[108.13121051258095,12.737750420738344],[108.1313783584191,12.737732301580165],[108.13156146488244,12.737656960238555],[108.13185901048199,12.737427125077492],[108.13204211687712,12.737205872694116],[108.13236255067328,12.737157235527826],[108.13259143283446,12.737226853704263],[108.13278979645406,12.737160096577487],[108.13301104978835,12.737148652342269],[108.13310260213007,12.73710001547628],[108.13333148403765,12.736814866393424],[108.13355273638906,12.736667046471128],[108.13373584142559,12.736612687734874],[108.13430041666115,12.736678490985529],[108.13526935011762,12.737269769347641],[108.13562793132395,12.73721159409733],[108.13572711414713,12.737239251430744],[108.13580340799014,12.737393746253492],[108.13595599560888,12.737538705042027],[108.13642138855097,12.737696060994184],[108.13660449415451,12.737963090655619],[108.13684863490819,12.738153825298205],[108.13696307586939,12.738411317349229],[108.13687152281797,12.738651643600623],[108.13681048808787,12.73908270327515],[108.13694781686331,12.739379296126959],[108.13749713412521,12.739734063154852],[108.13763446271878,12.73985231924447],[108.13773364497048,12.740017304397979],[108.13780230887001,12.74006022028086],[108.13790912061506,12.74003828572357],[108.1381761498108,12.74036825625149],[108.13858050825597,12.740554223184779],[108.13875598418667,12.74074209775481],[108.13935870574426,12.741230378445493],[108.13951892329364,12.741301904436192],[108.14003009281205,12.741416345573155],[108.14011401563076,12.741475472643973],[108.14032001024532,12.741687188286196],[108.14041156254443,12.74187696893256],[108.14055652150961,12.742035278885965],[108.14071673855179,12.742128738953419],[108.14083880848591,12.742287049663055],[108.14103717359126,12.742392907511356],[108.1411210959169,12.742504487244869],[108.14131946049,12.742644677622101],[108.14132708987435,12.742926965261482],[108.14143390135091,12.743075738253369],[108.14144153105167,12.743169198263818],[108.14129657194523,12.74356401919693],[108.14139575463668,12.743725190344556],[108.14140560538499,12.74370968004817],[108.14345569093996,12.740481743843308],[108.14374560821437,12.740232835449556],[108.14412707753868,12.739735969884702],[108.1443712176828,12.739138017435584],[108.14466876410621,12.737976441037334],[108.14473742897599,12.738016496055165],[108.14515704594851,12.737006553897535],[108.14572924973075,12.736086258366795],[108.1458360618592,12.735755333934478],[108.14608020197514,12.734513649381926],[108.14692706453206,12.731065162439867],[108.14741534681394,12.728709587630473],[108.14741534635465,12.728208908474846],[108.14807147372694,12.726083168250263],[108.1483232434371,12.725454696041119],[108.14846820289641,12.72534597777986],[108.14894885489778,12.725451835095624],[108.14927691864764,12.72557485938499],[108.14954394767364,12.7255576931525],[108.14989489942101,12.724781402254461],[108.15498370602451,12.72566641207244],[108.15642566046392,12.725377449260169],[108.15678424299257,12.72481001308361],[108.15773028768376,12.720305808286765],[108.15847033814883,12.719687827508471],[108.16204089532138,12.720411666373142],[108.16425341967374,12.72013033202217],[108.16491717742382,12.719909079360322],[108.16519183542881,12.719607718582962],[108.16531390530342,12.71919000950615],[108.16530628256507,12.715319087819802],[108.16398639014885,12.714934714265235],[108.16382617367636,12.714735396340831],[108.16375750889296,12.713864691626286],[108.16041583433801,12.712918647249616],[108.15344256652435,12.711595900408213],[108.1488496718103,12.71034372700932],[108.14886492959687,12.710055716677388],[108.1490022599612,12.709576972435446],[108.14919299386338,12.70776594439969],[108.14926165844821,12.7066978293935],[108.14924639981159,12.706350692315784],[108.14919299367993,12.706117995509118],[108.14921588287181,12.705610640595928],[108.14992541530066,12.703178771108877],[108.15035266156673,12.701344855450612],[108.15093249512692,12.701500303848693],[108.15290850934672,12.702222234702946],[108.15616626099147,12.703336126511244],[108.15679187041314,12.703505880831809],[108.15748614605938,12.703613645623644],[108.1582414555867,12.703634626498912],[108.15857714947846,12.70361841504998],[108.15942401254787,12.70346296578131],[108.16002673495966,12.703271276715173],[108.16070575098192,12.702945120406133],[108.15994281020812,12.701322920576871],[108.15966052334997,12.701280959082094],[108.15824145597827,12.701700576137156],[108.15717334020883,12.701689132217147],[108.15579242079228,12.700645811795164],[108.15505999837013,12.699055082503676],[108.153648560167,12.697456724746237],[108.15224475085162,12.696899778850199],[108.1520082401143,12.696077711772336],[108.15148181177562,12.696207412186832],[108.15114611772461,12.696196920517405],[108.15053576678065,12.695968992906645],[108.14972705135659,12.695953733487537],[108.14910907047062,12.695597060382408],[108.14865130575922,12.695611365351516],[108.14818591306769,12.695557006172772],[108.14747638034108,12.695640929227316],[108.14691180375756,12.695824988427631],[108.14644641059978,12.695730573709426],[108.14579028312104,12.695917495334117],[108.14569873116777,12.695869810873136],[108.14550036571184,12.695572263834851],[108.1451265259762,12.695482618803373],[108.14496630853834,12.695310004392187],[108.14482897978058,12.695264227677766],[108.14458483863339,12.695277579461713],[108.14425677536282,12.694979078727282],[108.14408892881538,12.69496000582041],[108.14382952883547,12.694989568844811],[108.14360827663756,12.6950754004015],[108.14316577227316,12.69511259332673],[108.14278430210065,12.69521940491103],[108.1425020141177,12.69535673426285],[108.14233416766659,12.695570357367759],[108.14165515226279,12.695801145888558],[108.14115924099653,12.6956104114047],[108.14093035928435,12.695455916216597],[108.13997668532919,12.695358641394666],[108.13967150902695,12.695230849155754],[108.13931292825369,12.695171721763488],[108.13916796874112,12.695112593796768],[108.13901538075736,12.694860823537606],[108.13896960463705,12.694578536272783],[108.13879412913668,12.69422949129538],[108.13861102312912,12.69405020039702],[108.13846606508234,12.693997748247495],[108.13784808390062,12.69397009280807],[108.13763446109783,12.694021590211877],[108.13743609604694,12.694012053606079],[108.13703936735055,12.693851836014513],[108.13690203903268,12.693832763862918],[108.13676470929647,12.693847068037773],[108.13658923395552,12.69392717623061],[108.1365129395224,12.693901427858853],[108.1361314699613,12.693535216236507],[108.13587207064535,12.69342268338336],[108.13577288802604,12.693275817817],[108.13565844750423,12.69323480917268],[108.1354295660405,12.692949660675895],[108.135132018431,12.692765601500337],[108.13475054996383,12.692601569897459],[108.1344835210605,12.692368872354715],[108.13426226765166,12.69207037256805],[108.1340791622157,12.692070372365592],[108.13398760976239,12.692111380294255],[108.13373583964045,12.692101844260382],[108.1336824331268,12.6920665581683],[108.13364428625178,12.691945441465448],[108.13354510433864,12.69188249961384],[108.13321704071932,12.691402800431394],[108.13308734148269,12.691152938097543],[108.13299578820302,12.690652259226486],[108.13283557124963,12.69030130723746],[108.1327058712729,12.690092452216977],[108.13246173089816,12.6898731078362],[108.13251513632771,12.688678153202329],[108.13244647142939,12.688503630637932],[108.13214129627917,12.688031562505397],[108.13179797315934,12.687647231555113],[108.1316682735591,12.687334425964925],[108.1316530143079,12.687237151362536],[108.13164538560909,12.687188514051748],[108.13168444823377,12.686865427074265],[108.13165301423106,12.68651808071728],[108.13136309712947,12.685720809607828],[108.13111895689376,12.685608275332562],[108.13089770457488,12.685608275452246],[108.13076037523966,12.685490972956885],[108.13066882299066,12.685461408960823],[108.13065356426449,12.685332663653183],[108.13054675237797,12.685190566064357],[108.13034838812202,12.68445146861787],[108.13018054077791,12.684230216617665],[108.13027972279626,12.683745749361156],[108.13028735349073,12.68302381828301],[108.13050860509505,12.682630904565046],[108.13074511588654,12.682488807244283],[108.13085955695776,12.682230361415943],[108.13098162787666,12.68213403987769],[108.13111895702919,12.681942351480805],[108.13236254773521,12.681298621525418],[108.13317889314835,12.680989630457917],[108.13364428571516,12.68074358306097],[108.13376635694085,12.680591948010049],[108.13428515618108,12.680226690959842],[108.13445300178375,12.680083640047416],[108.1350023187141,12.679212934665665],[108.13508624225035,12.67879999391298],[108.1351015009385,12.67790926224136],[108.13488787815,12.677193052384576],[108.1348497306266,12.67679918591094],[108.13488024811751,12.676515944196339],[108.1350328356106,12.67592180442695],[108.13523119983115,12.674675352782199],[108.13572711046123,12.673526174804005],[108.13590258677864,12.67277372574226],[108.13641375687561,12.670030004014565],[108.13655871435061,12.669396764398293],[108.13677996767035,12.668746359004981],[108.13698596073357,12.666402227082678],[108.13713854825762,12.665118582153147],[108.13790911723845,12.662594206473845],[108.13799304041639,12.662152653732218],[108.13883990300748,12.662166959859608],[108.13990038916334,12.662127859079298],[108.14108294509846,12.662180311097748],[108.14472216670596,12.662562734146489],[108.14808672921107,12.663008099550348],[108.1480256949139,12.662198430700494],[108.14772814867804,12.661476498858379],[108.14773577750917,12.66126382916239],[108.14744585994782,12.660381680919842],[108.14733904968263,12.660158520748398],[108.14707202026113,12.659987813733068],[108.14707202038822,12.659853345888093],[108.14714831394454,12.65978086559601],[108.14697283813855,12.659653073348617],[108.14679736209276,12.65958726939685],[108.14669817898411,12.659439450759189],[108.14627856371563,12.658666020510045],[108.14614886345345,12.658233052453962],[108.14615649242636,12.65791166425267],[108.14603442189141,12.65703905235383],[108.14592761125742,12.655779248734552],[108.14598101615076,12.65554941216022],[108.14585894571532,12.655431157230215],[108.14581316991445,12.655303364840536],[108.14582842774115,12.654821759767174],[108.14602679270239,12.653768902215335],[108.14615649206364,12.653693562384774],[108.14675921460534,12.651639348565448],[108.14686602606977,12.651492482227736],[108.14701861367239,12.650698070850451],[108.14683550930476,12.650563602873001],[108.14691943206807,12.649881725706276],[108.1468660260901,12.649842625422552],[108.14666766207148,12.649825458804738],[108.14659136777426,12.649665242329007],[108.14629382203984,12.649583226393277],[108.14624804512857,12.649589901905095],[108.14617938084648,12.649708157460585],[108.14598101536255,12.649731044738118],[108.14591998061537,12.649681454132658],[108.14588183385715,12.6494983493644],[108.14583605756778,12.649464970373584],[108.14572924535412,12.649462109571262],[108.14566058197754,12.649521237267619],[108.14565295154883,12.649606113784188],[108.14559191641443,12.649674779504158],[108.14513415388436,12.649727231013204],[108.14489001268352,12.65060365687423],[108.1448289779873,12.650950794939398],[108.1446229834905,12.65151537036995],[108.14437121415314,12.651686078251673],[108.14423388477204,12.651948338531097],[108.14344042773874,12.65226305167892],[108.14316576962818,12.652206784273327],[108.14210528370218,12.652161961031348],[108.1417161851292,12.652232533257076],[108.14086169263116,12.652084714251135],[108.14044970472337,12.651885396091586],[108.13998431220533,12.651878720493094],[108.13945788358471,12.652020817932227],[108.13929003641945,12.652213460426756],[108.13893145539724,12.65225160778702],[108.13883227404527,12.652123814885213],[108.13877123840025,12.652129536748951],[108.13871783234715,12.652264958865002],[108.1386491676949,12.652271634408052],[108.138443174669,12.652226811328257],[108.13825243961189,12.652091390005591],[108.13777941689574,12.652014142809133],[108.137329282923,12.65215528636259],[108.13608569156537,12.652683621964908],[108.13580340355273,12.6527351207021],[108.13469714166979,12.652464276384222],[108.13424700733025,12.652445203457308],[108.13340777342158,12.652593023282275],[108.13289660498864,12.652554875464144],[108.13227099320875,12.652129536904827],[108.13190478277447,12.652052289627893],[108.13089770300411,12.652206784707197],[108.13031786845595,12.652181035930711],[108.12987536319156,12.6520074671559],[108.12941760039675,12.651386624915132],[108.12872332564456,12.650675183718327],[108.12847155560958,12.650192624618986],[108.12836474383232,12.650074368925948],[108.12799090334356,12.650028592949273],[108.12748736346434,12.649903660631693],[108.12726611167336,12.649716740700661],[108.12709063433616,12.649623281054845],[108.126854122982,12.649607068657183],[108.12669390611308,12.649482137280337],[108.12660998310865,12.649507886611586],[108.12614459077703,12.650228864065918],[108.12435168261788,12.649098759713796],[108.12343615485106,12.648941403944514],[108.12327593772405,12.648796446251998],[108.12281817428934,12.64869058812402],[108.1225740335944,12.648706800266035],[108.12236803922303,12.648857481209202],[108.12229174482466,12.648992902077197],[108.12221545108225,12.649015790835085],[108.121986570352,12.649031049037974],[108.1215960600329,12.648948142876696],[108.1214515509395,12.648882081906743],[108.12118548324355,12.648652441402898],[108.12110918885335,12.648504621053698],[108.12110918958216,12.648228056517532],[108.12101763627446,12.648125059297117],[108.12045306090296,12.647855169544373],[108.11990374494161,12.647659666675457],[108.11954516314633,12.64734495312976],[108.11938494583902,12.64735449051284],[108.11903399395746,12.64746988498485],[108.11881274134133,12.647586233721096],[108.11853045453361,12.64764059262854],[108.11825579586353,12.647993452525174],[108.11792773251413,12.647983914917337],[108.1177064790674,12.648080236211701],[108.1174623387764,12.648636228288805],[108.11730282273498,12.648792790530736],[108.11714953301632,12.648873693667896],[108.11679858140951,12.648735410619047],[108.11648577623353,12.648678190190605],[108.11626452394721,12.648591406609999],[108.11606615920142,12.648678190179096],[108.1157838723873,12.648970014255232],[108.11553210220131,12.648922331530297],[108.11528033183792,12.648745901260053],[108.11507433771058,12.648761160711695],[108.11494463771449,12.648889906449813],[108.11421984625916,12.648880369263116],[108.11406725821614,12.648964292510607],[108.1140481097,12.649184495486795],[108.11402281716302,12.649232445448781],[108.1137239349995,12.649300939574388],[108.11366290034488,12.64927519099235],[108.11357134714775,12.649047262597684],[108.113456906287,12.649009115615277],[108.11318224815734,12.648809797263542],[108.1125184908867,12.64868486656757],[108.1122667208885,12.648581869898253],[108.11209124507381,12.648375875454288],[108.1121217621797,12.648211843334407],[108.11199206282645,12.647873289578973],[108.11181658707865,12.647755033176642],[108.11154192764661,12.647650129350493],[108.11114519987748,12.647376425968476],[108.11079424757322,12.647092230405718],[108.11063402971078,12.646703130303425],[108.11056536573997,12.646638281985487],[108.11049670134356,12.646590597781115],[108.11027544870232,12.646598226213214],[108.11022967297444,12.646550543228901],[108.11022204278726,12.64638841829357],[108.11015337881865,12.646299726490271],[108.10993975576639,12.64628351500336],[108.10988635018937,12.646218664946897],[108.10990160865983,12.645829565614035],[108.10997790291654,12.64544714125423],[108.10994738462988,12.645250684827015],[108.10966509644176,12.644523985686197],[108.10948962047435,12.644161588142401],[108.10923022221637,12.644137747945933],[108.1090471156125,12.644124395175783],[108.10890978635125,12.643811590725612],[108.10888689878637,12.64368856668251],[108.10894030473989,12.643653280348929],[108.10897845217075,12.643521673471229],[108.10887927000871,12.643271810216378],[108.10889452897703,12.642987615146168],[108.10894030482903,12.642876035286603],[108.1089097870493,12.642703420083702],[108.10929888603529,12.64218557557504],[108.10934466253937,12.642073995688035],[108.10919970380597,12.641789800371635],[108.10912340992179,12.64172209035213],[108.10871905129096,12.641873724504391],[108.1086046118399,12.642073995861871],[108.10843676420363,12.641925222908796],[108.108177364694,12.641556150421147],[108.10808581240448,12.641338712717687],[108.10781878351862,12.641085989239315],[108.10775011884138,12.640894300551647],[108.1074067967933,12.640579588534926],[108.10767382457429,12.64000642966956],[108.10767382452832,12.639926321466826],[108.10753649565777,12.639757520826468],[108.1071702843363,12.639486677681788],[108.10702532687276,12.639486677239391],[108.10682696269684,12.639384634642783],[108.10675066848421,12.63910902218694],[108.10667437477245,12.639055616352499],[108.10630053348955,12.63890779783684],[108.10572832934228,12.638546354751483],[108.10549944762987,12.638249761067042],[108.10483569069969,12.637768156053426],[108.10475176671838,12.637590772332294],[108.10475939665041,12.637421972470058],[108.10470598991947,12.637313253216647],[108.10436266730846,12.637006170735495],[108.10427874404556,12.636805898124262],[108.10380572089186,12.636596090307792],[108.10273760583132,12.635693914733455],[108.10261553639536,12.63552892887283],[108.10252398347534,12.635296232535245],[108.10237902544448,12.635120756665897],[108.10236376585408,12.634985334423565],[108.10244006030823,12.634538061229204],[108.10237902497968,12.634372122757213],[108.10231036024021,12.634299642709244],[108.10227221323726,12.6340211690786],[108.10210436644593,12.63357771138764],[108.10189837325088,12.633395559523736],[108.10165423190453,12.632890112864127],[108.10151690344603,12.632764227849366],[108.10128802147507,12.632790930232423],[108.10092943998708,12.633072263557573],[108.100738704906,12.633121855652721],[108.1005555994626,12.633098966344972],[108.10046404675803,12.633065588677834],[108.10034960574987,12.632641203817208],[108.10020464735409,12.632436163702895],[108.09944933698671,12.632269270471053],[108.09929674882292,12.632139570967476],[108.09906786723461,12.631728536692766],[108.09880083914709,12.63176191523727],[108.0985948452324,12.631901151671025],[108.09843462761175,12.632096655536118],[108.09835070402242,12.63211286710857],[108.09802264015464,12.632013685933675],[108.09795397611498,12.63196123320105],[108.09786242311235,12.63149679332179],[108.0978471636402,12.630966551895991],[108.0975572470213,12.63032758943416],[108.09700030121988,12.629751569941538],[108.0967027550943,12.629598028815641],[108.09640520853011,12.629592306685012],[108.09564226889027,12.630076772540045],[108.0956117520236,12.63026178527243],[108.0955049397171,12.630370504783492],[108.09541338645158,12.630382902645977],[108.095268428377,12.630319959393006],[108.09518450554432,12.630249388037187],[108.09515398785,12.630045301543435],[108.09500902878045,12.629834539501383],[108.0949174770707,12.629183180613229],[108.09476488913965,12.629074461435238],[108.0940858723762,12.629100210562607],[108.09352129750486,12.628902799549033],[108.09331530346635,12.628570921739554],[108.09301012775626,12.628379232569241],[108.09275835786198,12.62816179477016],[108.09267443487487,12.627926237367129],[108.09236925868115,12.627536184702947],[108.0919725296875,12.627274877313473],[108.09169787120977,12.62715376176405],[108.09156054275864,12.627223379240613],[108.09131640237536,12.62753618492453],[108.09123247895643,12.627900489043034],[108.09105700284785,12.627983457466499],[108.0908357505317,12.627907163962272],[108.0906831628426,12.627931959375093],[108.09043902189711,12.628168471085626],[108.09037798644786,12.628168471045798],[108.09030932157916,12.628073103598615],[108.0902864332762,12.627817518973009],[108.09037035786996,12.627549535444395],[108.0905992383777,12.627249129012895],[108.09049242760838,12.626751310235804],[108.09030932171456,12.62660444477276],[108.09012621623626,12.626572973733714],[108.08974474672426,12.626668341064722],[108.08943194108721,12.626521475348355],[108.08920305939333,12.626201994382031],[108.08905047111313,12.626094228751773],[108.08875292590047,12.625748998883616],[108.08856982013508,12.625717527544003],[108.0883714557338,12.625889189778437],[108.08832567986339,12.626094228784293],[108.0880967975048,12.62624681696971],[108.0873262288508,12.626234419781852],[108.08717364050098,12.626170522886737],[108.08713549351732,12.626075156105482],[108.08715075252833,12.625768072838847],[108.08711260534676,12.625717528107495],[108.08684557593983,12.62556112591464],[108.08678454135823,12.62536562163027],[108.08668535955502,12.625301726211266],[108.08644884852743,12.6252778837518],[108.08633440715222,12.625228292588895],[108.08629625994932,12.625096686183127],[108.08631914824913,12.624968893888093],[108.08653277124395,12.624695188744665],[108.0866472126319,12.62426412811315],[108.08668535909607,12.623921758436392],[108.086662470983,12.623794920857524],[108.08634203640962,12.623612768695297],[108.08631151948967,12.623536474885416],[108.08636492462495,12.623196967044178],[108.0862733725372,12.623086340474996],[108.0861131544106,12.623003370277933],[108.0860216023245,12.622661001619118],[108.08586901457494,12.622559911983428],[108.08582323686115,12.622440702831135],[108.08562487320891,12.622256643267303],[108.08539599089035,12.622183210377772],[108.08529680912267,12.62212694381047],[108.08525866239152,12.622056371507751],[108.08525103330342,12.62194860699547],[108.08532732677284,12.621816999497145],[108.08526629239954,12.62140310560637],[108.0854188797558,12.620849974090182],[108.08538836253678,12.620551473666751],[108.08506792738868,12.620054609300803],[108.08496874493645,12.620001203352796],[108.08476275218135,12.620035536993845],[108.08465594026917,12.619964010633716],[108.08459796923287,12.62006183784336],[108.08457964619896,12.620154366944146],[108.08457964591653,12.620430357700918],[108.08423632306406,12.620860464449466],[108.08406847681263,12.620932943755257],[108.08398455347938,12.620838529435284],[108.08383959546534,12.620796568677157],[108.08374041300345,12.620824224854296],[108.08359545365417,12.62104738493401],[108.0833665722084,12.620993978982003],[108.08326739032533,12.621014005343733],[108.08316820822712,12.62109792981061],[108.08312243256955,12.62143839084839],[108.08322161444852,12.62147749207921],[108.08343523745431,12.621402152168743],[108.08348101319805,12.621426947041169],[108.08348101307514,12.621486074599364],[108.08341997814834,12.621619589830239],[108.08329790853664,12.621675855365291],[108.08311480189734,12.62189901558214],[108.08312243212254,12.621952421486764],[108.08337420186348,12.622052557934854],[108.08354967802488,12.62230051271339],[108.08391588882485,12.62238634402752],[108.0841600289456,12.622525579876555],[108.08425921233687,12.623117812102416],[108.08409899423434,12.623380071849326],[108.08398455278707,12.623419172557156],[108.08393114825375,12.623497373498939],[108.08393114779538,12.623687155410192],[108.08397692429757,12.623849280199181],[108.08393114805845,12.623949416280002],[108.08359545462216,12.62410009598061],[108.08355730768443,12.624180204977],[108.0835496781476,12.624963171914242],[108.08343523692722,12.625342734217625],[108.08363360165221,12.625716573540327],[108.08362597269436,12.625851042646232],[108.08349627272075,12.626057036112481],[108.08340471914825,12.62607992384652],[108.08330553731176,12.626074201594578],[108.0830919142461,12.625934012002986],[108.08284014464708,12.625892051364525],[108.08255022713738,12.626016982016523],[108.08247393345248,12.62614000644445],[108.08237475125823,12.626519567965795],[108.08236712258098,12.62696588828672],[108.08246630408422,12.627312071812408],[108.0826036336684,12.627552398211723],[108.0831758387936,12.628054984352403],[108.08323687348066,12.628518469774672],[108.08311480278236,12.628869422263259],[108.0831682087111,12.628959067284923],[108.08332842575771,12.628964789237747],[108.08352679024836,12.6288694218217],[108.08372515444356,12.628883726648201],[108.08412188288362,12.629001028910187],[108.08435839489582,12.629129774646062],[108.08436602355738,12.629247076675115],[108.08428972986141,12.629453070173646],[108.0842897292797,12.629598028932161],[108.08437365389533,12.629793532236803],[108.08441179912204,12.630251295877333],[108.08451861165504,12.630620367771643],[108.07840746648016,12.63228548370542],[108.07691210511481,12.632815726112225],[108.07623308953177,12.634087928216726],[108.07535570860367,12.634042151944184],[108.07509630920647,12.633942969372502],[108.07477587468802,12.633460410575946],[108.07052630117957,12.629886039597292],[108.07042711952242,12.629687674656715],[108.06952685159838,12.629012473896658],[108.06929796953604,12.628766425558473],[108.06925219331434,12.628599532615391],[108.06929033978493,12.62846697165081],[108.06980913785763,12.62816179543841],[108.06988543222805,12.627930053234616],[108.06990831998861,12.627653487814348],[108.06996935657445,12.62755430533396],[108.0704347494481,12.62744844784908],[108.07045000744297,12.626903899784368],[108.07050341282577,12.626729377188239],[108.07046526632982,12.626518615462377],[108.07052630123164,12.626250632495871],[108.07106035893321,12.625185378777847],[108.07114428212458,12.6249278869164],[108.07115954065463,12.624635108679282],[108.07110613512431,12.624532111538755],[108.07099932436225,12.624464400566564],[108.07092303007923,12.624305136669825],[108.07093828870114,12.62340486836439],[108.07070177822887,12.622365363026],[108.07071703608909,12.622127898802589],[108.0709535483121,12.621835120077849],[108.07080095976015,12.621564276269327],[108.070724665882,12.620607741055451],[108.07059496612085,12.620303519542258],[108.0705873365248,12.62012899760762],[108.07082384798169,12.619454749667096],[108.0708238481188,12.619233496003766],[108.0707322944653,12.619109519305363],[108.07078570037754,12.618486769480924],[108.07085436514319,12.618363745482016],[108.07090014160731,12.617775328000963],[108.07093828907105,12.617644674989727],[108.07139605165192,12.617096311985444],[108.07189196276654,12.616718657363652],[108.07184618679094,12.616633780015713],[108.07185381544484,12.616475469825705],[108.07199877486234,12.61620557988596],[108.07220476742975,12.616066343741382],[108.07302874282787,12.615948088016653],[108.07360857660827,12.616039641083427],[108.07374590558398,12.616013891607166],[108.07380694022211,12.615815528163447],[108.07383745902042,12.615175612159925],[108.07362383598891,12.614462264092422],[108.0735933175619,12.613524802194544],[108.07355517017012,12.61347902624065],[108.07346361709597,12.613479026271351],[108.0733415473089,12.6135734391407],[108.07310503608946,12.61353529178503],[108.07295244867076,12.61336553820371],[108.07275408490592,12.61260832105809],[108.07260912535142,12.612520582963056],[108.07196062702894,12.612457640049252],[108.07171648603389,12.612583525131521],[108.07138842272505,12.61291158917815],[108.07124346462045,12.612987882892671],[108.07114428120516,12.612977392758106],[108.0710222110604,12.612860091260949],[108.07080095920331,12.612542516650782],[108.07067888864366,12.612539656233896],[108.07035082441158,12.612635024430821],[108.06993120882376,12.612845786312098],[108.06966417917108,12.613047965332152],[108.06919115625992,12.613605864105153],[108.0689012392629,12.613622077274416],[108.06864946970607,12.613513358269254],[108.0685502870974,12.613412267962323],[108.06852739935704,12.613231070456827],[108.06851214036926,12.613015539751398],[108.06858080523881,12.612820989661689],[108.06856554623447,12.612545377759416],[108.06864946911392,12.612384207817003],[108.0688630925748,12.612170583790258],[108.06893938637347,12.611812957155268],[108.0690538271613,12.611719496807124],[108.06938189102178,12.611618406668683],[108.06972521437257,12.611445791551068],[108.06974047309603,12.611404784038417],[108.06972521430967,12.611366636982199],[108.06956499739668,12.611359007919349],[108.06953447978795,12.611259824594278],[108.0695802560895,12.611153967607029],[108.06967943833894,12.611123449811767],[108.06980299372151,12.611149796842103],[108.06981676756968,12.611013777543958],[108.06970995521506,12.610842116100063],[108.06964892027574,12.610833533273436],[108.06960314438155,12.610866912367435],[108.06958788539286,12.611000426023502],[108.06951922019361,12.610989935626092],[108.06956499705356,12.610877401952962],[108.0695497385822,12.610735305033156],[108.06950365863969,12.610725114375718],[108.06942965865204,12.610740145767554],[108.06938775213912,12.610793838363394],[108.06936304753204,12.610917620030378],[108.0693666325202,12.610994703708336],[108.06930559694344,12.611205466017454],[108.06922167464023,12.61131513943847],[108.0688249457057,12.611388572322227],[108.06865709913181,12.611877806010739],[108.06835955272288,12.612324126459734],[108.06808489439805,12.612331755137005],[108.06798571252381,12.612233527225097],[108.06791704839385,12.612290747408561],[108.06775683007099,12.612318404205618],[108.06756739245488,12.612072499505397],[108.06752794843511,12.612097152056666],[108.06758898445764,12.612359411855868],[108.06752031910976,12.612470992258805],[108.06657427389179,12.612873441879543],[108.06634539250196,12.61290109925735],[108.06586474012609,12.61269319791225],[108.06562060043944,12.612558729790436],[108.06553667585821,12.612315543345115],[108.06549852934702,12.61161840728076],[108.06540697720047,12.610978492109128],[108.06531542416057,12.610864051101018],[108.0652467594988,12.61086119021426],[108.06520861261828,12.610817321533576],[108.06531542405348,12.61047018319613],[108.06549852908176,12.61026800437804],[108.06575029893666,12.61014211920697],[108.06591051722661,12.610120184756134],[108.06604784633835,12.61019171029903],[108.06616991577556,12.610350019818807],[108.06619280430482,12.610251791821723],[108.06610125193144,12.609897024973746],[108.06620806357121,12.609691031367474],[108.06622332190835,12.609321959431165],[108.0662996163439,12.60919988939423],[108.06649035075665,12.609135038983078],[108.06716936732975,12.608763106078207],[108.06749743158589,12.608653434155435],[108.06767290715621,12.608679182821714],[108.06781023623186,12.60865057331076],[108.06797045285501,12.608566648694588],[108.06804674698387,12.608406432359521],[108.06788652973113,12.608383544308655],[108.0677644601748,12.608535177616782],[108.06719988396324,12.608547576229347],[108.06654375607945,12.60874975521675],[108.06602495802812,12.609029181174666],[108.06589525782805,12.609199889349874],[108.06577318844509,12.609482177112008],[108.06537645961322,12.609726317244487],[108.06516283662563,12.609806426164468],[108.06502550689571,12.609803565133934],[108.06491869504595,12.609649070336399],[108.06497973114017,12.60948217728027],[108.06487291940842,12.609312422931794],[108.06497210154963,12.608824140847808],[108.06496447224491,12.608749755028882],[108.06492632503563,12.608733542511525],[108.06485766036532,12.608804114397827],[108.0647203308575,12.60913503895361],[108.06465166688419,12.609488852024873],[108.06452959649471,12.609794027822849],[108.064377008264,12.6100896675745],[108.0642778260893,12.610134489899929],[108.06423205040808,12.610095389118497],[108.06423205043215,12.60998953102784],[108.06430834412943,12.60974920472176],[108.06417101548129,12.609549887452074],[108.06396502067636,12.609456426942227],[108.06282824124746,12.609446890949433],[108.06269091217214,12.609341033215525],[108.06258410137661,12.609141715287738],[108.06261461846782,12.609016784005993],[108.06271380016632,12.608865149273718],[108.06269091219302,12.608660109045752],[108.06272905885386,12.60854471529764],[108.06292742301707,12.608341582117305],[108.06295794103845,12.608220464802228],[108.06309526998321,12.608148940049132],[108.06323259935822,12.608014471975691],[108.063263117337,12.607915289986423],[108.0632325988538,12.60788954031221],[108.06306711812299,12.608038472836975],[108.06303423467102,12.608078368053153],[108.06285113012827,12.608232863319795],[108.06278246510598,12.608245261203225],[108.06268328327482,12.608017332868293],[108.06254595435941,12.607821830165886],[108.06249254777242,12.607838041715688],[108.06242792108162,12.608213049556491],[108.06242388293576,12.608364470190885],[108.06234759023182,12.608679183225906],[108.0621339663162,12.608807929265799],[108.06187456750065,12.609080680126578],[108.06143206228276,12.609279998064267],[108.06054705167863,12.607284911538189],[108.0604402404723,12.606792815328188],[108.06059282846054,12.605986959968654],[108.06070726948742,12.605812438340513],[108.0618211608255,12.605052358995758],[108.06373613916968,12.603949911919113],[108.06577318794574,12.600602514775222],[108.06607073417705,12.599938757759281],[108.06842058750061,12.597929365102715],[108.06968706621959,12.59706533630946],[108.07022875404066,12.597190267179426],[108.0709077699183,12.597027189633689],[108.071808038866,12.596512205303732],[108.07256334834648,12.596230870969675],[108.07275408332393,12.596109754344832],[108.07282274770142,12.596001035409763],[108.07289141237814,12.595488912512911],[108.0733033999797,12.594546682166031],[108.07324236493186,12.594233877444875],[108.07337969378656,12.593846685107248],[108.07298296482298,12.593771345509552],[108.07293718822416,12.593702680090956],[108.07320421745969,12.593078023987461],[108.0732576234129,12.592827207476104],[108.07373064593611,12.591936474643482],[108.07378405104959,12.59173525038818],[108.07376879254429,12.591613180162199],[108.07489794344879,12.591591245317174],[108.07509630747191,12.591671353478121],[108.07554644112554,12.592066174974216],[108.07572191772032,12.592146283787475],[108.07772081880596,12.592528707274933],[108.08155840490146,12.59336603307904],[108.08181017405776,12.578193074098417],[108.08177202706182,12.576058751004059],[108.08187883854275,12.575563793729286],[108.08232897293088,12.575165158247055],[108.08241289566456,12.575047855464877],[108.08250444897207,12.574295406975114],[108.08251970788919,12.573580150913589],[108.08234423175156,12.573513393500651],[108.08238237875688,12.572738056823827],[108.08156603255833,12.572734241686922],[108.08145922129304,12.57270277123385],[108.08125322736527,12.572522526206528],[108.08118456412434,12.572368984556556],[108.08113878698246,12.571836835130757],[108.08134478108386,12.570553188424903],[108.08139055644354,12.570004825510418],[108.07930010273391,12.568337804053984],[108.07768267150256,12.565431957384948],[108.07695787843197,12.564253215866849],[108.07685106748322,12.561249141768789],[108.07713335391327,12.558936481052921],[108.07746141825538,12.55862463033084],[108.07848375731098,12.558407192517405],[108.07883470902186,12.55812490440754],[108.07886522727128,12.55795419764571],[108.07881945015396,12.554636364564919],[108.078178580776,12.554572467331782],[108.07747667703349,12.554335956329506],[108.07687395490878,12.553928736967391],[108.07585161592168,12.553775196636085],[108.07448595414537,12.553960209101646],[108.0733491738945,12.55397642114634],[108.07282274552884,12.55385625808712],[108.07198351259787,12.553189640012283],[108.0708772507681,12.55317724209221],[108.06959551182423,12.553277378212224],[108.06855028463328,12.553122883009781],[108.0661622847158,12.55321157440106],[108.0637742836178,12.553070430744112],[108.06342333105417,12.553181057730757],[108.05957811597482,12.555140857997607],[108.0591661292545,12.555736904948208],[108.05897539429803,12.557364826968756],[108.0584489661274,12.557530766084751],[108.05742662749645,12.557662373192374],[108.05625933086083,12.557678586612257],[108.055099662106,12.557293300936053],[108.05455034503754,12.557230359531898],[108.0536424475164,12.557334309303133],[108.05189531592433,12.557258969407656],[108.05116289460109,12.55736482799851],[108.05049150698912,12.557929402513151],[108.04880541149107,12.559883482045846],[108.04830950169936,12.560192471708863],[108.04760759643338,12.560184843002633],[108.04612749431304,12.559968359232538],[108.04521959673629,12.560073262691915],[108.04405229858253,12.560460454795104],[108.04225939142471,12.561727888109715],[108.03911608059619,12.561749822638083],[108.03797167156063,12.562023527537413],[108.0373842081245,12.562474615263866],[108.03663652733958,12.564124471826837],[108.03633135180768,12.565408117700535],[108.03630083454468,12.565721876566451],[108.03614824641225,12.565921194937637],[108.0360032878457,12.566005117782803],[108.03314989477354,12.56600225682981]]]]}}]}