{"type":"FeatureCollection","name":"gis.vn","features":[{"type":"Feature","properties":{"ma_huyen":"648","ten_huyen":"Cư M'gar","loai":"Huyện","cap":2,"stt":6,"ma_tinh":"66","ten_tinh":"Đắk Lắk"},"geometry":{"type":"MultiPolygon","coordinates":[[[[108.08616656688078,12.766661060869987],[108.08615130823215,12.765200031744826],[108.08638781980275,12.764056576320913],[108.08637256077652,12.763191593247793],[108.08558673248602,12.75986231632936],[108.08561725106294,12.759364498821531],[108.08574695111382,12.75904215626799],[108.0864107074101,12.758238209421364],[108.08745593481265,12.757168186559475],[108.08761615162058,12.75673712549431],[108.08771533330467,12.755873096671456],[108.08758563487945,12.755012882480516],[108.0874711935456,12.754639996328288],[108.08746078655027,12.75463053562447],[108.08739498787236,12.754570718001126],[108.08738726941021,12.754563702325283],[108.08725757096828,12.754515064125354],[108.08719441597512,12.754545923362077],[108.0871736461824,12.754556071777847],[108.08713115119167,12.75460271741838],[108.08695625472158,12.754794695686169],[108.08692950634848,12.75482405491053],[108.0869434402054,12.754925077259697],[108.08695239423261,12.75498999396602],[108.08692187657074,12.75514448948954],[108.08684558220786,12.755192172988759],[108.08651751861467,12.755259884254663],[108.0864564837787,12.755291355137034],[108.08641833631155,12.755380046870938],[108.08625049053538,12.75547160004472],[108.08608264375592,12.75575770193235],[108.0860979027075,12.756035220912157],[108.08630389546077,12.756678951234257],[108.08622760180015,12.75692118520535],[108.08601397890111,12.756970776764593],[108.0854188868036,12.756916416322655],[108.08495349216415,12.75672949617006],[108.08242816383344,12.755434406588995],[108.08234424044157,12.755047215138557],[108.08277911510292,12.75472582634774],[108.08285540970265,12.754592312349642],[108.0831453262733,12.754530323656914],[108.08317584488836,12.75404680994087],[108.08335894930444,12.75390852707073],[108.08337420841711,12.753595722711912],[108.08352679637332,12.753108394877271],[108.08384723005508,12.752992046172096],[108.08399981863711,12.75269545435223],[108.08440417680454,12.752558125463068],[108.08446521165743,12.752367390434706],[108.0846635768088,12.75234450264509],[108.08471698110436,12.752257716970975],[108.08472461126358,12.752069843062456],[108.08480090564186,12.75196780014055],[108.0851594861685,12.751625431581123],[108.08531970306221,12.75133551446148],[108.08566302611123,12.751086604894562],[108.0856401387763,12.750580204218968],[108.08281726259537,12.748770129990158],[108.080513185296,12.746162784917797],[108.08093280206668,12.745562923054937],[108.08133715899507,12.745450389852396],[108.08194751119211,12.745417011033638],[108.0823518692429,12.745324505206037],[108.08267993305509,12.745214831888669],[108.08290118475458,12.745081317569346],[108.08306903236661,12.744894398323108],[108.08381671342107,12.743792903537797],[108.08389300696743,12.743603122662826],[108.08389300652641,12.743416203044355],[108.08381671300042,12.742043864683888],[108.08372515981648,12.741474521606015],[108.08308429032736,12.739789378725588],[108.08228320379658,12.739950549589544],[108.08177203504675,12.74020327421218],[108.08094805940601,12.741305721053584],[108.08059710802765,12.741884602001294],[108.0792390759426,12.741906536315767],[108.06896228195967,12.742090595576789],[108.06893176376448,12.745979679801927],[108.06600207580752,12.745975864484983],[108.06600970578768,12.746084583373088],[108.06592578302755,12.746271504043332],[108.06101245185496,12.7465261359933],[108.06063098271676,12.74652613598785],[108.06091326893763,12.741507901177227],[108.0606233520585,12.74163378600718],[108.05976123125943,12.742157353034322],[108.05960864372521,12.742157353211612],[108.05921191480715,12.741972341256279],[108.05894488604042,12.741924656777597],[108.05830401594511,12.742393864566884],[108.05783099439637,12.743014706732376],[108.05764788854675,12.743062390112577],[108.05718249517784,12.743041409929628],[108.05637378060865,12.742848767126096],[108.05604571656296,12.742844953214922],[108.05582446342731,12.74289263648192],[108.05458850134015,12.743746175652475],[108.05390948564421,12.743872059960388],[108.05312365848488,12.743880643543287],[108.05117053308646,12.743758573043097],[108.04999560653243,12.743762387457586],[108.04854602096302,12.744177236527344],[108.04744738861667,12.744781865748743],[108.04665393108566,12.745456113859557],[108.04604357962147,12.745211019719568],[108.04594439755653,12.745129957067766],[108.04556292831317,12.745111837009143],[108.04531115846045,12.744882955801526],[108.04500598266196,12.744765653876948],[108.04502887016227,12.744392766604978],[108.04488391105238,12.744273557973777],[108.04426592995074,12.744169606683439],[108.04370135517175,12.744017972817808],[108.04366320822938,12.743935002950648],[108.04338855041787,12.743718518752281],[108.04331988616183,12.743620291015246],[108.04229754750392,12.74343909236012],[108.04159564173155,12.743414297150181],[108.04153460719583,12.743527783420689],[108.04141253688788,12.743634596072688],[108.0413760404572,12.743635609717227],[108.04130932599298,12.743637462442639],[108.04127520789174,12.743638411200665],[108.04117818134492,12.743561458805127],[108.0410539553826,12.743462934836],[108.04100817898707,12.74346293485298],[108.04093188462058,12.743505849726091],[108.04084033198538,12.743647946903753],[108.04078692665229,12.743654622885126],[108.04048175134358,12.743387593525785],[108.04031390379954,12.74346293518918],[108.04026812788034,12.74355257943029],[108.04032954263899,12.743673705258393],[108.04033679225041,12.743688001427428],[108.04022235093251,12.743814840151495],[108.03994006433388,12.743804349586073],[108.03978747585133,12.743859663161658],[108.03971881098218,12.743911162279229],[108.03964251703192,12.744109525842989],[108.03959674132462,12.744142904012417],[108.0394594121805,12.74411715476248],[108.03913134849265,12.744330777802409],[108.03825396831647,12.744349851839996],[108.03810138039731,12.744223012832546],[108.0373842170818,12.744206801446925],[108.03712481732082,12.744146719356488],[108.03697985857258,12.74440707179695],[108.036552612939,12.74441374779165],[108.03623217810741,12.74473704345927],[108.03604144312881,12.744808568789681],[108.03544635029687,12.744759932103728],[108.03545397971905,12.744525327949724],[108.03520983929882,12.744408026550476],[108.03501147455361,12.744474783169869],[108.0347520751954,12.74443282113123],[108.03450793475703,12.744513883861268],[108.03390521253445,12.744509115522652],[108.03371447834711,12.744367972190867],[108.03347796716102,12.744367972220028],[108.03318805033172,12.744212522816527],[108.03279895012355,12.744073286545238],[108.03263110425053,12.744110479041902],[108.03248614525332,12.744202985833596],[108.03238696266057,12.744162932027795],[108.0322725216912,12.744031324359275],[108.03207415789933,12.74401320561079],[108.03191394048083,12.74392260642074],[108.03189962351948,12.7439303010963],[108.03186343913362,12.743949750294675],[108.03183764718636,12.743963614622176],[108.0317689816948,12.744078055018834],[108.0315477299541,12.744061842547039],[108.03068560774689,12.744277372495091],[108.03045672543763,12.744270697665256],[108.03022784464454,12.744429960670733],[108.02996081586996,12.74449862563975],[108.02960986397275,12.74477042282789],[108.0294039923098,12.744833426203899],[108.02938861131162,12.7448381334592],[108.0293814696647,12.74482216563568],[108.02931994714854,12.744684591559523],[108.02928599996143,12.744661488722612],[108.02927417021844,12.74463881584505],[108.02926652498651,12.744648235234742],[108.02925128148814,12.74463786134737],[108.02916735910337,12.744770422493177],[108.02903765840712,12.744838133231072],[108.02891558891265,12.745105162685142],[108.02826709031177,12.745327368527805],[108.02806872553845,12.745281592924853],[108.0280594244904,12.745303140750043],[108.02803820806474,12.745300665829685],[108.0279888974705,12.745466526668054],[108.02795428445617,12.745546713522467],[108.02795919478234,12.745566436055062],[108.0279542845432,12.745582953122623],[108.0279681114955,12.745602254649025],[108.02800006111482,12.745730582262546],[108.02800006122877,12.745807066100495],[108.02806872580379,12.746006384884723],[108.0279161376275,12.746225729791005],[108.0278016970818,12.746279135631344],[108.02743548577187,12.746339216327181],[108.02732867486301,12.745978727625936],[108.02731799511412,12.745982153955717],[108.02731341556961,12.745968237228794],[108.02687091088384,12.746125593347072],[108.02673358196903,12.74622859037613],[108.02646655266791,12.746279135152006],[108.02587909004173,12.746477499778004],[108.02572650160249,12.746464148823804],[108.0255968016002,12.746304884234908],[108.0254289547499,12.746291533430174],[108.025146667824,12.746501341694492],[108.02491778616533,12.746523275753272],[108.024704162564,12.746713057662792],[108.0246431281328,12.746855154745791],[108.0245897219436,12.74689139499853],[108.02433795187412,12.74685229406681],[108.02407855263549,12.746904745736911],[108.02391833527813,12.746955290779558],[108.02371234185935,12.747104063777057],[108.02343005351565,12.747207061205534],[108.02337664802333,12.747339621558696],[108.0235139768751,12.747606651030962],[108.0235979008582,12.747911825688897],[108.02336901899183,12.74811209795329],[108.02326983672978,12.748414412693428],[108.0232850962447,12.748648062588119],[108.02321643123422,12.748709097755734],[108.02307147205657,12.748682394849663],[108.02304095456039,12.748643293698521],[108.02304095516885,12.748472586934632],[108.02290362631443,12.748387709737747],[108.0228654792959,12.747991934869226],[108.02279681388755,12.747977629512741],[108.0227434082122,12.748041526231098],[108.02272815027337,12.748226539032393],[108.02246112132016,12.748390570983883],[108.02217120404285,12.748668089703354],[108.02173632796175,12.748825446041073],[108.02165240528996,12.748806372538768],[108.02154559363503,12.748503103716281],[108.02140063480711,12.748374358348853],[108.02127093477519,12.748344794184703],[108.0212681589079,12.748348690798746],[108.02124804676959,12.748344793901277],[108.02117175254581,12.748484030578132],[108.02100390723263,12.748536482516865],[108.02084237721569,12.748512780775268],[108.02083246118791,12.74839131425815],[108.02083605987492,12.748284713200196],[108.02082248515411,12.748269102066608],[108.02082080113952,12.748248472626507],[108.02080601585781,12.748250163375388],[108.02079791323287,12.748240844210308],[108.02055377224039,12.748278991351722],[108.02032489021873,12.748197928928242],[108.020309631543,12.748024360037489],[108.02034777883883,12.747974768702633],[108.02044696120987,12.747959509867107],[108.0204469606783,12.747928992078233],[108.02031726071314,12.74784602260149],[108.02016467268278,12.747644797318555],[108.02003497260013,12.747617141293714],[108.01989764352598,12.747765913840135],[108.01960772647878,12.747778312145954],[108.0191804810246,12.74798239812276],[108.01801318399382,12.748925581780279],[108.01655596970471,12.749588386184545],[108.01524371415772,12.7513126291518],[108.01514453233833,12.751602546371686],[108.01505297909452,12.752611533428013],[108.01482409718469,12.752993956963135],[108.01458758595663,12.753129378385681],[108.01400775202836,12.753123656157015],[108.01352710023734,12.753187553821226],[108.01335162351438,12.75308550983447],[108.01299304212479,12.753382102889185],[108.01177233889689,12.753331557751949],[108.01155871587254,12.753406898566263],[108.01147479256176,12.75352229265193],[108.0113679804573,12.753557578512646],[108.01122302293751,12.753689185645268],[108.01117724600275,12.75379885825788],[108.01107043450187,12.753847495964266],[108.01102465784128,12.753954307559455],[108.01093310590187,12.754005805741969],[108.01086444105452,12.754115479034985],[108.01068133631172,12.754158393329954],[108.00995654291948,12.754822150930838],[108.0095979615793,12.755014793823824],[108.00928515688386,12.755356208329728],[108.00912493934656,12.755431548887296],[108.00912142522385,12.755444896567871],[108.00909902186233,12.75552998600606],[108.00892657540459,12.756184951399122],[108.00886553983936,12.75627078308508],[108.00884608577506,12.756267269946887],[108.00872821099661,12.756245986819714],[108.00870761741949,12.75626278779428],[108.0086722643855,12.756291627829555],[108.00858325175705,12.756364242795213],[108.00850558640884,12.756484517049698],[108.00846242997393,12.756551348598398],[108.00844592311137,12.756576911744316],[108.00847644084779,12.756724732115604],[108.00836199984006,12.757089034785537],[108.00830096495244,12.757151023467086],[108.00829333478518,12.757266418794215],[108.00817889417617,12.757275001713142],[108.00802630631087,12.757363692728752],[108.00793475426448,12.75744952404691],[108.00789660696991,12.75755442818333],[108.00788395204329,12.757638445078108],[108.00782794164014,12.758010284741355],[108.00793475367385,12.758351699842157],[108.00800341843203,12.75843180920584],[108.00796527098223,12.75849665926589],[108.00804919468884,12.758721725647838],[108.00790423649171,12.758859054577098],[108.0079194954882,12.759044067532004],[108.00785846050277,12.759271041547533],[108.00753802552506,12.759498016771065],[108.00755328424863,12.759905235307972],[108.00762957859023,12.76017989395537],[108.00765246588708,12.76051463312009],[108.0076143188123,12.760731117476185],[108.00705737339777,12.760922806200643],[108.00700396838424,12.760971443530151],[108.0068742686289,12.761886016728873],[108.00698107953956,12.762234108073661],[108.00682086252064,12.762612717598858],[108.0067827150407,12.762855904115192],[108.00514239558932,12.764313118327571],[108.00518054220875,12.765932457146677],[108.00637835801724,12.778789895101582],[108.00646228197435,12.778787988305597],[108.00666827461855,12.778692620411174],[108.0069429332667,12.778760331147572],[108.0071718146647,12.778687852015238],[108.00778216707471,12.777986901984137],[108.00776690791666,12.777827637542545],[108.0078660900486,12.7778018887424],[108.00799578970415,12.777629273697821],[108.00821704235763,12.777484315068754],[108.00892657612185,12.777794258289475],[108.00936908102696,12.777836221002579],[108.00946063403624,12.77777709298223],[108.00968188566131,12.777760880980672],[108.00972766204359,12.777726547991666],[108.00992602658536,12.77783526676676],[108.01001757898324,12.778017418349116],[108.01112384204563,12.784988778357711],[108.01109332428526,12.78517760570123],[108.01101703000259,12.785213845875527],[108.01078051970535,12.785213846045378],[108.01064319059819,12.785151856761495],[108.01060504361539,12.78494204823767],[108.01054400879958,12.78487719772792],[108.01049060236599,12.784901039576608],[108.01039142043933,12.785109894525572],[108.01027697920189,12.785133736576109],[108.01013202000661,12.78484858768329],[108.01000995043172,12.784799951019716],[108.0100633561958,12.784422295791309],[108.01000232142857,12.784365075043862],[108.00985736216256,12.784305947506349],[108.00962085125525,12.784378427265914],[108.00939959799527,12.784352678205696],[108.00914019964446,12.784251587898027],[108.00910205191346,12.784264939677453],[108.009102052787,12.784414665659746],[108.00902575805696,12.78451575612168],[108.00869769470634,12.784673112381862],[108.00866717750648,12.78483809774634],[108.00859088352217,12.784908670171992],[108.00845355439951,12.784928697417378],[108.00826281924132,12.784828561060088],[108.00812549050231,12.784608262145426],[108.00807208468089,12.784595865368376],[108.00782794359475,12.784724610932017],[108.00754565617923,12.78472174978208],[108.0073549215001,12.784890549715616],[108.00711840950677,12.78502501825691],[108.0070115981589,12.785034555437521],[108.00610370003261,12.784944909351843],[108.00596637102893,12.78486480102782],[108.00583667133441,12.784848588488694],[108.00570697193935,12.784659761525639],[108.00563067867125,12.784644502109026],[108.00552386585474,12.784854310056852],[108.00540942562303,12.784905808844561],[108.00502795569271,12.78492678994567],[108.00498217906195,12.784964937388015],[108.00494403270892,12.785135644028216],[108.00398272871317,12.785966294820602],[108.00373095803864,12.786076920881225],[108.00351733529455,12.786226648733814],[108.00344867129603,12.786403077149423],[108.00350171219081,12.791467041623774],[108.00351733603863,12.792958635559087],[108.00352678623382,12.79303364921559],[108.00354785331598,12.793200868310636],[108.00353617796378,12.793620383733467],[108.00349444808226,12.79511966163287],[108.00363940665952,12.795632737324183],[108.00379962408414,12.803952592657765],[108.00373858942524,12.806788821231706],[108.00318164334358,12.807000536585665],[108.0030748315776,12.80700053574968],[108.00104541243924,12.806431193022645],[107.99771136736962,12.806222337986474],[107.98866290529381,12.80730952765912],[107.98379535048409,12.80803908941559],[107.98408526776815,12.808777233523234],[107.98469562001293,12.81059302786937],[107.98563403534935,12.812885660860632],[107.9859315825557,12.81439532790809],[107.98569507165807,12.81418647309291],[107.98531360167414,12.813977619249703],[107.98464984458545,12.813940425475828],[107.98407001029733,12.81397761897778],[107.98368090999448,12.814047237131799],[107.98326892323252,12.81419696393531],[107.98302478343439,12.814496417427494],[107.98285693667944,12.814646144645673],[107.98276538341385,12.814653774812474],[107.98272415563977,12.81463099065649],[107.9826612950218,12.81459625120863],[107.98262042527305,12.81457366545127],[107.98242968982177,12.814253230243125],[107.9822618430659,12.814135928872723],[107.98204059073633,12.81404914445433],[107.98097247500797,12.814072032377064],[107.98032397702788,12.814012905653026],[107.98017138874631,12.813960452684592],[107.9801485013513,12.813869853865631],[107.98029345938225,12.813629527603702],[107.9803773834204,12.813154598889792],[107.9803392364266,12.812916179829019],[107.97969073702511,12.811919589579084],[107.97951526110687,12.811506648186562],[107.9792940090741,12.81055965015311],[107.97921771525722,12.810389896475272],[107.97904986766306,12.810133357685723],[107.97839373980663,12.809510608042608],[107.97820300495,12.809385677272106],[107.97795886453402,12.809288402368296],[107.97780453368772,12.809247833750447],[107.9774400654666,12.80915202764012],[107.97644824428342,12.809673686908535],[107.97598285074741,12.809867282643097],[107.97512072944295,12.810006519798677],[107.97476214750812,12.810174365266116],[107.97429675457043,12.81033172219881],[107.97419757249854,12.810318370835123],[107.97412890856607,12.81025065978258],[107.97386187949449,12.809570690915695],[107.97341174453364,12.809223552378091],[107.97336596910363,12.809082408352566],[107.97348040951036,12.808799167844011],[107.97383136168796,12.80861510863147],[107.97390002630922,12.808505435123838],[107.9738923964172,12.80842628070491],[107.97366351432665,12.808253665560532],[107.97356433236747,12.808253665130955],[107.97331256298935,12.808641811892034],[107.97313708690841,12.808736225750197],[107.97303790511936,12.808740993281875],[107.97295398179081,12.808704754065609],[107.97287005792583,12.808426280494555],[107.97287005771226,12.808232684189667],[107.97310657004249,12.807561298860962],[107.97327441599681,12.807156940616949],[107.97353381594641,12.806705852260459],[107.97353381570052,12.805917163760991],[107.97348040979065,12.805719753649498],[107.97329730485721,12.805404086542174],[107.97312945719564,12.805210491186191],[107.97278613421061,12.804974933812803],[107.97223681809606,12.804831882775211],[107.97208423089256,12.804825206360743],[107.97163409690884,12.804941554296532],[107.97150439629971,12.805210491101338],[107.97132129039336,12.805257221459263],[107.97122210816212,12.805214305814749],[107.97060412716093,12.804317851944974],[107.97049731604126,12.803905864153444],[107.97047442870941,12.80345382274993],[107.97038287536627,12.803310771869134],[107.97027606359107,12.803211589494063],[107.96956653055891,12.80319823895802],[107.9694444595539,12.803158183151867],[107.96931475994943,12.803015132624395],[107.96896380762021,12.802403827185055],[107.9686815202491,12.802121539933395],[107.96852130335411,12.802025218708172],[107.96823901556132,12.801968952626803],[107.96757525832295,12.802257915793357],[107.96722430544227,12.8022750816791],[107.96695727743719,12.802394290671486],[107.96683520612417,12.8023876160149],[107.96665210101422,12.802075763934283],[107.96648425436244,12.801995654775341],[107.96637744370793,12.802005191243573],[107.96568316782576,12.802331348765692],[107.96550769242974,12.802358051853416],[107.96482867600177,12.802132030586934],[107.96287555097604,12.801234622598102],[107.96256274512396,12.800925632695847],[107.96218890550159,12.800676723653895],[107.96196765277078,12.800464053472831],[107.96178454748964,12.800431629687353],[107.96170825283889,12.80045070259977],[107.96146411356588,12.800732990692575],[107.96096820209546,12.80104865671824],[107.96066302653358,12.801175495631622],[107.95988482766586,12.801310917005148],[107.95975512768369,12.801397701524515],[107.95912951858178,12.802201648748934],[107.9586641247779,12.8025468793909],[107.95838183691303,12.802846333032019],[107.9580385141463,12.80307139961864],[107.9576951921817,12.80322494225832],[107.95717639278587,12.803294560158653],[107.95655078350515,12.80331077203776],[107.9559175430617,12.803523442603993],[107.95529193201368,12.80347003590987],[107.95407885887329,12.802839657124661],[107.95391101235278,12.802703282346611],[107.95383471825406,12.802510640284831],[107.95388049405388,12.802211186485616],[107.95410937595696,12.801637074447349],[107.95457476903115,12.801028630539657],[107.95488757485052,12.800510785446983],[107.95511645590334,12.80003966879856],[107.95517749204816,12.79934825574653],[107.95509356814276,12.799139401181295],[107.95494861012378,12.799005885918804],[107.95475787457816,12.79890002945573],[107.95443743995085,12.79889335318877],[107.95354480082177,12.79876746790976],[107.9529115611934,12.798637768540218],[107.95247668577547,12.798617741463552],[107.95171374576555,12.798653981440177],[107.95152301161868,12.79873695041327],[107.95141619985044,12.798846622785652],[107.9513322765891,12.799092671427077],[107.95137042348374,12.799377819326324],[107.95255297947539,12.800457379103527],[107.95260638551721,12.800627132940951],[107.95254535022163,12.800938984469266],[107.95235461614178,12.801394841000992],[107.95212573386551,12.801550290464423],[107.95179003994933,12.801597020379049],[107.95161456358225,12.80153693822115],[107.95126361218863,12.801278492150455],[107.95082873660873,12.800882718449788],[107.95063800148489,12.800793072463387],[107.95050067314264,12.800790211569096],[107.95034045460991,12.800873181561661],[107.95024127247424,12.80100574195938],[107.95002764954212,12.801659962657675],[107.94990558036801,12.801803013090343],[107.94970721571936,12.801879307295138],[107.94886035327887,12.801596066310585],[107.94856280618437,12.801542660253148],[107.94789904879829,12.80171050718458],[107.94753283742277,12.80186404849076],[107.94686908060524,12.801969906310655],[107.94657153422175,12.801909825391313],[107.94588488903369,12.801604649917468],[107.9452669077355,12.80149497681147],[107.94491595570857,12.801494977012737],[107.94464892706343,12.80156459543582],[107.94438952785444,12.801734349457366],[107.9442674568984,12.801903149590567],[107.94424456846689,12.80205955230733],[107.9444887096945,12.802570721792218],[107.9445802628758,12.80261745121263],[107.9452821667365,12.802756688416494],[107.94539660799893,12.802913090763292],[107.94552630708132,12.803238293208231],[107.94550341937185,12.803647419383932],[107.94543475459547,12.803929707753055],[107.94536608974059,12.804055592736571],[107.94519061370389,12.804195783082617],[107.94464129790907,12.804377934822686],[107.94407672229741,12.804180524164604],[107.94364947558181,12.804102322616643],[107.94348162950497,12.8041252105452],[107.9433137826993,12.804239652177674],[107.94325274814021,12.80445995046599],[107.94331378333192,12.804688832408255],[107.94360369964623,12.805286787057124],[107.94362658824515,12.805522344014596],[107.94345874223305,12.80659522769999],[107.94326037745338,12.806884190595468],[107.94307727228478,12.80705203743339],[107.94291705512215,12.807114026558724],[107.94275683658867,12.807088276914126],[107.94260424870163,12.806989094611428],[107.94245166094665,12.806772611053777],[107.94239825599942,12.806572338824669],[107.94241351406447,12.806139370474977],[107.942398256413,12.806031605453544],[107.94235247880805,12.806008717448123],[107.94212359650683,12.806070706904414],[107.94201678612653,12.806149861853289],[107.94187182713799,12.80643787056546],[107.94181079201695,12.80646075996885],[107.9414293225234,12.806326291600008],[107.94113177622096,12.80629672791128],[107.94085711820361,12.806359670131465],[107.94004840200265,12.806818386596994],[107.93980426159825,12.806917570135775],[107.93956775019794,12.806933781717353],[107.9392091685031,12.80685462737628],[107.9385377816367,12.806828877912995],[107.93835467713022,12.80700244687946],[107.93820208877639,12.807298086518015],[107.9378435071899,12.808373830577375],[107.93782061879988,12.808883091759364],[107.93774432483666,12.808990858552685],[107.93714160305612,12.80932273602421],[107.93707293783636,12.809486768258207],[107.93741626123852,12.81064166834848],[107.93751544353185,12.8112815833641],[107.93799609474631,12.812607191680632],[107.93800372446256,12.81286945150575],[107.9379503193709,12.81300773439103],[107.93771380699913,12.813306234013417],[107.93768329006295,12.813397787051127],[107.93779773115999,12.813866994277983],[107.9377672131337,12.814031026648108],[107.93766803131055,12.814152143116909],[107.93721026757194,12.814438245227594],[107.93706530904689,12.814670942795875],[107.93708819683239,12.815071485707296],[107.93701190370335,12.815782926637555],[107.93737048517085,12.816593549727996],[107.93766803160254,12.816810033658061],[107.93784350742338,12.817319295385209],[107.93789691379156,12.817716024615914],[107.93783587814562,12.8177980403512],[107.9374772962492,12.81796874841945],[107.93737811457453,12.818060300695127],[107.93720263805308,12.818352125339851],[107.93695849723973,12.819501302411354],[107.93687457419583,12.819658659079316],[107.93677539236289,12.819720647839937],[107.93622607672462,12.819779775894865],[107.93534869530046,12.820009611585624],[107.93468493829525,12.819980047694507],[107.93377704043547,12.820134542937314],[107.93222064323287,12.82056369594817],[107.93188495038954,12.820593259684593],[107.93157214514504,12.82055702137547],[107.93116015807347,12.820445440720237],[107.93096179327195,12.820481679687674],[107.93032092458881,12.820727728367148],[107.93009204272762,12.82072772788855],[107.929786867007,12.820580862667272],[107.9295198384125,12.82027568703561],[107.92902392774477,12.819559477312938],[107.92891711669937,12.819507025199737],[107.9285814222214,12.819559477266878],[107.92739886641318,12.819497489370908],[107.92697162048874,12.819549941233415],[107.92679614434199,12.819618604728955],[107.92664355649548,12.819766425369922],[107.92639941506857,12.820291898859178],[107.92624682731346,12.821390531821892],[107.92616290398556,12.821508787838656],[107.92577380498388,12.821830176001566],[107.92556781152696,12.822102927153537],[107.92537707650922,12.822476766954406],[107.92515582428207,12.822752379726237],[107.9249574600609,12.822880171062874],[107.92477435484611,12.822870634988588],[107.92460650825441,12.822795294613517],[107.92438525510111,12.822535895034113],[107.92378253357252,12.82197799505725],[107.9230043355804,12.821440123251246],[107.92264575327874,12.821039580750233],[107.9223863546148,12.820891760753973],[107.92215747251328,12.820866011193148],[107.9219743675841,12.820898436104317],[107.92135638592731,12.821269415075081],[107.92098254522244,12.821331404196293],[107.92075366352094,12.82144966037291],[107.9198305070601,12.823234938172407],[107.91967028953572,12.823369406378527],[107.91944140875556,12.823451422630015],[107.91914386164532,12.823438071305265],[107.91882342708944,12.823284529525328],[107.91851062137451,12.823048018720758],[107.91808337524881,12.822683714617462],[107.91789264046977,12.82244720358657],[107.91767138833295,12.821702384941622],[107.91757220648046,12.821590804455147],[107.9174272467613,12.82151927887164],[107.91728991793131,12.821535491695816],[107.9171907359595,12.821604155638742],[107.9168626721663,12.822018050700004],[107.92057055867318,12.8294481268293],[107.9208833638877,12.829742813251729],[107.92462176695533,12.831418417332776],[107.92469043225583,12.831699752186974],[107.92347735807488,12.83383216827045],[107.92294330050233,12.835291290310714],[107.92157763887724,12.83839168497299],[107.92503375545465,12.840932273143705],[107.92768878496963,12.845980072354818],[107.92987842059175,12.852476501464064],[107.93027514956356,12.854140663284086],[107.93162555339298,12.857551002125204],[107.93325061407803,12.862409019573231],[107.93418902995691,12.870441819336593],[107.93421954817126,12.8724264151927],[107.93397540664795,12.873172188086716],[107.93380755962953,12.873358155089463],[107.9336473429896,12.873825455153108],[107.93342609132547,12.875187301973453],[107.93326587300713,12.875482941353807],[107.93317416209801,12.875527268486948],[107.93295306826708,12.875479127052262],[107.9325792283446,12.875461959866321],[107.9321367234388,12.875482940892336],[107.93148059493717,12.875718499308462],[107.93058032678054,12.875949288025206],[107.9295808760097,12.876336480419639],[107.92926807067289,12.876368905173862],[107.92884082473176,12.876488114459885],[107.92771167443618,12.876267815036911],[107.92716235809158,12.876323128692345],[107.92684955332447,12.876431847936223],[107.92666644658271,12.87687149186074],[107.9265443773444,12.876982117291101],[107.92633838270906,12.877272988347695],[107.92617816610756,12.877396967001216],[107.92604083727053,12.877716446872046],[107.92609424268723,12.878734971504947],[107.9260484662571,12.880650902350927],[107.92623157290579,12.895640756729934],[107.92633838391271,12.900738145511106],[107.92601032015611,12.901167299373299],[107.92589587943075,12.90156307443484],[107.92567462677957,12.901930238221121],[107.92559833317576,12.902207759062199],[107.92539996952753,12.903351213868131],[107.92524738087675,12.903744128136456],[107.92469806409534,12.906869319311562],[107.92420215406428,12.90913334163565],[107.924209783158,12.909573938575727],[107.92612476152257,12.911584283901426],[107.92644519661516,12.911972430064969],[107.92735309504863,12.91333141577679],[107.92776508208881,12.914051439762835],[107.92800159246347,12.914676097014908],[107.9282609924195,12.915211108508668],[107.92923755534933,12.916952517001226],[107.92932910767944,12.917188074661462],[107.92949695534242,12.918400195196135],[107.93084735693873,12.919591333812493],[107.93117542157836,12.919994738517824],[107.93141956194538,12.9203666715003],[107.93157977915259,12.92061748821207],[107.93221301934442,12.922068979915798],[107.93235797745116,12.922450450352255],[107.93257923038598,12.92330398820399],[107.93271655972731,12.923472789025393],[107.93352527573218,12.924066928144581],[107.93384570939315,12.924405482400772],[107.93442554321153,12.92550793054076],[107.9349290835217,12.926300433250713],[107.93569202400826,12.927214053133403],[107.93592090586324,12.92769089048318],[107.93634815144043,12.928769495961564],[107.9365541447892,12.929158595147662],[107.93698902068073,12.929112818008448],[107.93750019001638,12.929139521644094],[107.93810291245953,12.929198649561124],[107.93867511711623,12.929322627622335],[107.93956775594327,12.929670718027984],[107.94004077920071,12.929917720207094],[107.94041461922902,12.93016662917947],[107.94251270294151,12.93212261523503],[107.94338681462078,12.933080236122356],[107.94396991725637,12.933817294333634],[107.94430560972837,12.934384730103956],[107.94522876746407,12.935758975144607],[107.94562549585473,12.936626817872538],[107.94611377688109,12.93737640609558],[107.94733448013874,12.938983347771615],[107.94796009045749,12.940071490308663],[107.94949359972908,12.943395044907604],[107.94958515189158,12.943761256135296],[107.95021076236448,12.945001032903575],[107.950531196706,12.945983317492054],[107.95078296709254,12.94712105133254],[107.95129413669856,12.948166278239157],[107.95156116587943,12.948563006562413],[107.95196552318711,12.949038890739574],[107.95238513992189,12.949400332329649],[107.95288105087576,12.949647334728642],[107.95438404094146,12.950022127939004],[107.9552232751271,12.950574305369726],[107.95580310911058,12.951203730501224],[107.95644397807008,12.952361491690473],[107.95807666828026,12.955015567615096],[107.95736713560447,12.95538273113526],[107.95708484717623,12.955638316303789],[107.95709247725097,12.956141856140714],[107.95848102683073,12.957884219406719],[107.95957203039389,12.95859661422723],[107.96067829305103,12.95904007216893],[107.96180744266415,12.959361460559533],[107.96298999977633,12.960130122655922],[107.96452350802836,12.961472895020993],[107.96537799962681,12.96249809551191],[107.96571369272837,12.963089373217905],[107.96648426195121,12.965262797646151],[107.96627826892141,12.96564617471672],[107.96627063942046,12.965767291530065],[107.96655292680862,12.966061976681369],[107.9666597384931,12.966264155654018],[107.96676655002491,12.966598895558507],[107.96675129156529,12.967104342265921],[107.96684284435898,12.967479136538863],[107.96772022453088,12.969195750205762],[107.96789569993199,12.970270541701462],[107.96797199439455,12.970310595305849],[107.9684373871124,12.970355419039482],[107.96887226332544,12.970637706331642],[107.96919269738709,12.970698741419914],[107.96969623703802,12.97087612416762],[107.9698640843315,12.971025851564985],[107.96990223131557,12.971150782826582],[107.96990223106931,12.971308139780632],[107.96950550202612,12.971954730759238],[107.96864338169256,12.972709086698734],[107.96806354770648,12.973084835160765],[107.96781177788505,12.973485377524078],[107.96771259562318,12.973868755101279],[107.96780414723726,12.974034693365311],[107.96818561705712,12.974394229927753],[107.96875782214654,12.974773791862589],[107.96913166247171,12.974927333890662],[107.96945972673574,12.974927333793424],[107.97006244824931,12.975160983834884],[107.97092457063974,12.975265887434732],[107.97125263441987,12.975448992884075],[107.97178669127679,12.976119426115119],[107.97204609161973,12.976622013035428],[107.97225971446747,12.977166561082484],[107.97232837893517,12.9776014352794],[107.97222919629364,12.977934269108824],[107.9720003146022,12.97831383073257],[107.9718629861524,12.97838726369229],[107.97164173369444,12.97835865422359],[107.9704339923478,12.977818300971665],[107.97039051244616,12.977798846515118],[107.97036565164845,12.977801215214495],[107.97023029548834,12.977814106131257],[107.97016926086667,12.97819938983811],[107.96981067894139,12.978501704824518],[107.96927662174161,12.979121592686491],[107.96904011006862,12.979244617011757],[107.96871204588925,12.97929230107811],[107.96836872344706,12.979419139908135],[107.96809406459188,12.979716686135852],[107.96791095955115,12.97995128967651],[107.96788044172631,12.980138210376152],[107.96801777142987,12.980883983456119],[107.96801014219442,12.98137321812111],[107.96817798896653,12.982262043379265],[107.96817035874759,12.982405094372472],[107.96807880711789,12.982492832402622],[107.96710987371739,12.982452777959214],[107.9669191390812,12.982711223533613],[107.96685047381638,12.982961086354416],[107.96694202678607,12.983520892810624],[107.96678943890136,12.984259990004043],[107.96626301080114,12.985705761684837],[107.96614856993945,12.98577728623118],[107.96602650037872,12.985768703449782],[107.9654924423445,12.9853242917223],[107.96537800071867,12.98531666258997],[107.9652635600893,12.985412029066199],[107.96521015430783,12.985634235346405],[107.96521778405412,12.98630943739902],[107.96536274167259,12.987122921476615],[107.96541614825912,12.988025097676339],[107.96554584806441,12.988656429666916],[107.96562977141946,12.988807110568567],[107.9660722758957,12.989180950121423],[107.96765919026325,12.989891437530423],[107.96767444915902,12.990045933294406],[107.96727009140804,12.990598110474792],[107.96721668491752,12.990737346936092],[107.9672243141155,12.990856556414712],[107.96736927312472,12.991238025772768],[107.96783466632372,12.991841701354787],[107.96792621917609,12.9922498741608],[107.96787281345573,12.992882160938395],[107.96776600148802,12.993398098212364],[107.9677812599874,12.993789104920566],[107.96759815566239,12.994236377520222],[107.96736927367677,12.994550136907979],[107.9672090561085,12.994656948560221],[107.9668199569837,12.99480572163842],[107.96642322813943,12.995038418336598],[107.96627064028053,12.99537792654172],[107.9657747300219,12.995949178051161],[107.96533222515384,12.996144681243083],[107.96521015408639,12.996281056069282],[107.96517200784677,12.997061161443781],[107.9649278676894,12.997838406127487],[107.96460743267254,12.998584179733696],[107.96452350969398,12.99887886451889],[107.96456165633028,12.999025731341318],[107.96504230880525,12.999587445154532],[107.96517963785787,13.000113873392579],[107.96520252538316,13.000423816621241],[107.96527881944147,13.00055542372668],[107.96562977214991,13.000864415181404],[107.9656755473972,13.000957874969922],[107.96563740073347,13.001114278442683],[107.96540851936257,13.001382259783067],[107.96537800206805,13.00199165840597],[107.96530933675673,13.002347379043663],[107.96522541408764,13.002444653339467],[107.96508808468596,13.002750782998795],[107.96509571417009,13.002824215935235],[107.96553058984712,13.003363995340473],[107.96590443019223,13.003684430504197],[107.96602650105143,13.00396385735031],[107.96602650109288,13.004092603074618],[107.96598835379919,13.00426998603862],[107.96566029005808,13.004609494306319],[107.96556110716925,13.004787831106555],[107.9652940785479,13.005391506816759],[107.96499653152568,13.006251721267219],[107.9647447620481,13.006787686595771],[107.96437855069917,13.007259755202487],[107.96427936890014,13.007321744072796],[107.96414966914008,13.007331281401365],[107.96379108799619,13.00720444267275],[107.96352405898364,13.007180600308406],[107.96330280713777,13.007210164112328],[107.96311970072163,13.007341771062718],[107.96295948387376,13.00789299502741],[107.96262379095216,13.008187680782484],[107.96252460804314,13.008395581321569],[107.96251697913124,13.00850239385583],[107.96260090196597,13.008715062834266],[107.96282978386681,13.008859067085114],[107.96327228911899,13.009230046012402],[107.96349354190062,13.00952377852988],[107.96371479393903,13.010105519039044],[107.96377582918234,13.010385899425566],[107.9637529412357,13.010588078507894],[107.96364612918634,13.010708241282511],[107.96344013607819,13.010689168772062],[107.96306629512382,13.01006737263218],[107.96264667915139,13.009817509346643],[107.96186339192617,13.009519797752173],[107.96117420644691,13.009302525308518],[107.96099873025304,13.009292989627793],[107.96063251856346,13.009422688554412],[107.96019001421418,13.009648709969706],[107.95990772645811,13.009841351444896],[107.95961780918289,13.010130316016683],[107.95903034570556,13.01131096412658],[107.95891590488517,13.011604696062319],[107.95888538715947,13.01203766337576],[107.95865650507318,13.012452513112155],[107.95863361748074,13.01268807005382],[107.95870991156578,13.013001828376234],[107.9586717642921,13.013112454892646],[107.95826740583263,13.013463406707197],[107.95775623750522,13.014535336513507],[107.95710773787039,13.015065579846038],[107.96044178403388,13.017119794643147],[107.96057911363194,13.017341047087323],[107.96131916419974,13.018094449812548],[107.9666521115138,13.02146187361499],[107.96668262906215,13.021856695176943],[107.96679707002855,13.022097020494726],[107.96716328040657,13.021883397582494],[107.96791859105478,13.021722226397255],[107.96821613796543,13.021837621818415],[107.96855946077021,13.022089391573408],[107.96929188205695,13.023012547368715],[107.9699403810203,13.023580937376673],[107.97041340323514,13.023843198726318],[107.97119923069262,13.02394428801973],[107.97180195314354,13.024288564305452],[107.97193928175675,13.024507909568637],[107.97219105242034,13.025428204667916],[107.97232075244372,13.02564754994454],[107.97313709736764,13.026287465481492],[107.97383900208087,13.026618390837697],[107.97431202406672,13.026679425530373],[107.97489948724015,13.026604085572133],[107.97599812014043,13.02607861033215],[107.97618885548133,13.025863080314007],[107.97637959041671,13.025320439728418],[107.976463512688,13.024657635554465],[107.97644062484665,13.023980527080372],[107.97665424844682,13.023469357073862],[107.97686787094898,13.023203282024804],[107.97708912414276,13.02311745107289],[107.97778339905422,13.023023991257388],[107.97837849143151,13.022886662367808],[107.97961445334607,13.022264867492101],[107.98008747638436,13.021858601598378],[107.98055286937559,13.02168980110979],[107.98076649167554,13.021549611606542],[107.98091907979592,13.021100430091503],[107.98110981516189,13.020687489054854],[107.98136921373398,13.020428089879509],[107.98209400566856,13.02009430375758],[107.98255939883005,13.020015149063369],[107.98276539287745,13.020015149035213],[107.98298664641166,13.020173459346145],[107.98309345685317,13.020334629894105],[107.98321552726344,13.020730404842302],[107.98320789846875,13.02123012977244],[107.98311634477906,13.021873860114283],[107.983261304475,13.022240071503376],[107.98340626173349,13.022430805845797],[107.98360462666318,13.022534756483997],[107.9849245120721,13.02299538134231],[107.98567219197082,13.023375897128007],[107.98751850606754,13.023922352707025],[107.98785419880986,13.023972896864914],[107.98824329799663,13.023893742242914],[107.98864002749433,13.023897556797808],[107.98886890902268,13.02400818259509],[107.98935719050564,13.024397281686023],[107.98979206640608,13.02453747252668],[107.99025745950988,13.024753003114576],[107.99050159915556,13.024954227610008],[107.99077625708358,13.025080112917522],[107.9909975103335,13.025112537686361],[107.99149347656467,13.02491514879373],[107.99166126737542,13.024848369763685],[107.99269123575691,13.024332432551969],[107.99323292193814,13.024339107453745],[107.99367542736216,13.024407773070758],[107.99384327485012,13.02453747236882],[107.99388142139668,13.024763493078927],[107.99381275628292,13.025194554110058],[107.99301929906505,13.027193455918622],[107.99304218874241,13.027510074499222],[107.9939806031621,13.028404621974442],[107.99451466184448,13.028725055981049],[107.99473591377851,13.028760341574543],[107.99501057191485,13.028721242074432],[107.99584980543936,13.028174785595814],[107.9961931284536,13.027520565562103],[107.99620838636868,13.027430919962246],[107.9963304573477,13.027329830303348],[107.99650593364619,13.027279285503939],[107.99663563286788,13.027290729440235],[107.9967882208575,13.02734413606734],[107.99714680231075,13.02779045605376],[107.99797840697977,13.029652027458141],[107.99811573543222,13.029763607921637],[107.9982988404439,13.029853252809568],[107.99942036157044,13.02988567803386],[107.99992390142533,13.030015377496435],[108.000763135484,13.030302433995171],[108.00106068183356,13.030464557764725],[108.00115986349601,13.030608562735829],[108.0011903814262,13.030763057235545],[108.00110645873707,13.031316189495884],[108.0005800297386,13.033134846158068],[108.00051136554637,13.033893971202426],[108.00045795999627,13.034098057437324],[108.00029774257244,13.034343151685583],[107.99875660497906,13.035485653899105],[107.99861164730089,13.035841374433756],[107.99831410000414,13.03720036050675],[107.99835987679312,13.040087132623414],[107.99869557068813,13.041312604159577],[107.99897785823674,13.041851430535626],[107.99929066348133,13.042147068837224],[108.00000019639,13.042599109802373],[108.0003435195172,13.042936710922033],[108.0009386128369,13.04396381805596],[108.00106831262084,13.044526486405948],[108.00105305369944,13.044886021458263],[107.99900837538691,13.050248532364806],[107.9989397116427,13.050856023517849],[107.998878675502,13.051786809276189],[107.9992601457261,13.053038029853731],[107.99977131577099,13.053821951083584],[107.99993153275923,13.054263502044943],[107.99987812653391,13.054990201613354],[107.99999256835784,13.05545750189111],[108.00029774413596,13.055902867760938],[108.00109120110474,13.056557088332188],[108.00173207054574,13.056805043775054],[108.0026704853926,13.057028203819712],[108.00296803236252,13.057028203660291],[108.00356312536498,13.056833653412266],[108.0037309708007,13.056715398625535],[108.0037996359427,13.056611447753047],[108.00371571280436,13.05527725733799],[108.00395985281801,13.054303555536343],[108.00376148908738,13.05378571082697],[108.00370045410057,13.053570180181344],[108.0037004541766,13.053404240852336],[108.00377674811565,13.053139119109193],[108.00385304210984,13.053013234083544],[108.00407429414885,13.05291977481939],[108.00495930405886,13.053192525364514],[108.00511952119744,13.053200154665051],[108.00566883764859,13.052887349691277],[108.00589771878778,13.052800565157142],[108.0063936296101,13.052822499521888],[108.0067445823252,13.05307426903633],[108.00704975839713,13.053580670409273],[108.00760670391239,13.054371266673998],[108.00804157871335,13.054799466098297],[108.00933857663361,13.055878072608959],[108.00985737549343,13.056377797331729],[108.01051350319479,13.057405858170013],[108.01068135003867,13.057847409115626],[108.01081104890298,13.058570294127314],[108.01145191914237,13.063436894654387],[108.0116273955407,13.064137845941522],[108.01200123543924,13.064629941488649],[108.01307698028405,13.065762906671752],[108.01393147292416,13.06677952333502],[108.01479359346128,13.068064122877201],[108.0157548975728,13.069087415229632],[108.01713581887459,13.069759755591843],[108.01902027908545,13.07015839170174],[108.0207979283172,13.07078400155203],[108.02158375600308,13.070795445570683],[108.02358265676443,13.070629506407716],[108.02519245940947,13.070432095236946],[108.02549000606932,13.07045307587385],[108.02579518081315,13.070557979969799],[108.02594776966508,13.070655255307061],[108.0265428625508,13.0712513026533],[108.02781697139056,13.072329907008935],[108.02926655606586,13.073382764534216],[108.02970143114146,13.07378235289158],[108.03013630794429,13.073918729363957],[108.03241749694018,13.075964360578633],[108.03255482592601,13.076043515600297],[108.03286763051365,13.076046375936258],[108.03341694706624,13.07592049117701],[108.03381367557535,13.075572400033355],[108.03444691580357,13.0746377988457],[108.03471394466382,13.074324993597623],[108.0350725257591,13.074065594181894],[108.03524800136022,13.074008374274303],[108.03562184116468,13.073965459090534],[108.03595753533176,13.073972134261997],[108.03634663479002,13.074025539591387],[108.03796406648196,13.07420196974545],[108.03853627091479,13.074179082193682],[108.03893299951339,13.074085621388589],[108.04021473760349,13.073647884857902],[108.04058857740912,13.073357967622067],[108.04071064836619,13.07303657972689],[108.04065724240307,13.072397617716977],[108.04022236616797,13.071305661080755],[108.03984089721695,13.070493130012784],[108.0386354526086,13.068490413685227],[108.03800984273985,13.068106083419],[108.03749104337231,13.067651181031684],[108.03738423223216,13.067230610975468],[108.03733082623707,13.06678905839901],[108.03749104289392,13.066094784957777],[108.03804798896599,13.065322307164244],[108.03880329906882,13.064813045491274],[108.03994007960034,13.064383892406276],[108.04093190066119,13.063950924386688],[108.04151936336643,13.063371089957796],[108.04184742705321,13.062915233004132],[108.04226704411678,13.061843303474266],[108.0425417020417,13.061486629071075],[108.04321308958104,13.060985950272869],[108.0444948268003,13.060584453204758],[108.04482289104072,13.060343173785578],[108.04503651403824,13.06009331132461],[108.04522724887823,13.059610752290029],[108.04525013706281,13.058986094714157],[108.04520436071525,13.058637049517872],[108.04505940171471,13.058119204646712],[108.04490681479257,13.057909396656845],[108.04373188822615,13.057293323346396],[108.04331990114366,13.056953815364555],[108.043152054127,13.056637194489799],[108.04302998401431,13.055889514557759],[108.04300709488535,13.055145648632205],[108.0431215360433,13.054689791979218],[108.04328175408952,13.054458049999559],[108.04365559427141,13.054256824211434],[108.04386158815043,13.054274943613626],[108.04671498092956,13.055753138676723],[108.04740925627534,13.056024935721243],[108.04794331440473,13.056087878664528],[108.04851551780874,13.056083111096264],[108.04966755680037,13.055712130347255],[108.05078907811453,13.055162814617619],[108.05141468834938,13.054390338190997],[108.05152912932726,13.053752330083462],[108.05128498762473,13.053131487989852],[108.05061360227812,13.052810099764974],[108.05010243148597,13.052716639874228],[108.04834004177994,13.052604106135231],[108.04789753643905,13.052515414416217],[108.04758473203303,13.0523542435756],[108.0461885527196,13.051247027217553],[108.0457536764848,13.050469783802281],[108.0454561304238,13.049425509181427],[108.04542561281205,13.048987773476775],[108.0455019061746,13.048612025821798],[108.04571552933213,13.048358348580592],[108.04623432887,13.048000720423211],[108.04679890376613,13.047880557597065],[108.05239125087924,13.047665979827775],[108.05274983217517,13.047835734198735],[108.05312367280175,13.048107531459422],[108.05503865126497,13.050898936179397],[108.0558549961633,13.051823046473068],[108.05626698287622,13.052001383394938],[108.05661030641924,13.052001382896783],[108.0567934111868,13.05190315507052],[108.05710621563748,13.051613238515422],[108.05802937256665,13.050541307848615],[108.05847950658551,13.050407793898195],[108.05891438313714,13.05051937369128],[108.06102009575284,13.051769640973601],[108.06206532327872,13.05231418911706],[108.06266041657679,13.052510645486418],[108.06297322119377,13.052520182040322],[108.0633623202499,13.05242576858321],[108.06495686337583,13.051296617984235],[108.06575794970782,13.050835993065228],[108.06698628186108,13.050394441242899],[108.06779499831237,13.050259973945346],[108.06842060962302,13.05034961939911],[108.06894703760406,13.050519373612909],[108.06927510149052,13.050800707848017],[108.06953450024746,13.051225092459731],[108.06967945963801,13.051889803949635],[108.06954975927086,13.05269375102158],[108.06931324826432,13.05346145887599],[108.06908436677286,13.054024126626869],[108.06880970845185,13.054399873372994],[108.06833668544867,13.054752734109957],[108.06737538120437,13.055127528103442],[108.06609364344693,13.055766489721375],[108.06578083804362,13.056114580836375],[108.06557484401606,13.056587603234645],[108.06547566287209,13.057596590681971],[108.06549855048561,13.058114435933334],[108.06564350988505,13.058610346884633],[108.06589527978929,13.058901216661333],[108.0661089027102,13.05903950040697],[108.06641407825495,13.059092905912108],[108.06684132421498,13.059056666194655],[108.07012959372439,13.057328607987026],[108.07253285231013,13.056918527940907],[108.07525654648924,13.056078340722305],[108.07662220885574,13.055716898838945],[108.0768968666824,13.055797006262942],[108.0769884197483,13.055940057426582],[108.0770418244946,13.056159403405976],[108.07689686682232,13.056847002388224],[108.07630177393203,13.05853500587077],[108.07608052151906,13.058806802833095],[108.07576771535969,13.059132959919674],[108.0747453775303,13.059883501346887],[108.07418080210996,13.060213472417182],[108.07243367079059,13.061022188796663],[108.07135029653259,13.061441805653658],[108.07108326803194,13.061584856595301],[108.07100697353287,13.061763193775676],[108.07096882687296,13.062049295854537],[108.07113667423728,13.062486079118758],[108.07139607310626,13.062901881102258],[108.07196064889159,13.063254740212832],[108.07286854696352,13.063522722817067],[108.07338734468951,13.063598062581208],[108.07440968368411,13.06357136000075],[108.07648487996343,13.063071634573097],[108.07748433030609,13.063040163401471],[108.07782765279774,13.062946703316351],[108.07836171123891,13.062397386771758],[108.07864399829424,13.062325861874669],[108.07903309712802,13.062365915439175],[108.07949848971988,13.062625314648848],[108.07983418432585,13.063022043610353],[108.08005543607803,13.06341495760668],[108.08025380000622,13.064040567458989],[108.08023091237759,13.064491655237836],[108.07997151267821,13.064897920366207],[108.07875843902023,13.065500642418463],[108.07784291191948,13.06587162320449],[108.07755299472413,13.066183473531739],[108.07746907098112,13.066554453974668],[108.07753010685838,13.066898729688754],[108.07765980607127,13.067143824185932],[108.07849903996299,13.067465212383745],[108.08011647108476,13.067947771356314],[108.08077259955367,13.068358804395725],[108.08146687428014,13.068858530536627],[108.08168812690529,13.0691932696861],[108.08218403783816,13.070519830646932],[108.08232136639431,13.070586588876443],[108.08246632581756,13.070582773962698],[108.08260365415755,13.07047977649255],[108.08296223658115,13.06889858491956],[108.08307667608348,13.06864872186184],[108.08352681157821,13.068247224874028],[108.08447285644209,13.067724611433828],[108.08476277369138,13.067465212897558],[108.08481617789505,13.06726017272545],[108.08476277350131,13.066983606527506],[108.08435841503837,13.066277887611632],[108.08403798065054,13.06580391132243],[108.08402272137775,13.065594103249556],[108.08425160360393,13.064772989335756],[108.08448048531686,13.064380075021454],[108.08502217199408,13.063910867107806],[108.08554097125182,13.063727762033567],[108.08581562946038,13.063754465583017],[108.0859834764096,13.063884164297006],[108.08606739907628,13.064205553353332],[108.08609028694121,13.064500238351823],[108.08593006989649,13.065853502118863],[108.08596058805034,13.066091921765112],[108.08615895263148,13.06655445361096],[108.08635731627908,13.066830064262554],[108.08662434526742,13.067078973020854],[108.0871965492869,13.067385103571038],[108.08755513137355,13.067483331450145],[108.08809681864857,13.067448045267385],[108.08834858797582,13.067345049268685],[108.08853169461847,13.067180063029287],[108.08860798737298,13.066661264159892],[108.08882161156234,13.066076662042581],[108.08905812231788,13.065755273378334],[108.09054585439792,13.064974214447927],[108.09143086319341,13.064210321393375],[108.09169026296591,13.063589478834157],[108.09187336863016,13.061968233067107],[108.09230061388693,13.05992355460654],[108.09247609127716,13.059324648150366],[108.09276600733904,13.058784867993804],[108.0937273108883,13.057882691583114],[108.0940935217231,13.057712938119955],[108.09464283869886,13.05753841612743],[108.0953065963882,13.057726288598083],[108.09556599483946,13.057967568595384],[108.0959932407485,13.058485413528869],[108.09622212355949,13.058838273982321],[108.09652729953771,13.058950806214401],[108.0969316571757,13.058965111920957],[108.09730549700582,13.058832551784777],[108.09787770242099,13.058456803732767],[108.0983278361439,13.05802574282139],[108.09917469906979,13.056996728310825],[108.09983082749697,13.056648636179496],[108.10018940769689,13.056509400387387],[108.10078450126358,13.056468392228998],[108.10126515351487,13.056509399905226],[108.10173054612937,13.056641961327303],[108.1025468911403,13.057135964553172],[108.10311146637795,13.057622338242949],[108.10337849491961,13.05770626102221],[108.10372181866715,13.057726287935676],[108.10395069984483,13.057643318884999],[108.10415669404381,13.057483101200246],[108.10430928144076,13.057302857459579],[108.10440083457189,13.056579018469451],[108.10442372241228,13.05588379021435],[108.10449238688265,13.055814171120112],[108.104622087291,13.055835152582228],[108.10495778053983,13.056092644300724],[108.10547657895444,13.056683922268858],[108.10655232339151,13.05718460085569],[108.10684224068622,13.05717697252034],[108.10729237525766,13.056969071508448],[108.10745259234147,13.056662942421635],[108.10802479684588,13.055229568877067],[108.10826130800874,13.054291153958749],[108.10811634916308,13.05382480729929],[108.10755177421558,13.053421402504403],[108.10739155747434,13.053143883242521],[108.10737629787486,13.052684212145026],[108.10746022098365,13.05255928125923],[108.10761280901382,13.05256595670426],[108.10794087273028,13.052732849503347],[108.10812397874899,13.052732850041723],[108.10827656689253,13.052622222634865],[108.10833760249606,13.052434350125383],[108.10827656691119,13.051974678546545],[108.10818501451611,13.051787757579065],[108.10758992146634,13.05124511825743],[108.10761280938523,13.050952339421817],[108.10794087278313,13.050605201511582],[108.10848256008329,13.050159835632218],[108.10960408064139,13.04947795895777],[108.1097642992168,13.049158477755926],[108.10969563419658,13.048163796017235],[108.1099092571083,13.047705078167771],[108.11013813849554,13.047329330566559],[108.11015339772793,13.047134780157808],[108.11007710350749,13.04703750639467],[108.10973378110845,13.046849632453945],[108.10905476524778,13.046655082520312],[108.10880299446885,13.046321296796716],[108.10857411256626,13.045924568323231],[108.10834523122548,13.045875930498138],[108.10779591502907,13.04592456867127],[108.1074220740876,13.046036149054167],[108.10715504619456,13.046042823982878],[108.10694142285715,13.0458406444095],[108.10639210605319,13.044721031762489],[108.106270035415,13.044554139024521],[108.10614033588229,13.044560814019093],[108.10581990141071,13.044721031960917],[108.10508748002319,13.045174980855482],[108.10495015060832,13.045223617499975],[108.10431691073148,13.045289421501488],[108.10411091625858,13.045411491957845],[108.1039888468791,13.045544053047186],[108.10390492383011,13.046218299497575],[108.10379811182537,13.046326065927635],[108.1036531530491,13.046368026423941],[108.10353871227777,13.046273613928717],[108.10351582413924,13.045895004910319],[108.10342427143719,13.045755767852972],[108.10316487146794,13.045662307826264],[108.10308857753236,13.045578385096992],[108.10305806051467,13.045394326047333],[108.10313435487282,13.045244598726711],[108.1031267244357,13.045160675684146],[108.10307331976055,13.045122528631634],[108.10276051337955,13.045109176913357],[108.10263081418921,13.045060539632079],[108.10247059690789,13.044590378224541],[108.10234089753696,13.043968582324686],[108.10225697390065,13.04388465901743],[108.1020433507155,13.04385700301171],[108.10188313314255,13.043784524233983],[108.10179921015448,13.043693924368181],[108.10179158092498,13.043575669064019],[108.10202046233577,13.042741203587711],[108.10224171568025,13.041530990591598],[108.10218830910662,13.041444206274951],[108.10184498664437,13.041273498725348],[108.10170002760233,13.040893936810578],[108.10150929361672,13.040682221096699],[108.10109730494356,13.04051151287015],[108.10083027699504,13.040553474505279],[108.10073872421879,13.040532493792158],[108.10064717109793,13.040435218466433],[108.1006166535239,13.039624595691206],[108.10065479993665,13.039353752662098],[108.10098286450523,13.038891220799746],[108.10101338198837,13.03872432786834],[108.10095997629544,13.038595581588792],[108.10085316548128,13.038474464587122],[108.10058613627815,13.038394355736425],[108.10010548442575,13.038366699261866],[108.09997578410473,13.038303756945316],[108.09986897371186,13.038195991286866],[108.09989186133753,13.03767051755968],[108.10002156140325,13.03742351560345],[108.10038777213137,13.037009620467433],[108.10052935707499,13.036695477530628],[108.10063191183445,13.036467933519315],[108.1008836824905,13.036390686157125],[108.10154743979417,13.036487960796409],[108.10198231512916,13.036352539892293],[108.10234089765927,13.036151313416378],[108.10255452025126,13.03586616557366],[108.10266133163705,13.035118484252672],[108.10266896116103,13.03388729121367],[108.1037752230181,13.031571769374269],[108.10417958081742,13.030896568138727],[108.10419484037112,13.030805969278822],[108.10400410507391,13.030047797910601],[108.10403462239873,13.029884718806173],[108.10417195068368,13.029728317270296],[108.10449238624275,13.0294746386988],[108.10453816206333,13.029349707678351],[108.10450001487023,13.028956794013052],[108.1032106478285,13.02315368557221],[108.10004444816164,13.006789588002235],[108.10060139342839,13.00540866718475],[108.10124226302311,13.004241369837617],[108.101852613427,13.003980063057153],[108.10205860737969,13.0039438231738],[108.10232563655666,13.003956220649092],[108.10259266572976,13.00383701246559],[108.10295887676125,13.003765485790783],[108.10333271648064,13.003598592753706],[108.10395832645898,13.003815077231755],[108.10424824414538,13.003868483201577],[108.10600300492203,13.004001996703483],[108.1061479634144,12.995788953376673],[108.10601063312919,12.98454704027827],[108.10728474180296,12.983073614278233],[108.10861225702018,12.982189557529203],[108.10997791851746,12.98185481821332],[108.11103840340553,12.981802365409425],[108.11235829023111,12.98127402950301],[108.11402149825504,12.980370900768527],[108.11428852549166,12.980267903340119],[108.11465473688543,12.980319401955395],[108.11508961301323,12.980280301443187],[108.11536427082989,12.980022808856944],[108.11576099958256,12.979428669413691],[108.11654682670815,12.978461644233676],[108.11675282034174,12.978309056052423],[108.11725636069829,12.978151699007524],[108.11564655882034,12.976918599349908],[108.11788960098961,12.975284001200018],[108.12902851626154,12.96941985662777],[108.1290514042607,12.96304454408175],[108.13094349419663,12.96339072737407],[108.1314394040038,12.96357287899334],[108.13265247829267,12.964734453675286],[108.13371296472958,12.965677637671615],[108.13464375073113,12.966904064160538],[108.13491840833852,12.967723269956416],[108.1357347539489,12.968214412210775],[108.136696057461,12.969685932446811],[108.1374055923073,12.970193286318947],[108.13756580852841,12.970523257698694],[108.13743610853987,12.971378702895604],[108.1375658092224,12.971784015205728],[108.13813038358508,12.972183604845718],[108.13846607794814,12.972340961507934],[108.139152723065,12.97235526608322],[108.13948078714246,12.972451587267548],[108.1406099377272,12.973385234463256],[108.14105244186761,12.973550220050335],[108.14118977175376,12.973690410059369],[108.14131184192367,12.974388499990981],[108.14167805291906,12.97533073042715],[108.14194508253067,12.975753208314297],[108.14411183058802,12.97789515985557],[108.14800282109586,12.979545017290523],[108.14946766566223,12.980023760960808],[108.15083332676824,12.980141063239493],[108.1510927269599,12.979759592825102],[108.15132160835063,12.979537386851344],[108.15243549976825,12.978856463827476],[108.15335865640736,12.978903193592778],[108.15426655461111,12.978722948656083],[108.15475483535182,12.978541751053635],[108.156830031025,12.97711696158842],[108.15956898355107,12.974510569722458],[108.1600648948905,12.974155802201798],[108.16173573143345,12.973412890296975],[108.16237660090088,12.973207850030086],[108.16680164929848,12.97239245772707],[108.16917439198208,12.972098727119805],[108.17203541464018,12.971309083904222],[108.17281361279869,12.970827478954837],[108.17338581731735,12.970344919908495],[108.17401905618387,12.969515222075918],[108.17282124182753,12.968829530831488],[108.17108173960382,12.96831263992864],[108.16897602658149,12.96776999816107],[108.17257710085393,12.959082025131544],[108.1735155162064,12.958659547376852],[108.17407246248162,12.958339112690716],[108.1752702769874,12.957923310920084],[108.17562122899153,12.95749797149499],[108.1758043351636,12.956670182238737],[108.1771165903808,12.955742256834696],[108.18018360659792,12.954462425173492],[108.18314381171493,12.9525522163466],[108.18767567191527,12.951157943818815],[108.19004078507928,12.95018615014295],[108.19106312438305,12.94950045797529],[108.19317646641662,12.947938338987212],[108.19554920840572,12.946609870275413],[108.19676228139235,12.945536033683391],[108.19911976359434,12.943682090233159],[108.1997377448102,12.943483726338586],[108.20136280604073,12.94183100762027],[108.20195026946462,12.939402952571939],[108.20227833314549,12.93536700382868],[108.20227833351571,12.931576147716719],[108.20137806453712,12.931487455824634],[108.2010576290741,12.931189909995986],[108.20053120094691,12.930366888452811],[108.20023365536089,12.928437605320333],[108.20016498988727,12.925056830459983],[108.1979448366287,12.918033972041945],[108.19753284901633,12.916513815497792],[108.1963426633041,12.91270674671204],[108.1972276721546,12.90997065585753],[108.19747944207113,12.909745587423874],[108.19740314801334,12.908726110449656],[108.1974260370353,12.908449545139348],[108.19760914237891,12.90801276159052],[108.19844074627756,12.907531156568503],[108.19868488740238,12.907266989138245],[108.19893665749528,12.906574620996423],[108.19892902735266,12.905541791858996],[108.19937153175792,12.904459371722558],[108.19941730943043,12.903524770373647],[108.19928760935194,12.902586354103935],[108.19928760852729,12.902240171507543],[108.19949360256537,12.901993169563836],[108.19981403708755,12.901711835170872],[108.20049305268792,12.90124548834751],[108.20139332236509,12.901105298050203],[108.20242328994487,12.901027097202546],[108.20325489429214,12.900706662152077],[108.20396442803938,12.900482548754269],[108.2044755967706,12.900149715783638],[108.20497150753998,12.899461163779488],[108.2062074701992,12.900700940335966],[108.20729084369287,12.901361836122476],[108.20822162993991,12.901617421306325],[108.20933552227699,12.901557339721116],[108.21566791968408,12.901571644527037],[108.21668262768033,12.887047184314799],[108.21623249386667,12.886384380150975],[108.21569843608884,12.885256184082413],[108.21501179004945,12.88438261814853],[108.21351642971995,12.883424174867338],[108.21270771350338,12.882718455645694],[108.2124864599229,12.88215483513042],[108.21240253722178,12.881140124878664],[108.21293659480857,12.880040538796667],[108.21398182220804,12.879180324909171],[108.21427173931147,12.878827465039311],[108.21445484391612,12.878488910739348],[108.2150651961552,12.878108395171774],[108.21554584804144,12.877122294416703],[108.21598072354931,12.876106631956869],[108.21599598225684,12.875190150508997],[108.21604938784468,12.874527347533686],[108.21649189339671,12.873695743820692],[108.21716327870443,12.872722995506141],[108.2175294895364,12.872413051378373],[108.21925373321196,12.871411693218743],[108.22047443698095,12.870608698801375],[108.22115345328966,12.869579683760909],[108.22168750990312,12.868677508250252],[108.22208423857153,12.867315660587925],[108.22208423896204,12.866911943874612],[108.2219240216493,12.867057216242715],[108.22145862765328,12.867242227625923],[108.22110004700266,12.86753214509841],[108.22082538857305,12.867532145430504],[108.21986408435679,12.867300403455005],[108.2181703588679,12.866779696490088],[108.21691150895121,12.866304767013402],[108.21539325979514,12.865248095233662],[108.21340198744501,12.865149866923192],[108.21253986507465,12.864650142095087],[108.21177692658769,12.864590060100424],[108.21125049875951,12.864378345741972],[108.2109682105442,12.86417235168125],[108.21071644008136,12.863751780622989],[108.21047229907529,12.863466632204634],[108.21006031199065,12.863381755165749],[108.20980091350148,12.863374125472232],[108.20929737292538,12.863171945931441],[108.20483417693573,12.859951388480471],[108.20024128063945,12.856347453111539],[108.19805164487336,12.853663814008945],[108.19755573406212,12.852996242626496],[108.19397754773213,12.848970782457616],[108.19174976406256,12.843824756023377],[108.19115467138191,12.841744792107782],[108.19111652389078,12.840642344351778],[108.19129199998355,12.839331042005732],[108.19156665899419,12.838283907954827],[108.19152851138001,12.836919199816649],[108.19135303610958,12.835788142008257],[108.19014759048856,12.833833109567932],[108.18901844089741,12.832542788335452],[108.18856830652217,12.831926714543668],[108.18798084228834,12.830197702826728],[108.18768329663021,12.829692255892923],[108.18730945637378,12.829294573626326],[108.1880647660578,12.829091441305462],[108.18931598622163,12.829175363759816],[108.19042224877875,12.829660784800986],[108.19202442171762,12.828288446721025],[108.19281787818562,12.827751528443573],[108.1935731879089,12.827474962346702],[108.19475574493303,12.826869379606315],[108.19602222457493,12.825985322961262],[108.19855518321727,12.824854264913542],[108.20092792521848,12.824952494308926],[108.20265216808714,12.824800858662812],[108.20436115285302,12.824856171556878],[108.20639057136081,12.822283158368094],[108.20769519858798,12.819919953380344],[108.20842762046225,12.818483720559556],[108.20867938976292,12.817430863719132],[108.20836658389378,12.816125283817641],[108.20735187475107,12.813577065643555],[108.20670337546353,12.812506088967915],[108.20636768308763,12.810816178205016],[108.20609302469103,12.809706101382577],[108.20555133772814,12.807860741355276],[108.20462055153023,12.805807481518862],[108.20378131709023,12.804862389335893],[108.20269031428454,12.804085145023297],[108.20182056302856,12.802363763398349],[108.20150012840513,12.801539787834484],[108.20151538733059,12.801004776793365],[108.2007982242707,12.800434479704982],[108.20086688896714,12.800007234004958],[108.20150012792983,12.799010644378836],[108.2013475399528,12.79875219821279],[108.20082874173379,12.79842794923633],[108.19999713803186,12.798181900792382],[108.19979114378721,12.79783285581533],[108.19951648568716,12.796978363725708],[108.19858570031724,12.796382316670027],[108.1980211237931,12.795852075259269],[108.19773883678532,12.795470604994064],[108.19702930299503,12.795112023272184],[108.19673175641621,12.794894584870868],[108.19670123847828,12.794705758367787],[108.19674701578471,12.79458654896605],[108.19699115614036,12.794346223319636],[108.1969758963836,12.794101127891762],[108.19777698408409,12.79362333836663],[108.198425482221,12.792927155017004],[108.19922656868908,12.791389831558474],[108.19973773740551,12.79065741028754],[108.20033283040497,12.790068992636044],[108.20273608971726,12.789594063568202],[108.20425433998007,12.790499100192946],[108.20492572685404,12.790676483276272],[108.20663471097699,12.790694602998135],[108.21147174667534,12.789743790525966],[108.21404285301354,12.788748153739492],[108.21609515976006,12.786382088071894],[108.21833820221786,12.783317931944387],[108.21987170969382,12.781584151015188],[108.22051257933751,12.779311545297604],[108.22138233059798,12.773252852314078],[108.223694036275,12.767795927909514],[108.22760028584162,12.758354551345722],[108.22390765884845,12.75702417550835],[108.22274036110731,12.756242162017648],[108.22141284638849,12.75559175748361],[108.22032947222394,12.754798299920788],[108.22019977287266,12.754520780592474],[108.22017688417488,12.754075414083706],[108.2201234780429,12.753817921889475],[108.219749638245,12.752920515462513],[108.21962756818158,12.752495175934776],[108.21974963828737,12.751811392088635],[108.22015399582885,12.751202947014596],[108.22070331228015,12.750762349711781],[108.22089404759322,12.750683195417595],[108.2209474535372,12.750561125144058],[108.22089404730437,12.750492460403086],[108.22055835461374,12.750287420013997],[108.22044391325302,12.750063307254962],[108.2203828784817,12.749259358723625],[108.22077197665014,12.747506505815286],[108.22101611836885,12.747155553548135],[108.22142047504525,12.746846562591072],[108.2223283734478,12.745064145812567],[108.22328204833802,12.743705159960514],[108.22156543394757,12.743900662979156],[108.21639270394817,12.744369871409132],[108.2158204997949,12.744595891761325],[108.21471423753538,12.746735937173527],[108.20944232604816,12.747043974832769],[108.20867175698181,12.747253782756284],[108.20595569271441,12.74947393702239],[108.20577258671133,12.748909361865946],[108.20502490710935,12.748164541604455],[108.20453662439664,12.747611410885177],[108.2040254561374,12.746544248462897],[108.20300311669568,12.745341665845272],[108.20287341617616,12.743988401675093],[108.20285052805094,12.742459661365086],[108.20252246416763,12.741406805643221],[108.20314807506647,12.73977792926959],[108.20310229874056,12.738850957919412],[108.2027971223281,12.738173849120413],[108.20287341660467,12.737597830028378],[108.2033235510934,12.737297422171576],[108.20402545497832,12.73709715119973],[108.20427722535278,12.736470587112874],[108.20410174946747,12.735893614036156],[108.20375079747548,12.735743887450692],[108.20314807491292,12.73581827317519],[108.20265216420329,12.736044294308714],[108.20230121248903,12.736019499337543],[108.2021257357049,12.735718137297805],[108.20214862454812,12.735292799479453],[108.2029725994469,12.734740621365138],[108.20312518618123,12.734115011125096],[108.20300311638957,12.733488446999772],[108.20285052803614,12.73330629495294],[108.2024614290477,12.733168966361545],[108.20045631651317,12.73171707431314],[108.20014209257964,12.73148954611271],[108.19920367744596,12.73086298252154],[108.19865436075185,12.731452351947171],[108.19803637962235,12.731765157479147],[108.19739551129129,12.73187769161231],[108.19655627791255,12.732328779697324],[108.19638080209518,12.732529051177321],[108.19643420720101,12.732930547568486],[108.19645709582987,12.734321005290836],[108.19637317206163,12.73494756942161],[108.19606036706125,12.735762007530056],[108.19532794521278,12.736300832329812],[108.19499225232522,12.737115271070529],[108.19413775991725,12.737079984432807],[108.19292468617505,12.736633666025305],[108.18383044787997,12.73500002188457],[108.18421954685017,12.733248121938734],[108.1837236359652,12.733095533536263],[108.18476886209066,12.724265463888129],[108.17983264379473,12.72278822142143],[108.16880053827875,12.717992193812409],[108.16679400892286,12.716705686627545],[108.16539782797861,12.715345747710094],[108.16530627626169,12.715316183795725],[108.16530628256507,12.715319087819802],[108.16531390530342,12.71919000950615],[108.16519183542881,12.719607718582962],[108.16491717742382,12.719909079360322],[108.16425341967374,12.72013033202217],[108.16204089532138,12.720411666373142],[108.15847033814883,12.719687827508471],[108.15773028768376,12.720305808286765],[108.15678424299257,12.72481001308361],[108.15642566046392,12.725377449260169],[108.15498370602451,12.72566641207244],[108.14989489942101,12.724781402254461],[108.14954394767364,12.7255576931525],[108.14927691864764,12.72557485938499],[108.14894885489778,12.725451835095624],[108.14846820289641,12.72534597777986],[108.1483232434371,12.725454696041119],[108.14807147372694,12.726083168250263],[108.14741534635465,12.728208908474846],[108.14741534681394,12.728709587630473],[108.14692706453206,12.731065162439867],[108.14608020197514,12.734513649381926],[108.1458360618592,12.735755333934478],[108.14572924973075,12.736086258366795],[108.14515704594851,12.737006553897535],[108.14473742897599,12.738016496055165],[108.14466876410621,12.737976441037334],[108.1443712176828,12.739138017435584],[108.14412707753868,12.739735969884702],[108.14374560821437,12.740232835449556],[108.14345569093996,12.740481743843308],[108.14140560538499,12.74370968004817],[108.14139575463668,12.743725190344556],[108.14129657194523,12.74356401919693],[108.14144153105167,12.743169198263818],[108.14143390135091,12.743075738253369],[108.14132708987435,12.742926965261482],[108.14131946049,12.742644677622101],[108.1411210959169,12.742504487244869],[108.14103717359126,12.742392907511356],[108.14083880848591,12.742287049663055],[108.14071673855179,12.742128738953419],[108.14055652150961,12.742035278885965],[108.14041156254443,12.74187696893256],[108.14032001024532,12.741687188286196],[108.14011401563076,12.741475472643973],[108.14003009281205,12.741416345573155],[108.13951892329364,12.741301904436192],[108.13935870574426,12.741230378445493],[108.13875598418667,12.74074209775481],[108.13858050825597,12.740554223184779],[108.1381761498108,12.74036825625149],[108.13790912061506,12.74003828572357],[108.13780230887001,12.74006022028086],[108.13773364497048,12.740017304397979],[108.13763446271878,12.73985231924447],[108.13749713412521,12.739734063154852],[108.13694781686331,12.739379296126959],[108.13681048808787,12.73908270327515],[108.13687152281797,12.738651643600623],[108.13696307586939,12.738411317349229],[108.13684863490819,12.738153825298205],[108.13660449415451,12.737963090655619],[108.13642138855097,12.737696060994184],[108.13595599560888,12.737538705042027],[108.13580340799014,12.737393746253492],[108.13572711414713,12.737239251430744],[108.13562793132395,12.73721159409733],[108.13526935011762,12.737269769347641],[108.13430041666115,12.736678490985529],[108.13373584142559,12.736612687734874],[108.13355273638906,12.736667046471128],[108.13333148403765,12.736814866393424],[108.13310260213007,12.73710001547628],[108.13301104978835,12.737148652342269],[108.13278979645406,12.737160096577487],[108.13259143283446,12.737226853704263],[108.13236255067328,12.737157235527826],[108.13204211687712,12.737205872694116],[108.13185901048199,12.737427125077492],[108.13156146488244,12.737656960238555],[108.1313783584191,12.737732301580165],[108.13121051258095,12.737750420738344],[108.13076037794673,12.737938294112686],[108.13025683742578,12.737778077703789],[108.13021869108861,12.737690339970191],[108.13004321496012,12.737563500433433],[108.12990588602267,12.737659821177653],[108.1298143330712,12.737862954929957],[108.12967700377455,12.737944970758527],[108.12954730474787,12.737906823534566],[108.12945575205799,12.73780668753105],[108.12913531708502,12.73772181102638],[108.12838000690932,12.737821946581956],[108.12834185971485,12.73789156456251],[108.12834948944165,12.738540063279688],[108.12825030690631,12.738906274350814],[108.12814349545467,12.738975892717392],[108.1279832786947,12.73904264981648],[108.1276781024567,12.739042649811644],[108.12754077354067,12.739090333441405],[108.12735766723853,12.739054093361641],[108.12728900336352,12.739081751146092],[108.12700671602794,12.739378343480173],[108.12622088850836,12.739569077584497],[108.12615985283766,12.73960531762121],[108.12604541175033,12.739875207896006],[108.12592334160914,12.7399686682579],[108.12568683104877,12.740072617810204],[108.12467212066112,12.74077261451815],[108.12412280477783,12.741099725813267],[108.12235278426438,12.741341005096915],[108.12181109767444,12.741560350512074],[108.12142199887553,12.742033373548583],[108.12094134730117,12.742412935243479],[108.12055987804078,12.742572198838769],[108.11984271427839,12.74264372421159],[108.11957568552832,12.742743860497967],[108.11904925764495,12.743478189286323],[108.1183092058655,12.743786226696434],[108.1173479027161,12.743714701469349],[108.1161653466379,12.74340094205355],[108.11613482884248,12.743961702067361],[108.11637896955973,12.7453016152718],[108.11714190850556,12.748028170215484],[108.11721820301534,12.74850596021441],[108.11756915546732,12.753066431389602],[108.11724109102325,12.755033862059744],[108.11721057450089,12.755010973506897],[108.1154710726545,12.755275141994279],[108.11673755167813,12.758529077740018],[108.11750049122463,12.759749782133962],[108.11740130882744,12.760600458940484],[108.11662311081494,12.761753451295865],[108.11573810060136,12.761310945969145],[108.11461657913283,12.76108206524593],[108.11418933384537,12.761113536464089],[108.11399096921443,12.76138056561542],[108.1136552760301,12.761563670655285],[108.11308307137494,12.761480700689978],[108.11278552565278,12.761630427167118],[108.11262530787829,12.761638057401084],[108.1124345731924,12.761546504072859],[108.11229724314728,12.761073482129154],[108.11217517330998,12.76098955800936],[108.11195392133214,12.760998141082585],[108.11154193360234,12.761089694174226],[108.1113054226947,12.761031520440799],[108.11107654003895,12.760807406834129],[108.11080188262001,12.760715854441704],[108.11055774270437,12.760756862384294],[108.10995501905725,12.761405360802256],[108.10940570347404,12.761588466559969],[108.10913867470543,12.761579883123035],[108.10884875735569,12.761480700986022],[108.10865039375675,12.761463534579983],[108.10712451396924,12.762128246019966],[108.10666675042624,12.762195003359452],[108.1062395041191,12.762161624280361],[108.10572833533759,12.76204527668144],[108.10546130631697,12.76216162476182],[108.1052782012787,12.762360942397512],[108.1052705716668,12.762668979961944],[108.10534686503223,12.763118159536523],[108.1051790182157,12.763176333966824],[108.10500354269294,12.763150585219623],[108.10443896757668,12.762926471659233],[108.1042482327905,12.762951266673566],[108.10408038661934,12.763009440421895],[108.10395068667783,12.763201129653076],[108.10368365750143,12.763467205150443],[108.10345477552212,12.763583553000032],[108.10321826434603,12.76353300880824],[108.10255450729531,12.763292683157914],[108.10233325392808,12.763284099865741],[108.1021120020917,12.763383282295907],[108.10206622553393,12.763474833884668],[108.10214251971568,12.763740910120456],[108.10211200205167,12.763816250198087],[108.10202044961258,12.763874424260681],[108.10173053222408,12.763821972388493],[108.10136432174177,12.76359308975307],[108.10124987996286,12.763576877898101],[108.10105914557771,12.76369704127469],[108.10086078130189,12.763651263552623],[108.10033435311269,12.763689411048748],[108.10011310025517,12.763917338737771],[108.09999103055063,12.763950718268148],[108.09993762446672,12.764033688170704],[108.0998689606462,12.764401806354192],[108.09978503646593,12.764514339159577],[108.09968585470305,12.764514339290034],[108.09925097934725,12.76415289694603],[108.09894580371751,12.764273060100436],[108.09860248032219,12.764276874851054],[108.09857196301905,12.764297855108262],[108.09854907545395,12.764514338983732],[108.09844226284241,12.764643084748498],[108.09825152825461,12.764747036207309],[108.09806842372868,12.764754665516657],[108.0979158348958,12.764567745331057],[108.09753436482362,12.764297855087472],[108.09720630142846,12.764426600974673],[108.09696216060088,12.764592541252481],[108.09693927258942,12.76475466557415],[108.09646624995035,12.765191448250967],[108.096389956562,12.765311611517822],[108.09633655047149,12.765590084026964],[108.09624499730259,12.76573122813405],[108.09603900455548,12.765794169910054],[108.09561175868778,12.766296757067055],[108.09547442968828,12.766388309320469],[108.09537524618895,12.766596210284408],[108.09534472937135,12.76687468358685],[108.09521502911419,12.767044437031116],[108.09508532892889,12.76712359274081],[108.09477252459531,12.767165554273307],[108.09459704820321,12.76757277331831],[108.09431476122224,12.768000973230084],[108.09423083748969,12.768212688737451],[108.09398669710411,12.768453968534534],[108.0934755275259,12.76873625643767],[108.09336108661479,12.76876105178077],[108.09334032012356,12.768759254240866],[108.08865375037239,12.769556416982738],[108.0883485747587,12.769574535421896],[108.08785266301967,12.769700420741975],[108.08705920585349,12.769882572932904],[108.08616656688078,12.766661060869987]]]]}}]}