{"type":"FeatureCollection","name":"gis.vn","features":[{"type":"Feature","properties":{"ma_huyen":"657","ten_huyen":"Cư Kuin","loai":"Huyện","cap":2,"stt":15,"ma_tinh":"66","ten_tinh":"Đắk Lắk"},"geometry":{"type":"MultiPolygon","coordinates":[[[[108.24929064492804,12.541900988888761],[108.24852770449792,12.538784380883792],[108.24858111083724,12.53751408718988],[108.24887865657328,12.536117908029821],[108.2496263371903,12.534578676303111],[108.25023668953071,12.533835764937468],[108.24983233190687,12.533449526283245],[108.24965685525409,12.53316819245591],[108.24954241483216,12.532903071837216],[108.24954241415826,12.532614107901486],[108.2496034492032,12.532336588215406],[108.25023668959376,12.531169291693482],[108.25049608805219,12.530554171553963],[108.25090044646217,12.529258127237798],[108.25098436886003,12.528227205194021],[108.25086229917372,12.5270532319457],[108.25064867590069,12.526667948655227],[108.25029772440526,12.526342745446893],[108.2497712965023,12.526095743566215],[108.24787157577923,12.525388117467747],[108.24752825388907,12.52510582898111],[108.24721544806765,12.524275179685768],[108.24703234334642,12.523462649620077],[108.24603289155144,12.521478051834366],[108.24492662942394,12.520317431295053],[108.24452990217175,12.519710894239664],[108.24402636096882,12.518535012977832],[108.2437669614302,12.518286104222385],[108.24323290342097,12.51804387107421],[108.24215715919922,12.51763760600005],[108.24142473737977,12.517472620082518],[108.24002855868291,12.517437334498103],[108.23779314579214,12.516624804084325],[108.2372667170873,12.51655995443571],[108.23653429552363,12.516606684140744],[108.23561113819859,12.516966219608433],[108.23451250548705,12.51761471884586],[108.2335054253991,12.517997141832327],[108.23309343830374,12.518026705408614],[108.23271196799037,12.517943735646524],[108.23196428821637,12.517526026583537],[108.23152941190096,12.517361040410295],[108.23101061303831,12.517266627387626],[108.23035448541361,12.517372485106552],[108.22881334785188,12.517891284062301],[108.22833269614289,12.517891283669794],[108.22791307940703,12.517661448984642],[108.2276307921306,12.517396326622098],[108.22734850394245,12.516925211766887],[108.22727983916097,12.516477939172969],[108.2272645807651,12.515923853975194],[108.22746294501631,12.514734621594046],[108.22734087485746,12.514156695919075],[108.22680681703035,12.51355588113369],[108.22544878487544,12.512793894437918],[108.22522753199635,12.512532588079974],[108.22499102092864,12.512096759141455],[108.22507494372292,12.511184093078276],[108.22504442706929,12.510478374005679],[108.2248918390017,12.510232325415997],[108.22460955109477,12.510032054086764],[108.22404497549732,12.509867068671147],[108.22322863092745,12.509935732362631],[108.22251909710269,12.510133143787689],[108.22191637462686,12.510502215475343],[108.22166460515562,12.510867472770713],[108.22161119862103,12.51140057727236],[108.22175615754246,12.511939403113933],[108.22287767871285,12.514381763112905],[108.22374742995055,12.51590001177784],[108.22407549411825,12.517036791775213],[108.22404497603311,12.517822619686704],[108.22344225464504,12.51956307541187],[108.2235719544317,12.520657892742538],[108.22364061810106,12.520968791090041],[108.22351091968096,12.521368381050841],[108.22295397364663,12.52183758960009],[108.22036760806179,12.52242028480869],[108.2201921325331,12.522420284365946],[108.21984880933445,12.522146579587568],[108.21906298210895,12.521037456587193],[108.21875780582188,12.520419475161413],[108.21871965882573,12.51990735203352],[108.21882647032986,12.519598361707738],[108.22005480308837,12.517949457827278],[108.22010057893523,12.517732021576867],[108.22003191470937,12.517479297279591],[108.21973436787374,12.517099735589417],[108.21902483474493,12.516025897554535],[108.21852892352929,12.51562630779408],[108.2181398247439,12.51542222122086],[108.21760576661761,12.515309688226761],[108.21673601561051,12.515520450284066],[108.21575182356464,12.516075488746667],[108.21531694862833,12.516131755659147],[108.21487444410955,12.515955324983516],[108.21255510752063,12.51333081394589],[108.21190660835475,12.512788173596077],[108.21118181680069,12.512544986384906],[108.21099108205712,12.512544986480444],[108.21049517175585,12.512733814069877],[108.2075807424221,12.514341709036447],[108.20686357937419,12.51449620485758],[108.2061464162235,12.514475223726533],[108.20543688261053,12.514201518761613],[108.20459001923504,12.513688442532047],[108.20411699792606,12.513042804984872],[108.20375078629206,12.512678500811743],[108.20351427538887,12.512643214714572],[108.20312517509149,12.513063786158742],[108.20292681185434,12.513752338794554],[108.20291155253814,12.514383670659315],[108.20305651188293,12.514755604258497],[108.20330065150752,12.515015002971897],[108.20459764964933,12.515452740187925],[108.20564287703107,12.51590001301922],[108.20623796888522,12.516257641235041],[108.20672625118135,12.516748782450348],[108.20696276211017,12.517233250049692],[108.2069856502165,12.517780658739328],[108.20686357976071,12.518535968777742],[108.206688104201,12.51893841944467],[108.20642107493357,12.51912152475582],[108.20565813495114,12.519365665594265],[108.20487993692574,12.519345639305829],[108.20388048536613,12.518904086683701],[108.20313280597719,12.51837765931027],[108.20213335486584,12.51781594469314],[108.20166796198676,12.517638561768727],[108.20069902905664,12.517573711836476],[108.20009630646605,12.517675754723005],[108.19966143098263,12.517914172881362],[108.19819658759805,12.519192097522936],[108.19754808875159,12.519612667667658],[108.19712084281016,12.519675610156307],[108.19640367937649,12.519422886143575],[108.19590013931621,12.519191143649728],[108.19504564783875,12.518467305173042],[108.19474047168256,12.517534611209022],[108.19478624762549,12.5166019180127],[108.19494646469671,12.515794155451509],[108.19492357636787,12.515436528400405],[108.19468706532568,12.515092250966017],[108.19435137265438,12.51476228035217],[108.19272631167097,12.51443230788797],[108.19112413837412,12.51306092562206],[108.19076555615017,12.512933131921235],[108.19045275165077,12.512928364641791],[108.188934501806,12.513615010743628],[108.18840044414405,12.513713238750997],[108.1880342333557,12.513649342279423],[108.18771379838624,12.513502476109643],[108.18750780531798,12.513296482747915],[108.18734758839668,12.51296746550762],[108.18728655205071,12.51254975511007],[108.18749254613728,12.510802624744818],[108.18743151116654,12.510134097969797],[108.18727129418758,12.509593365516459],[108.1870271532317,12.509418843167033],[108.18681352976063,12.509335873449206],[108.18656176040929,12.509325383014138],[108.18562334395553,12.509576199531566],[108.18525713264809,12.509732601631265],[108.18469255753396,12.510301945833127],[108.18440264116994,12.510453579980037],[108.18404406038881,12.51048886527092],[108.18367021887624,12.510415432507445],[108.18196886410747,12.509556172961252],[108.18116777793549,12.509041188851159],[108.18093126636745,12.508609173411312],[108.18084734267337,12.508236286204498],[108.18083971414438,12.508010266235331],[108.18112200147148,12.507418988184243],[108.1815034703213,12.50685345918893],[108.18188494058376,12.506125805121483],[108.18245714563109,12.50479638331584],[108.18275469126853,12.503887532700883],[108.18289202043005,12.502997753481766],[108.18284624420359,12.502290126935899],[108.1826631382725,12.501542446440709],[108.18248766218342,12.50118195810026],[108.18228929855317,12.500889180312665],[108.18206041664341,12.50069749090736],[108.18172472380816,12.500563977018622],[108.18122118338347,12.500488636651788],[108.17849748894665,12.500297901232646],[108.17810839039146,12.500115750161894],[108.17789476725946,12.499910710029207],[108.17774217948063,12.499581692083872],[108.1776048499022,12.49910962327412],[108.17761247963762,12.498720523969352],[108.17810075991935,12.493208286962505],[108.1780397253871,12.492937442806936],[108.17781084325865,12.492663739474228],[108.17710893889155,12.492448207802518],[108.17664354593651,12.492063877304073],[108.17610185913662,12.49121224636322],[108.17604082382358,12.490835544790302],[108.17571275984022,12.490933773161462],[108.17506426078593,12.491500256592568],[108.17498033755243,12.491802570762998],[108.17520922017994,12.492270824891119],[108.1751405548895,12.492467282501542],[108.17505663158263,12.492554066284441],[108.17485063750591,12.49258553707299],[108.1742250280827,12.4924758654747],[108.17414873430214,12.49257218604047],[108.17414110470354,12.492679951332333],[108.17426317523422,12.492888806365562],[108.17425554522787,12.493041394211753],[108.17398851672277,12.49345814922247],[108.17392748181184,12.493685124641395],[108.17401903429919,12.49385201703238],[108.17426317498162,12.49403226161641],[108.17459123929666,12.49406373246681],[108.17519396066871,12.493489619974776],[108.17537706589167,12.49344289045155],[108.17544573096296,12.493569729234583],[108.17546098964749,12.493733761614358],[108.17528551418445,12.494661686727378],[108.1750642606429,12.49478757163076],[108.17361467597,12.49470174104939],[108.17349260583327,12.494802830095963],[108.17314165374309,12.494864819617256],[108.17301958425868,12.4948457453618],[108.17269914862021,12.494675991238543],[108.17248552581142,12.494675991389773],[108.17231767870047,12.494744656781283],[108.17222612659846,12.49489819735079],[108.1722795318482,12.49545419000776],[108.17216509141284,12.495537159347629],[108.172012502553,12.495551464174932],[108.17180650975325,12.495425579226504],[108.17169206938568,12.495397923099262],[108.17143266995073,12.495467541338622],[108.17119615773619,12.495634434100833],[108.17102831165272,12.496010182879488],[108.17108171665488,12.496746418794565],[108.17099779364874,12.496843693591622],[108.1707765421717,12.496843693531007],[108.17063921211071,12.49677407585767],[108.17052477221196,12.496801731996886],[108.17040270098349,12.497010586448908],[108.17021196609804,12.497093556208007],[108.16996019573419,12.497065899745483],[108.1698228669145,12.496857045064695],[108.16849535268484,12.496302006266648],[108.16828935891539,12.496245739506653],[108.16809862400281,12.496357319869498],[108.16802995990723,12.496634839028209],[108.16803758876357,12.496885655349123],[108.16812151220124,12.497010586254849],[108.16831987675106,12.497038243538533],[108.16873186353841,12.496968625014594],[108.16881578689515,12.49733006789762],[108.16857927640282,12.497691511047263],[108.16866319936172,12.498010991102445],[108.16908281626561,12.498083471088822],[108.16943376772043,12.498287556816477],[108.16967027867408,12.498658535377947],[108.1701738195695,12.500071881416416],[108.17017381901339,12.500358937582936],[108.169685538181,12.501030323622217],[108.16952532162493,12.501328823947729],[108.16963213201412,12.502183316574481],[108.16905229806837,12.50284230629992],[108.16831224759518,12.504742025114513],[108.16740434959492,12.506433843577446],[108.16710680358962,12.507507680424204],[108.16677110926219,12.509960531540882],[108.16707628588043,12.512046216629921],[108.16674059292407,12.512430547237452],[108.16644304593007,12.513067602109636],[108.16579454751484,12.515325902583216],[108.1655961842147,12.516313909735674],[108.16558855369203,12.517286657585444],[108.16598528259948,12.519794820333312],[108.16722124482195,12.521870016094741],[108.16718309775293,12.522812247170648],[108.16656511758643,12.523984311972459],[108.16596239496205,12.524537444170328],[108.16571825445192,12.52462327378759],[108.16484850278272,12.524614691320842],[108.15956896252601,12.5242046113529],[108.15462491974544,12.523315038816197],[108.15462511438669,12.523312926043086],[108.15264147220844,12.522958159605468],[108.15065782870145,12.52299630690432],[108.15004747764053,12.523667693299858],[108.14958208483301,12.523952842019973],[108.14897936181364,12.523896574535906],[108.14875048071468,12.524047255679104],[108.14855974581782,12.524292350031574],[108.14833849276053,12.524386764181328],[108.14820116393845,12.524348617043731],[108.14809435254033,12.524141670158611],[108.1481477579407,12.523595213618803],[108.14803331646289,12.523331046652988],[108.14762132938631,12.522992491464068],[108.14686602006259,12.522803664636033],[108.14560716960453,12.523124098477906],[108.14504259512235,12.523406387026155],[108.14414995604238,12.523255705489959],[108.1427995529386,12.522879004962991],[108.13864916187762,12.524135948288281],[108.13555162722231,12.524220825007438],[108.1330415565543,12.52451837132694],[108.13240831616459,12.524511695191546],[108.1272966224908,12.522658706343995],[108.12645738900656,12.522650123658924],[108.12567156133409,12.522877099004225],[108.12431352971923,12.523393989941853],[108.1228639443053,12.52414643907737],[108.12261980311749,12.52440869867365],[108.12228410994693,12.525230767155534],[108.12207048747466,12.525257470012974],[108.12171190513304,12.52498853272342],[108.12081926665498,12.524507881928674],[108.1200105498094,12.52449834507681],[108.1172639680473,12.526181579990979],[108.11753099758037,12.530919434179369],[108.11847704320202,12.538280846631388],[108.11856859605982,12.54391515510303],[108.11834734349773,12.546321275248294],[108.11476152828436,12.54925096312828],[108.11418932286895,12.54928815638106],[108.11341112505728,12.548436525421566],[108.11132830000419,12.546952608078405],[108.10916918177253,12.548004510769616],[108.10822313721629,12.548252466936754],[108.10572832482467,12.548224809989897],[108.1041719283269,12.547692659897963],[108.10197466287826,12.546357515889296],[108.09883135138307,12.545829180155748],[108.09773271841615,12.545860651533765],[108.09700792718337,12.546458605107292],[108.09635942797712,12.546528223719985],[108.09365862249554,12.546686534616827],[108.09202593127108,12.546953562525806],[108.08892839781349,12.54539716589792],[108.08814256916496,12.54558217979932],[108.08683794376437,12.546321276201347],[108.08595293385234,12.547213915865761],[108.08452623687268,12.549517040076143],[108.08469408349252,12.550292376773497],[108.085144218147,12.551381472675446],[108.08519762355736,12.55216730085285],[108.08510607103496,12.5524028573943],[108.08226030686403,12.554348353945377],[108.07881945015396,12.554636364564919],[108.07886522727128,12.55795419764571],[108.07883470902186,12.55812490440754],[108.07848375731098,12.558407192517405],[108.07746141825538,12.55862463033084],[108.07713335391327,12.558936481052921],[108.07685106748322,12.561249141768789],[108.07695787843197,12.564253215866849],[108.07768267150256,12.565431957384948],[108.07930010273391,12.568337804053984],[108.08139055644354,12.570004825510418],[108.08134478108386,12.570553188424903],[108.08113878698246,12.571836835130757],[108.08118456412434,12.572368984556556],[108.08125322736527,12.572522526206528],[108.08145922129304,12.57270277123385],[108.08156603255833,12.572734241686922],[108.08238237875688,12.572738056823827],[108.08234423175156,12.573513393500651],[108.08251970788919,12.573580150913589],[108.08250444897207,12.574295406975114],[108.08241289566456,12.575047855464877],[108.08232897293088,12.575165158247055],[108.08187883854275,12.575563793729286],[108.08177202706182,12.576058751004059],[108.08181017405776,12.578193074098417],[108.08155840490146,12.59336603307904],[108.07772081880596,12.592528707274933],[108.07572191772032,12.592146283787475],[108.07554644112554,12.592066174974216],[108.07509630747191,12.591671353478121],[108.07489794344879,12.591591245317174],[108.07376879254429,12.591613180162199],[108.07378405104959,12.59173525038818],[108.07373064593611,12.591936474643482],[108.0732576234129,12.592827207476104],[108.07320421745969,12.593078023987461],[108.07293718822416,12.593702680090956],[108.07298296482298,12.593771345509552],[108.07337969378656,12.593846685107248],[108.07324236493186,12.594233877444875],[108.0733033999797,12.594546682166031],[108.07289141237814,12.595488912512911],[108.07282274770142,12.596001035409763],[108.07275408332393,12.596109754344832],[108.07256334834648,12.596230870969675],[108.071808038866,12.596512205303732],[108.0709077699183,12.597027189633689],[108.07022875404066,12.597190267179426],[108.06968706621959,12.59706533630946],[108.06842058750061,12.597929365102715],[108.06607073417705,12.599938757759281],[108.06577318794574,12.600602514775222],[108.06373613916968,12.603949911919113],[108.0618211608255,12.605052358995758],[108.06070726948742,12.605812438340513],[108.06059282846054,12.605986959968654],[108.0604402404723,12.606792815328188],[108.06054705167863,12.607284911538189],[108.06143206228276,12.609279998064267],[108.06187456750065,12.609080680126578],[108.0621339663162,12.608807929265799],[108.06234759023182,12.608679183225906],[108.06242388293576,12.608364470190885],[108.06242792108162,12.608213049556491],[108.06249254777242,12.607838041715688],[108.06254595435941,12.607821830165886],[108.06268328327482,12.608017332868293],[108.06278246510598,12.608245261203225],[108.06285113012827,12.608232863319795],[108.06303423467102,12.608078368053153],[108.06306711812299,12.608038472836975],[108.0632325988538,12.60788954031221],[108.063263117337,12.607915289986423],[108.06323259935822,12.608014471975691],[108.06309526998321,12.608148940049132],[108.06295794103845,12.608220464802228],[108.06292742301707,12.608341582117305],[108.06272905885386,12.60854471529764],[108.06269091219302,12.608660109045752],[108.06271380016632,12.608865149273718],[108.06261461846782,12.609016784005993],[108.06258410137661,12.609141715287738],[108.06269091217214,12.609341033215525],[108.06282824124746,12.609446890949433],[108.06396502067636,12.609456426942227],[108.06417101548129,12.609549887452074],[108.06430834412943,12.60974920472176],[108.06423205043215,12.60998953102784],[108.06423205040808,12.610095389118497],[108.0642778260893,12.610134489899929],[108.064377008264,12.6100896675745],[108.06452959649471,12.609794027822849],[108.06465166688419,12.609488852024873],[108.0647203308575,12.60913503895361],[108.06485766036532,12.608804114397827],[108.06492632503563,12.608733542511525],[108.06496447224491,12.608749755028882],[108.06497210154963,12.608824140847808],[108.06487291940842,12.609312422931794],[108.06497973114017,12.60948217728027],[108.06491869504595,12.609649070336399],[108.06502550689571,12.609803565133934],[108.06516283662563,12.609806426164468],[108.06537645961322,12.609726317244487],[108.06577318844509,12.609482177112008],[108.06589525782805,12.609199889349874],[108.06602495802812,12.609029181174666],[108.06654375607945,12.60874975521675],[108.06719988396324,12.608547576229347],[108.0677644601748,12.608535177616782],[108.06788652973113,12.608383544308655],[108.06804674698387,12.608406432359521],[108.06797045285501,12.608566648694588],[108.06781023623186,12.60865057331076],[108.06767290715621,12.608679182821714],[108.06749743158589,12.608653434155435],[108.06716936732975,12.608763106078207],[108.06649035075665,12.609135038983078],[108.0662996163439,12.60919988939423],[108.06622332190835,12.609321959431165],[108.06620806357121,12.609691031367474],[108.06610125193144,12.609897024973746],[108.06619280430482,12.610251791821723],[108.06616991577556,12.610350019818807],[108.06604784633835,12.61019171029903],[108.06591051722661,12.610120184756134],[108.06575029893666,12.61014211920697],[108.06549852908176,12.61026800437804],[108.06531542405348,12.61047018319613],[108.06520861261828,12.610817321533576],[108.0652467594988,12.61086119021426],[108.06531542416057,12.610864051101018],[108.06540697720047,12.610978492109128],[108.06549852934702,12.61161840728076],[108.06553667585821,12.612315543345115],[108.06562060043944,12.612558729790436],[108.06586474012609,12.61269319791225],[108.06634539250196,12.61290109925735],[108.06657427389179,12.612873441879543],[108.06752031910976,12.612470992258805],[108.06758898445764,12.612359411855868],[108.06752794843511,12.612097152056666],[108.06756739245488,12.612072499505397],[108.06775683007099,12.612318404205618],[108.06791704839385,12.612290747408561],[108.06798571252381,12.612233527225097],[108.06808489439805,12.612331755137005],[108.06835955272288,12.612324126459734],[108.06865709913181,12.611877806010739],[108.0688249457057,12.611388572322227],[108.06922167464023,12.61131513943847],[108.06930559694344,12.611205466017454],[108.0693666325202,12.610994703708336],[108.06936304753204,12.610917620030378],[108.06938775213912,12.610793838363394],[108.06942965865204,12.610740145767554],[108.06950365863969,12.610725114375718],[108.0695497385822,12.610735305033156],[108.06956499705356,12.610877401952962],[108.06951922019361,12.610989935626092],[108.06958788539286,12.611000426023502],[108.06960314438155,12.610866912367435],[108.06964892027574,12.610833533273436],[108.06970995521506,12.610842116100063],[108.06981676756968,12.611013777543958],[108.06980299372151,12.611149796842103],[108.06967943833894,12.611123449811767],[108.0695802560895,12.611153967607029],[108.06953447978795,12.611259824594278],[108.06956499739668,12.611359007919349],[108.06972521430967,12.611366636982199],[108.06974047309603,12.611404784038417],[108.06972521437257,12.611445791551068],[108.06938189102178,12.611618406668683],[108.0690538271613,12.611719496807124],[108.06893938637347,12.611812957155268],[108.0688630925748,12.612170583790258],[108.06864946911392,12.612384207817003],[108.06856554623447,12.612545377759416],[108.06858080523881,12.612820989661689],[108.06851214036926,12.613015539751398],[108.06852739935704,12.613231070456827],[108.0685502870974,12.613412267962323],[108.06864946970607,12.613513358269254],[108.0689012392629,12.613622077274416],[108.06919115625992,12.613605864105153],[108.06966417917108,12.613047965332152],[108.06993120882376,12.612845786312098],[108.07035082441158,12.612635024430821],[108.07067888864366,12.612539656233896],[108.07080095920331,12.612542516650782],[108.0710222110604,12.612860091260949],[108.07114428120516,12.612977392758106],[108.07124346462045,12.612987882892671],[108.07138842272505,12.61291158917815],[108.07171648603389,12.612583525131521],[108.07196062702894,12.612457640049252],[108.07260912535142,12.612520582963056],[108.07275408490592,12.61260832105809],[108.07295244867076,12.61336553820371],[108.07310503608946,12.61353529178503],[108.0733415473089,12.6135734391407],[108.07346361709597,12.613479026271351],[108.07355517017012,12.61347902624065],[108.0735933175619,12.613524802194544],[108.07362383598891,12.614462264092422],[108.07383745902042,12.615175612159925],[108.07380694022211,12.615815528163447],[108.07374590558398,12.616013891607166],[108.07360857660827,12.616039641083427],[108.07302874282787,12.615948088016653],[108.07220476742975,12.616066343741382],[108.07199877486234,12.61620557988596],[108.07185381544484,12.616475469825705],[108.07184618679094,12.616633780015713],[108.07189196276654,12.616718657363652],[108.07139605165192,12.617096311985444],[108.07093828907105,12.617644674989727],[108.07090014160731,12.617775328000963],[108.07085436514319,12.618363745482016],[108.07078570037754,12.618486769480924],[108.0707322944653,12.619109519305363],[108.0708238481188,12.619233496003766],[108.07082384798169,12.619454749667096],[108.0705873365248,12.62012899760762],[108.07059496612085,12.620303519542258],[108.070724665882,12.620607741055451],[108.07080095976015,12.621564276269327],[108.0709535483121,12.621835120077849],[108.07071703608909,12.622127898802589],[108.07070177822887,12.622365363026],[108.07093828870114,12.62340486836439],[108.07092303007923,12.624305136669825],[108.07099932436225,12.624464400566564],[108.07110613512431,12.624532111538755],[108.07115954065463,12.624635108679282],[108.07114428212458,12.6249278869164],[108.07106035893321,12.625185378777847],[108.07052630123164,12.626250632495871],[108.07046526632982,12.626518615462377],[108.07050341282577,12.626729377188239],[108.07045000744297,12.626903899784368],[108.0704347494481,12.62744844784908],[108.06996935657445,12.62755430533396],[108.06990831998861,12.627653487814348],[108.06988543222805,12.627930053234616],[108.06980913785763,12.62816179543841],[108.06929033978493,12.62846697165081],[108.06925219331434,12.628599532615391],[108.06929796953604,12.628766425558473],[108.06952685159838,12.629012473896658],[108.07042711952242,12.629687674656715],[108.07052630117957,12.629886039597292],[108.07477587468802,12.633460410575946],[108.07509630920647,12.633942969372502],[108.07535570860367,12.634042151944184],[108.07623308953177,12.634087928216726],[108.07691210511481,12.632815726112225],[108.07840746648016,12.63228548370542],[108.08451861165504,12.630620367771643],[108.08441179912204,12.630251295877333],[108.08437365389533,12.629793532236803],[108.0842897292797,12.629598028932161],[108.08428972986141,12.629453070173646],[108.08436602355738,12.629247076675115],[108.08435839489582,12.629129774646062],[108.08412188288362,12.629001028910187],[108.08372515444356,12.628883726648201],[108.08352679024836,12.6288694218217],[108.08332842575771,12.628964789237747],[108.0831682087111,12.628959067284923],[108.08311480278236,12.628869422263259],[108.08323687348066,12.628518469774672],[108.0831758387936,12.628054984352403],[108.0826036336684,12.627552398211723],[108.08246630408422,12.627312071812408],[108.08236712258098,12.62696588828672],[108.08237475125823,12.626519567965795],[108.08247393345248,12.62614000644445],[108.08255022713738,12.626016982016523],[108.08284014464708,12.625892051364525],[108.0830919142461,12.625934012002986],[108.08330553731176,12.626074201594578],[108.08340471914825,12.62607992384652],[108.08349627272075,12.626057036112481],[108.08362597269436,12.625851042646232],[108.08363360165221,12.625716573540327],[108.08343523692722,12.625342734217625],[108.0835496781476,12.624963171914242],[108.08355730768443,12.624180204977],[108.08359545462216,12.62410009598061],[108.08393114805845,12.623949416280002],[108.08397692429757,12.623849280199181],[108.08393114779538,12.623687155410192],[108.08393114825375,12.623497373498939],[108.08398455278707,12.623419172557156],[108.08409899423434,12.623380071849326],[108.08425921233687,12.623117812102416],[108.0841600289456,12.622525579876555],[108.08391588882485,12.62238634402752],[108.08354967802488,12.62230051271339],[108.08337420186348,12.622052557934854],[108.08312243212254,12.621952421486764],[108.08311480189734,12.62189901558214],[108.08329790853664,12.621675855365291],[108.08341997814834,12.621619589830239],[108.08348101307514,12.621486074599364],[108.08348101319805,12.621426947041169],[108.08343523745431,12.621402152168743],[108.08322161444852,12.62147749207921],[108.08312243256955,12.62143839084839],[108.08316820822712,12.62109792981061],[108.08326739032533,12.621014005343733],[108.0833665722084,12.620993978982003],[108.08359545365417,12.62104738493401],[108.08374041300345,12.620824224854296],[108.08383959546534,12.620796568677157],[108.08398455347938,12.620838529435284],[108.08406847681263,12.620932943755257],[108.08423632306406,12.620860464449466],[108.08457964591653,12.620430357700918],[108.08457964619896,12.620154366944146],[108.08459796923287,12.62006183784336],[108.08465594026917,12.619964010633716],[108.08476275218135,12.620035536993845],[108.08496874493645,12.620001203352796],[108.08506792738868,12.620054609300803],[108.08538836253678,12.620551473666751],[108.0854188797558,12.620849974090182],[108.08526629239954,12.62140310560637],[108.08532732677284,12.621816999497145],[108.08525103330342,12.62194860699547],[108.08525866239152,12.622056371507751],[108.08529680912267,12.62212694381047],[108.08539599089035,12.622183210377772],[108.08562487320891,12.622256643267303],[108.08582323686115,12.622440702831135],[108.08586901457494,12.622559911983428],[108.0860216023245,12.622661001619118],[108.0861131544106,12.623003370277933],[108.0862733725372,12.623086340474996],[108.08636492462495,12.623196967044178],[108.08631151948967,12.623536474885416],[108.08634203640962,12.623612768695297],[108.086662470983,12.623794920857524],[108.08668535909607,12.623921758436392],[108.0866472126319,12.62426412811315],[108.08653277124395,12.624695188744665],[108.08631914824913,12.624968893888093],[108.08629625994932,12.625096686183127],[108.08633440715222,12.625228292588895],[108.08644884852743,12.6252778837518],[108.08668535955502,12.625301726211266],[108.08678454135823,12.62536562163027],[108.08684557593983,12.62556112591464],[108.08711260534676,12.625717528107495],[108.08715075252833,12.625768072838847],[108.08713549351732,12.626075156105482],[108.08717364050098,12.626170522886737],[108.0873262288508,12.626234419781852],[108.0880967975048,12.62624681696971],[108.08832567986339,12.626094228784293],[108.0883714557338,12.625889189778437],[108.08856982013508,12.625717527544003],[108.08875292590047,12.625748998883616],[108.08905047111313,12.626094228751773],[108.08920305939333,12.626201994382031],[108.08943194108721,12.626521475348355],[108.08974474672426,12.626668341064722],[108.09012621623626,12.626572973733714],[108.09030932171456,12.62660444477276],[108.09049242760838,12.626751310235804],[108.0905992383777,12.627249129012895],[108.09037035786996,12.627549535444395],[108.0902864332762,12.627817518973009],[108.09030932157916,12.628073103598615],[108.09037798644786,12.628168471045798],[108.09043902189711,12.628168471085626],[108.0906831628426,12.627931959375093],[108.0908357505317,12.627907163962272],[108.09105700284785,12.627983457466499],[108.09123247895643,12.627900489043034],[108.09131640237536,12.62753618492453],[108.09156054275864,12.627223379240613],[108.09169787120977,12.62715376176405],[108.0919725296875,12.627274877313473],[108.09236925868115,12.627536184702947],[108.09267443487487,12.627926237367129],[108.09275835786198,12.62816179477016],[108.09301012775626,12.628379232569241],[108.09331530346635,12.628570921739554],[108.09352129750486,12.628902799549033],[108.0940858723762,12.629100210562607],[108.09476488913965,12.629074461435238],[108.0949174770707,12.629183180613229],[108.09500902878045,12.629834539501383],[108.09515398785,12.630045301543435],[108.09518450554432,12.630249388037187],[108.095268428377,12.630319959393006],[108.09541338645158,12.630382902645977],[108.0955049397171,12.630370504783492],[108.0956117520236,12.63026178527243],[108.09564226889027,12.630076772540045],[108.09640520853011,12.629592306685012],[108.0967027550943,12.629598028815641],[108.09700030121988,12.629751569941538],[108.0975572470213,12.63032758943416],[108.0978471636402,12.630966551895991],[108.09786242311235,12.63149679332179],[108.09795397611498,12.63196123320105],[108.09802264015464,12.632013685933675],[108.09835070402242,12.63211286710857],[108.09843462761175,12.632096655536118],[108.0985948452324,12.631901151671025],[108.09880083914709,12.63176191523727],[108.09906786723461,12.631728536692766],[108.09929674882292,12.632139570967476],[108.09944933698671,12.632269270471053],[108.10020464735409,12.632436163702895],[108.10034960574987,12.632641203817208],[108.10046404675803,12.633065588677834],[108.1005555994626,12.633098966344972],[108.100738704906,12.633121855652721],[108.10092943998708,12.633072263557573],[108.10128802147507,12.632790930232423],[108.10151690344603,12.632764227849366],[108.10165423190453,12.632890112864127],[108.10189837325088,12.633395559523736],[108.10210436644593,12.63357771138764],[108.10227221323726,12.6340211690786],[108.10231036024021,12.634299642709244],[108.10237902497968,12.634372122757213],[108.10244006030823,12.634538061229204],[108.10236376585408,12.634985334423565],[108.10237902544448,12.635120756665897],[108.10252398347534,12.635296232535245],[108.10261553639536,12.63552892887283],[108.10273760583132,12.635693914733455],[108.10380572089186,12.636596090307792],[108.10427874404556,12.636805898124262],[108.10436266730846,12.637006170735495],[108.10470598991947,12.637313253216647],[108.10475939665041,12.637421972470058],[108.10475176671838,12.637590772332294],[108.10483569069969,12.637768156053426],[108.10549944762987,12.638249761067042],[108.10572832934228,12.638546354751483],[108.10630053348955,12.63890779783684],[108.10667437477245,12.639055616352499],[108.10675066848421,12.63910902218694],[108.10682696269684,12.639384634642783],[108.10702532687276,12.639486677239391],[108.1071702843363,12.639486677681788],[108.10753649565777,12.639757520826468],[108.10767382452832,12.639926321466826],[108.10767382457429,12.64000642966956],[108.1074067967933,12.640579588534926],[108.10775011884138,12.640894300551647],[108.10781878351862,12.641085989239315],[108.10808581240448,12.641338712717687],[108.108177364694,12.641556150421147],[108.10843676420363,12.641925222908796],[108.1086046118399,12.642073995861871],[108.10871905129096,12.641873724504391],[108.10912340992179,12.64172209035213],[108.10919970380597,12.641789800371635],[108.10934466253937,12.642073995688035],[108.10929888603529,12.64218557557504],[108.1089097870493,12.642703420083702],[108.10894030482903,12.642876035286603],[108.10889452897703,12.642987615146168],[108.10887927000871,12.643271810216378],[108.10897845217075,12.643521673471229],[108.10894030473989,12.643653280348929],[108.10888689878637,12.64368856668251],[108.10890978635125,12.643811590725612],[108.1090471156125,12.644124395175783],[108.10923022221637,12.644137747945933],[108.10948962047435,12.644161588142401],[108.10966509644176,12.644523985686197],[108.10994738462988,12.645250684827015],[108.10997790291654,12.64544714125423],[108.10990160865983,12.645829565614035],[108.10988635018937,12.646218664946897],[108.10993975576639,12.64628351500336],[108.11015337881865,12.646299726490271],[108.11022204278726,12.64638841829357],[108.11022967297444,12.646550543228901],[108.11027544870232,12.646598226213214],[108.11049670134356,12.646590597781115],[108.11056536573997,12.646638281985487],[108.11063402971078,12.646703130303425],[108.11079424757322,12.647092230405718],[108.11114519987748,12.647376425968476],[108.11154192764661,12.647650129350493],[108.11181658707865,12.647755033176642],[108.11199206282645,12.647873289578973],[108.1121217621797,12.648211843334407],[108.11209124507381,12.648375875454288],[108.1122667208885,12.648581869898253],[108.1125184908867,12.64868486656757],[108.11318224815734,12.648809797263542],[108.113456906287,12.649009115615277],[108.11357134714775,12.649047262597684],[108.11366290034488,12.64927519099235],[108.1137239349995,12.649300939574388],[108.11402281716302,12.649232445448781],[108.1140481097,12.649184495486795],[108.11406725821614,12.648964292510607],[108.11421984625916,12.648880369263116],[108.11494463771449,12.648889906449813],[108.11507433771058,12.648761160711695],[108.11528033183792,12.648745901260053],[108.11553210220131,12.648922331530297],[108.1157838723873,12.648970014255232],[108.11606615920142,12.648678190179096],[108.11626452394721,12.648591406609999],[108.11648577623353,12.648678190190605],[108.11679858140951,12.648735410619047],[108.11714953301632,12.648873693667896],[108.11730282273498,12.648792790530736],[108.1174623387764,12.648636228288805],[108.1177064790674,12.648080236211701],[108.11792773251413,12.647983914917337],[108.11825579586353,12.647993452525174],[108.11853045453361,12.64764059262854],[108.11881274134133,12.647586233721096],[108.11903399395746,12.64746988498485],[108.11938494583902,12.64735449051284],[108.11954516314633,12.64734495312976],[108.11990374494161,12.647659666675457],[108.12045306090296,12.647855169544373],[108.12101763627446,12.648125059297117],[108.12110918958216,12.648228056517532],[108.12110918885335,12.648504621053698],[108.12118548324355,12.648652441402898],[108.1214515509395,12.648882081906743],[108.1215960600329,12.648948142876696],[108.121986570352,12.649031049037974],[108.12221545108225,12.649015790835085],[108.12229174482466,12.648992902077197],[108.12236803922303,12.648857481209202],[108.1225740335944,12.648706800266035],[108.12281817428934,12.64869058812402],[108.12327593772405,12.648796446251998],[108.12343615485106,12.648941403944514],[108.12435168261788,12.649098759713796],[108.12614459077703,12.650228864065918],[108.12660998310865,12.649507886611586],[108.12669390611308,12.649482137280337],[108.126854122982,12.649607068657183],[108.12709063433616,12.649623281054845],[108.12726611167336,12.649716740700661],[108.12748736346434,12.649903660631693],[108.12799090334356,12.650028592949273],[108.12836474383232,12.650074368925948],[108.12847155560958,12.650192624618986],[108.12872332564456,12.650675183718327],[108.12941760039675,12.651386624915132],[108.12987536319156,12.6520074671559],[108.13031786845595,12.652181035930711],[108.13089770300411,12.652206784707197],[108.13190478277447,12.652052289627893],[108.13227099320875,12.652129536904827],[108.13289660498864,12.652554875464144],[108.13340777342158,12.652593023282275],[108.13424700733025,12.652445203457308],[108.13469714166979,12.652464276384222],[108.13580340355273,12.6527351207021],[108.13608569156537,12.652683621964908],[108.137329282923,12.65215528636259],[108.13777941689574,12.652014142809133],[108.13825243961189,12.652091390005591],[108.138443174669,12.652226811328257],[108.1386491676949,12.652271634408052],[108.13871783234715,12.652264958865002],[108.13877123840025,12.652129536748951],[108.13883227404527,12.652123814885213],[108.13893145539724,12.65225160778702],[108.13929003641945,12.652213460426756],[108.13945788358471,12.652020817932227],[108.13998431220533,12.651878720493094],[108.14044970472337,12.651885396091586],[108.14086169263116,12.652084714251135],[108.1417161851292,12.652232533257076],[108.14210528370218,12.652161961031348],[108.14316576962818,12.652206784273327],[108.14344042773874,12.65226305167892],[108.14423388477204,12.651948338531097],[108.14437121415314,12.651686078251673],[108.1446229834905,12.65151537036995],[108.1448289779873,12.650950794939398],[108.14489001268352,12.65060365687423],[108.14513415388436,12.649727231013204],[108.14559191641443,12.649674779504158],[108.14565295154883,12.649606113784188],[108.14566058197754,12.649521237267619],[108.14572924535412,12.649462109571262],[108.14583605756778,12.649464970373584],[108.14588183385715,12.6494983493644],[108.14591998061537,12.649681454132658],[108.14598101536255,12.649731044738118],[108.14617938084648,12.649708157460585],[108.14624804512857,12.649589901905095],[108.14629382203984,12.649583226393277],[108.14659136777426,12.649665242329007],[108.14666766207148,12.649825458804738],[108.1468660260901,12.649842625422552],[108.14691943206807,12.649881725706276],[108.14683550930476,12.650563602873001],[108.14701861367239,12.650698070850451],[108.14686602606977,12.651492482227736],[108.14675921460534,12.651639348565448],[108.14615649206364,12.653693562384774],[108.14602679270239,12.653768902215335],[108.14582842774115,12.654821759767174],[108.14581316991445,12.655303364840536],[108.14585894571532,12.655431157230215],[108.14598101615076,12.65554941216022],[108.14592761125742,12.655779248734552],[108.14655322080569,12.655712490941964],[108.14790362371238,12.655778294147467],[108.15029162432035,12.655698186269722],[108.15271777236015,12.655900365056516],[108.15396899236453,12.65594232619948],[108.15423602109264,12.654730205641176],[108.15686816205942,12.655000095831502],[108.15672320378944,12.651351337860765],[108.15688342142927,12.650880223098952],[108.15804308879473,12.651610736329145],[108.15976733209901,12.652605419867903],[108.16090411225046,12.653331165874468],[108.16169756932925,12.653945331611622],[108.17439288285831,12.662537937495172],[108.17422503635169,12.663030986432156],[108.17898577794226,12.664862995424887],[108.1790697013006,12.663264637018127],[108.19385546864176,12.663470629234727],[108.20295733671452,12.66426694715952],[108.20334643613829,12.664225939314965],[108.2034837646146,12.66413724853018],[108.20368212879565,12.6630557814709],[108.20380419982608,12.662606599643594],[108.2039110106612,12.662487391509949],[108.20419329853195,12.662430170899636],[108.20511645440142,12.662371996444461],[108.20734423874573,12.662395837875797],[108.20905322260646,12.662143114624236],[108.21144885298331,12.66151845731023],[108.21427172894198,12.659694078865632],[108.21524829053688,12.658437135609748],[108.2156068727256,12.657020929659984],[108.21553820754475,12.65541971050241],[108.21611041269462,12.653419855506868],[108.21588915966288,12.650112511713914],[108.21575183042764,12.649370554438914],[108.21566790706729,12.649211290388394],[108.21572894197685,12.648934723772227],[108.21618670621037,12.648658159185961],[108.21633929424264,12.647976281997813],[108.21707171576814,12.64660299056291],[108.21736163282979,12.645431878417378],[108.21790332054076,12.643697145076167],[108.21783465487664,12.643282296476752],[108.21801013123145,12.643207909241447],[108.21890277042567,12.643697144266536],[108.2193223875601,12.643597008327582],[108.21996325649695,12.643031479443952],[108.22047442649608,12.642143609472226],[108.22081774809644,12.641704918784749],[108.22075671330072,12.641456963313649],[108.22043627901468,12.64126622867955],[108.22019213792707,12.640951516245899],[108.22007006786355,12.640179993270936],[108.22013110316438,12.63954961448222],[108.22042864899707,12.63838231745658],[108.2202531725044,12.637785317326099],[108.21961230396046,12.637198807591973],[108.21947497439682,12.63659131741902],[108.2189866933055,12.635933281044558],[108.21884936456068,12.634067894312508],[108.21904009895356,12.633566261926058],[108.21943682717071,12.632903458054512],[108.21963519147475,12.632418991843096],[108.21964282150901,12.632168175448362],[108.21943682771276,12.631822945318191],[108.21946734441241,12.63171327300656],[108.21936816221374,12.631627442334748],[108.21907824575173,12.631627442106192],[108.21881884658177,12.631509186465944],[108.2186509990906,12.631160140880732],[108.21865099971032,12.630663277393197],[108.21837634133604,12.63019311633375],[108.22815722606265,12.630026222937227],[108.23753375246834,12.636359573378844],[108.24031085119141,12.63697278523314],[108.24333209196561,12.638661743604867],[108.24391955532612,12.63886296846437],[108.24526995869991,12.638633132044507],[108.24929064958715,12.639065147381991],[108.25072497544049,12.639762283437161],[108.25279254211468,12.641479850025805],[108.25396746833677,12.641818404961427],[108.25588244716135,12.643164992700402],[108.25613421654707,12.644189238573203],[108.25648516915454,12.644758583355134],[108.25749224876999,12.64574754262576],[108.26047534182729,12.64739549150255],[108.26178759840427,12.647545218464321],[108.26452655133119,12.646802306351761],[108.2650911259533,12.646467566350033],[108.26615161231646,12.645414709251522],[108.27008075027423,12.646646857554964],[108.27339190747234,12.643555997830696],[108.27462786948362,12.643262267487954],[108.27764910968145,12.640969633195157],[108.27835101277287,12.639159559344066],[108.28208178712923,12.63694131243888],[108.27948016359626,12.632372259522885],[108.28103655994592,12.630230306105098],[108.28503436251688,12.62554395028327],[108.28350085481694,12.625439045906974],[108.28115863039531,12.624988912351025],[108.2807695317902,12.624745725228737],[108.28057879698571,12.624150632402388],[108.28076190127746,12.623552678328062],[108.28134173526259,12.622153637611074],[108.28150958275612,12.621183750386933],[108.28130358795762,12.619749425058084],[108.28063220093424,12.619249700172725],[108.28034991430701,12.618860600489695],[108.28020495521591,12.618393299473892],[108.28102893055413,12.616044400450658],[108.28107470571999,12.614286779005392],[108.27951831010475,12.611379978485811],[108.27941149811123,12.611046192410349],[108.27945727521424,12.610780117163289],[108.28044909558368,12.609724400048455],[108.28059405405519,12.605837223465024],[108.28044909552547,12.604669926221073],[108.28054064816992,12.60226762023404],[108.28121203458146,12.598138210673806],[108.28201312096824,12.596182224931018],[108.2816621694577,12.595280049127785],[108.27989214838844,12.588595744442724],[108.27970904336425,12.588074085102344],[108.27920550334825,12.587256786371036],[108.2786561871074,12.58699166476075],[108.27693194336796,12.58678757824798],[108.27480334266879,12.586938258239321],[108.27642840384961,12.581687328473377],[108.27769488344425,12.577358599893302],[108.2787706271872,12.57477891067172],[108.27894610289145,12.574035044880125],[108.27890795645227,12.573741313040493],[108.27816790522365,12.573134775586578],[108.27763384683003,12.572276468512772],[108.27632922085228,12.571091051836543],[108.27584856858532,12.569900867117703],[108.27554339251931,12.569364901903127],[108.27530688135991,12.569143649164634],[108.2748872650381,12.569045420910262],[108.27345293832694,12.568964359363118],[108.27217882980496,12.568265314628714],[108.2712633029699,12.567563410589704],[108.2697069055865,12.567081804927295],[108.26809710385366,12.564967510461823],[108.26589220861706,12.564365740811908],[108.26392382410451,12.563679096639177],[108.26355761313872,12.563409205893718],[108.26279467412517,12.562116023044172],[108.26163500634007,12.560839053047193],[108.25770586826205,12.558282253467473],[108.25522631467688,12.556591388202921],[108.25502794988726,12.556276675347059],[108.25412768182184,12.55320584393691],[108.25269335567532,12.548641558899385],[108.25217455585904,12.547236797013925],[108.24993914318647,12.543591853211288],[108.24929064492804,12.541900988888761]]]]}}]}