{"type":"FeatureCollection","name":"gis.vn","features":[{"type":"Feature","properties":{"ma_huyen":"645","ten_huyen":"Ea H'leo","loai":"Huyện","cap":2,"stt":3,"ma_tinh":"66","ten_tinh":"Đắk Lắk"},"geometry":{"type":"MultiPolygon","coordinates":[[[[108.13398762909357,13.098210718045342],[108.1338274119928,13.096387292302458],[108.13347645955318,13.095393563925008],[108.13283559034406,13.094561005253693],[108.13172169816792,13.092999840300314],[108.13140126318453,13.092858697980187],[108.13109608872004,13.092663193371857],[108.13092061256981,13.092095757786343],[108.13069173040681,13.09090080387575],[108.13025685462708,13.090250397184782],[108.13022633770954,13.089973832756375],[108.13038655435025,13.08924236485144],[108.13037129490367,13.08829918073447],[108.13011189595868,13.087502862605454],[108.12945576789929,13.08651199425443],[108.12908192740566,13.08563366025784],[108.12877675243554,13.085243607217008],[108.12837239395144,13.084431077619994],[108.12773152518199,13.083939933953443],[108.1273195367468,13.083408738577301],[108.12644978590443,13.082862282555089],[108.12590047017835,13.08270206524874],[108.12530537679248,13.082846070345939],[108.1249849426197,13.08281459976006],[108.12474080229681,13.082702065026343],[108.12445851361284,13.082702065772308],[108.12422963310966,13.082653428279754],[108.12416859672793,13.082557107847455],[108.12419911521071,13.082428361332525],[108.12442036684936,13.082283402642608],[108.12445851361656,13.08213844405013],[108.12432881461127,13.081865693338255],[108.12389393891064,13.081656838032748],[108.12335988142925,13.081800843311433],[108.12296315304711,13.081833268897064],[108.1226350890482,13.082058335420522],[108.1224290952023,13.082074547456209],[108.12220021421673,13.081865693046597],[108.12215443640552,13.081350709214197],[108.1219331851423,13.080916787570514],[108.12160512092751,13.080836678472817],[108.12113972771495,13.080820466207603],[108.12027760560355,13.081013108216867],[108.12003346531952,13.080949212755723],[108.11987324744355,13.080707932732508],[108.119987688331,13.080499077292727],[108.12022420011367,13.080257798814143],[108.12020894186634,13.07967891885973],[108.1203081237603,13.079067612814805],[108.12022419922609,13.078777695098301],[108.11988850629699,13.078376198501303],[108.11923237882846,13.078134919446816],[108.1183397398396,13.077651406644792],[108.11805745138336,13.077609444812158],[108.11669179053568,13.077619935964512],[108.1157228570308,13.077089692775008],[108.11480732942064,13.07710590476994],[108.11450215476509,13.077025797037047],[108.11389180191297,13.076639557223476],[108.11334248590735,13.076527024625742],[108.11251088260936,13.076462174320692],[108.11187764206304,13.076269532843641],[108.11149617186956,13.07594814513894],[108.11125203091379,13.075561905481676],[108.11112233270826,13.075256730956866],[108.11117573863673,13.074565316761692],[108.11109181461951,13.074050332380004],[108.11084767422793,13.073761368634734],[108.11064168024463,13.073777582001922],[108.11009236315208,13.074629212408551],[108.10942097695917,13.074838068095273],[108.10900136011828,13.0747903841966],[108.10850544954661,13.074291611340207],[108.10820027372617,13.07352008933335],[108.10837575047776,13.07310238016892],[108.10980244591126,13.071333314544544],[108.10980244562548,13.071011925226973],[108.10968037583169,13.070609475838856],[108.10929127731153,13.070335770285368],[108.10916157693563,13.070030594764956],[108.10927601775836,13.069869423313854],[108.10993214608335,13.069435502200927],[108.11001606963681,13.069146538894605],[108.10993214620082,13.068905259886774],[108.10892506630255,13.068455124945956],[108.10875721874875,13.068132783134004],[108.10897084160815,13.067056084687342],[108.10917683602514,13.065737153442948],[108.1091768354021,13.065448189819906],[108.10908528281894,13.065319443086247],[108.10898610034613,13.065303231059195],[108.10881825487401,13.065456772605726],[108.10861988978404,13.06580963239327],[108.10841389686968,13.065929795315467],[108.10800953905843,13.065989876001002],[108.10739155801411,13.065740014671189],[108.10713215803024,13.065722848366313],[108.10668965352153,13.065818215803025],[108.1065294357044,13.066024209312157],[108.10643025366706,13.066299821222007],[108.10620900214461,13.067796136815907],[108.10640736626675,13.068398858875705],[108.10665913587773,13.068974877593359],[108.10732289299834,13.069379235907212],[108.10758992156323,13.06985225720852],[108.10767384509592,13.070342446731278],[108.10758229312634,13.07078113634782],[108.10734578120851,13.070936585331713],[108.10720082308089,13.070936585996701],[108.10694905302243,13.070866968036105],[108.10629292508928,13.069955254639027],[108.10569783150919,13.068493272059719],[108.10534687961412,13.06813182997933],[108.10502644535177,13.067451859438046],[108.10476704616491,13.06714286942244],[108.10459919871359,13.067004586317863],[108.10448475752004,13.067004586959136],[108.10438557528593,13.067091371067846],[108.10456868204292,13.068613434692283],[108.1046526048095,13.068897629737688],[108.10456868147881,13.069137955510998],[108.10379811309436,13.069723512190386],[108.10366078339608,13.069998170584592],[108.10375996566944,13.071030999535818],[108.10369130106811,13.071219826803976],[108.10356923105832,13.071297074600135],[108.10337086672318,13.071305658004711],[108.10310383824223,13.07115116308066],[108.10264607380071,13.07048073019293],[108.10226460479211,13.069723512292695],[108.10207386934455,13.069137955827275],[108.10211964595726,13.068320656890267],[108.10227986269219,13.067650223683993],[108.10213490486139,13.067047501846243],[108.10185261703674,13.066608811750102],[108.10145588846123,13.06613579012802],[108.1011125660648,13.066127206065529],[108.10077687300142,13.066161538828034],[108.10046406755657,13.06641998371002],[108.10025807346499,13.06672992899244],[108.09998341549776,13.066961670542122],[108.09977742194641,13.067030335984263],[108.09962483339558,13.066987421011293],[108.09954091097971,13.066790009719563],[108.09963246335123,13.066334154283432],[108.10012837355482,13.065542603834075],[108.10043354963511,13.06455364342775],[108.10086842422443,13.063598061867276],[108.1010973061676,13.06291046304196],[108.1007005785529,13.061671639764825],[108.10005207923327,13.06036415221799],[108.0996782390015,13.059331322673321],[108.09945698753917,13.059065247437793],[108.0992281054912,13.05896988036739],[108.09851094218716,13.059322739650808],[108.09793110793112,13.060071374315925],[108.09702321064654,13.061611558471911],[108.09638234116295,13.062101746759197],[108.09587880068212,13.06209316415853],[108.09495564459654,13.061353113039797],[108.09494038531632,13.061172867920245],[108.09595509460436,13.059667016758304],[108.09622212355949,13.058838273982321],[108.0959932407485,13.058485413528869],[108.09556599483946,13.057967568595384],[108.0953065963882,13.057726288598083],[108.09464283869886,13.05753841612743],[108.0940935217231,13.057712938119955],[108.0937273108883,13.057882691583114],[108.09276600733904,13.058784867993804],[108.09247609127716,13.059324648150366],[108.09230061388693,13.05992355460654],[108.09187336863016,13.061968233067107],[108.09169026296591,13.063589478834157],[108.09143086319341,13.064210321393375],[108.09054585439792,13.064974214447927],[108.08905812231788,13.065755273378334],[108.08882161156234,13.066076662042581],[108.08860798737298,13.066661264159892],[108.08853169461847,13.067180063029287],[108.08834858797582,13.067345049268685],[108.08809681864857,13.067448045267385],[108.08755513137355,13.067483331450145],[108.0871965492869,13.067385103571038],[108.08662434526742,13.067078973020854],[108.08635731627908,13.066830064262554],[108.08615895263148,13.06655445361096],[108.08596058805034,13.066091921765112],[108.08593006989649,13.065853502118863],[108.08609028694121,13.064500238351823],[108.08606739907628,13.064205553353332],[108.0859834764096,13.063884164297006],[108.08581562946038,13.063754465583017],[108.08554097125182,13.063727762033567],[108.08502217199408,13.063910867107806],[108.08448048531686,13.064380075021454],[108.08425160360393,13.064772989335756],[108.08402272137775,13.065594103249556],[108.08403798065054,13.06580391132243],[108.08435841503837,13.066277887611632],[108.08476277350131,13.066983606527506],[108.08481617789505,13.06726017272545],[108.08476277369138,13.067465212897558],[108.08447285644209,13.067724611433828],[108.08352681157821,13.068247224874028],[108.08307667608348,13.06864872186184],[108.08296223658115,13.06889858491956],[108.08260365415755,13.07047977649255],[108.08246632581756,13.070582773962698],[108.08232136639431,13.070586588876443],[108.08218403783816,13.070519830646932],[108.08168812690529,13.0691932696861],[108.08146687428014,13.068858530536627],[108.08077259955367,13.068358804395725],[108.08011647108476,13.067947771356314],[108.07849903996299,13.067465212383745],[108.07765980607127,13.067143824185932],[108.07753010685838,13.066898729688754],[108.07746907098112,13.066554453974668],[108.07755299472413,13.066183473531739],[108.07784291191948,13.06587162320449],[108.07875843902023,13.065500642418463],[108.07997151267821,13.064897920366207],[108.08023091237759,13.064491655237836],[108.08025380000622,13.064040567458989],[108.08005543607803,13.06341495760668],[108.07983418432585,13.063022043610353],[108.07949848971988,13.062625314648848],[108.07903309712802,13.062365915439175],[108.07864399829424,13.062325861874669],[108.07836171123891,13.062397386771758],[108.07782765279774,13.062946703316351],[108.07748433030609,13.063040163401471],[108.07648487996343,13.063071634573097],[108.07440968368411,13.06357136000075],[108.07338734468951,13.063598062581208],[108.07286854696352,13.063522722817067],[108.07196064889159,13.063254740212832],[108.07139607310626,13.062901881102258],[108.07113667423728,13.062486079118758],[108.07096882687296,13.062049295854537],[108.07100697353287,13.061763193775676],[108.07108326803194,13.061584856595301],[108.07135029653259,13.061441805653658],[108.07243367079059,13.061022188796663],[108.07418080210996,13.060213472417182],[108.0747453775303,13.059883501346887],[108.07576771535969,13.059132959919674],[108.07608052151906,13.058806802833095],[108.07630177393203,13.05853500587077],[108.07689686682232,13.056847002388224],[108.0770418244946,13.056159403405976],[108.0769884197483,13.055940057426582],[108.0768968666824,13.055797006262942],[108.07662220885574,13.055716898838945],[108.07525654648924,13.056078340722305],[108.07253285231013,13.056918527940907],[108.07012959372439,13.057328607987026],[108.06684132421498,13.059056666194655],[108.06641407825495,13.059092905912108],[108.0661089027102,13.05903950040697],[108.06589527978929,13.058901216661333],[108.06564350988505,13.058610346884633],[108.06549855048561,13.058114435933334],[108.06547566287209,13.057596590681971],[108.06557484401606,13.056587603234645],[108.06578083804362,13.056114580836375],[108.06609364344693,13.055766489721375],[108.06737538120437,13.055127528103442],[108.06833668544867,13.054752734109957],[108.06880970845185,13.054399873372994],[108.06908436677286,13.054024126626869],[108.06931324826432,13.05346145887599],[108.06954975927086,13.05269375102158],[108.06967945963801,13.051889803949635],[108.06953450024746,13.051225092459731],[108.06927510149052,13.050800707848017],[108.06894703760406,13.050519373612909],[108.06842060962302,13.05034961939911],[108.06779499831237,13.050259973945346],[108.06698628186108,13.050394441242899],[108.06575794970782,13.050835993065228],[108.06495686337583,13.051296617984235],[108.0633623202499,13.05242576858321],[108.06297322119377,13.052520182040322],[108.06266041657679,13.052510645486418],[108.06206532327872,13.05231418911706],[108.06102009575284,13.051769640973601],[108.05891438313714,13.05051937369128],[108.05847950658551,13.050407793898195],[108.05802937256665,13.050541307848615],[108.05710621563748,13.051613238515422],[108.0567934111868,13.05190315507052],[108.05661030641924,13.052001382896783],[108.05626698287622,13.052001383394938],[108.0558549961633,13.051823046473068],[108.05503865126497,13.050898936179397],[108.05312367280175,13.048107531459422],[108.05274983217517,13.047835734198735],[108.05239125087924,13.047665979827775],[108.04679890376613,13.047880557597065],[108.04623432887,13.048000720423211],[108.04571552933213,13.048358348580592],[108.0455019061746,13.048612025821798],[108.04542561281205,13.048987773476775],[108.0454561304238,13.049425509181427],[108.0457536764848,13.050469783802281],[108.0461885527196,13.051247027217553],[108.04758473203303,13.0523542435756],[108.04789753643905,13.052515414416217],[108.04834004177994,13.052604106135231],[108.05010243148597,13.052716639874228],[108.05061360227812,13.052810099764974],[108.05128498762473,13.053131487989852],[108.05152912932726,13.053752330083462],[108.05141468834938,13.054390338190997],[108.05078907811453,13.055162814617619],[108.04966755680037,13.055712130347255],[108.04851551780874,13.056083111096264],[108.04794331440473,13.056087878664528],[108.04740925627534,13.056024935721243],[108.04671498092956,13.055753138676723],[108.04386158815043,13.054274943613626],[108.04365559427141,13.054256824211434],[108.04328175408952,13.054458049999559],[108.0431215360433,13.054689791979218],[108.04300709488535,13.055145648632205],[108.04302998401431,13.055889514557759],[108.043152054127,13.056637194489799],[108.04331990114366,13.056953815364555],[108.04373188822615,13.057293323346396],[108.04490681479257,13.057909396656845],[108.04505940171471,13.058119204646712],[108.04520436071525,13.058637049517872],[108.04525013706281,13.058986094714157],[108.04522724887823,13.059610752290029],[108.04503651403824,13.06009331132461],[108.04482289104072,13.060343173785578],[108.0444948268003,13.060584453204758],[108.04321308958104,13.060985950272869],[108.0425417020417,13.061486629071075],[108.04226704411678,13.061843303474266],[108.04184742705321,13.062915233004132],[108.04151936336643,13.063371089957796],[108.04093190066119,13.063950924386688],[108.03994007960034,13.064383892406276],[108.03880329906882,13.064813045491274],[108.03804798896599,13.065322307164244],[108.03749104289392,13.066094784957777],[108.03733082623707,13.06678905839901],[108.03738423223216,13.067230610975468],[108.03749104337231,13.067651181031684],[108.03800984273985,13.068106083419],[108.0386354526086,13.068490413685227],[108.03984089721695,13.070493130012784],[108.04022236616797,13.071305661080755],[108.04065724240307,13.072397617716977],[108.04071064836619,13.07303657972689],[108.04058857740912,13.073357967622067],[108.04021473760349,13.073647884857902],[108.03893299951339,13.074085621388589],[108.03853627091479,13.074179082193682],[108.03796406648196,13.07420196974545],[108.03634663479002,13.074025539591387],[108.03688832129323,13.074882892635717],[108.03719349811873,13.075062183863102],[108.03817768977326,13.075336842132177],[108.0383073885269,13.075601009687986],[108.0383455361012,13.076040654022735],[108.03852101191723,13.076437382599806],[108.03887959421326,13.07674827957932],[108.03932209926307,13.076710132719768],[108.04013844390651,13.076104549616238],[108.04035969538408,13.076107410763983],[108.04089375363733,13.076332477621047],[108.0413286296658,13.077303318765848],[108.04172535745228,13.077702907749712],[108.04239674501898,13.07797279760822],[108.04265614438276,13.078238872487717],[108.04348774798794,13.080003171264199],[108.04399891771651,13.080831914339532],[108.04460926951451,13.081718830820455],[108.0447237098367,13.083154111390531],[108.04574604968978,13.083735851492516],[108.04601307806666,13.084089664517716],[108.04733296307589,13.085161595097752],[108.04748555152436,13.085557369721522],[108.04736348147071,13.086606411876147],[108.04754658669731,13.086827663961339],[108.04767628619886,13.088293462227133],[108.04827900897281,13.091817288333228],[108.04842396688791,13.097295193846895],[108.04918690665137,13.099949269229196],[108.04834767407812,13.100441365493994],[108.04711934095063,13.101673512227071],[108.0466081717369,13.102034955724575],[108.04659291288456,13.102560429421883],[108.04631062516353,13.103003888415943],[108.0459520442945,13.103037267819461],[108.04486867041341,13.102626233955792],[108.04418202390934,13.102478413419346],[108.04317494419182,13.102133183649924],[108.04241963372556,13.102002530896035],[108.04187794747314,13.101443678206461],[108.04163380569851,13.100868612009966],[108.0416795833603,13.10054054748425],[108.04193135251737,13.099932103976995],[108.0418321705764,13.099686055622218],[108.04076405521552,13.099735646799022],[108.03977223388522,13.100059895683827],[108.03923054695329,13.100340276964799],[108.03884144768502,13.1010498095441],[108.03849812537183,13.102018743300306],[108.0379564376967,13.102215200301867],[108.03755970985272,13.10201874271575],[108.03691884119567,13.101443677802143],[108.03519459689839,13.100918203169059],[108.03381367675526,13.100950628384707],[108.03332539584575,13.101016432129388],[108.03305836649729,13.10126343314877],[108.03274556223876,13.101723104290588],[108.03233357407571,13.101821332871902],[108.03173085173022,13.101788908383956],[108.03067799586441,13.101476103353647],[108.02977009816551,13.101000219775903],[108.02913685809001,13.100950628677206],[108.02837391887763,13.101411253448651],[108.02785512016597,13.102072149262986],[108.02780934243499,13.102433592962566],[108.02784748969621,13.102795034661487],[108.02768727323273,13.103409202010562],[108.02744313318387,13.10376587596233],[108.02721425101309,13.104216964055691],[108.02660389905009,13.104600341061333],[108.02643605196309,13.104616552307597],[108.02623768797685,13.104350477671856],[108.02606984178313,13.103917509316279],[108.02563496608744,13.10368481246878],[108.02511616698295,13.103684812849856],[108.02488728510664,13.103950888662984],[108.02466603276723,13.103984266846448],[108.02333851741994,13.10296860388642],[108.02140828037415,13.102002531430639],[108.02070637680038,13.10176888210467],[108.01980610828599,13.102102668212915],[108.01897450447973,13.103517920400607],[108.01832600586214,13.103567511352473],[108.0179216479867,13.103468329328736],[108.01750966046885,13.102768332407186],[108.01727314938202,13.102502256851375],[108.01697560275586,13.102451713003875],[108.01654072769475,13.102535636162427],[108.01569386470157,13.102935224997148],[108.01411457953544,13.10318508819797],[108.0132982343673,13.102651983950382],[108.01276417612135,13.102651983780314],[108.01209279032497,13.10285225664474],[108.01124592718278,13.102884681699619],[108.01016255344544,13.102335364296827],[108.00955220177835,13.10235252995992],[108.00938435522721,13.102618606632571],[108.00939961307454,13.103368193942481],[108.00923176712132,13.104649932809084],[108.00911732631441,13.105049521307093],[108.00878163281678,13.10524979363654],[108.007065019276,13.105283172159607],[108.00650044450207,13.105399520885342],[108.00598164542497,13.105666549471879],[108.00541707080993,13.106865318029158],[108.00492115943159,13.107198150689467],[108.00448628336974,13.107247742025477],[108.00410481440103,13.107064636063665],[108.00388356189134,13.106665046985258],[108.00317402842988,13.106415183556432],[108.00263997008781,13.1065324861452],[108.00233479484282,13.106831940128805],[108.00217457706866,13.107164771509833],[108.00205250773344,13.107714087523693],[108.00173970107332,13.107997330111692],[108.00033589315684,13.108680159789351],[107.9996721356503,13.108780296175176],[107.99890919675036,13.108713539193463],[107.99712391841051,13.10888043205655],[107.99644490237884,13.10911312890297],[107.99574299695867,13.109063538044037],[107.99444600036526,13.109729202109198],[107.99317952143385,13.110029610427354],[107.99259968768963,13.110661895970587],[107.99233265872326,13.111228378623903],[107.99247761672102,13.112260254420399],[107.99233265813866,13.11256066192014],[107.99206562914,13.11274376740696],[107.99166127107819,13.112759979155909],[107.99131031963306,13.112677010632467],[107.9909669966156,13.112360390878527],[107.99029561007055,13.111894043656438],[107.98892994822424,13.111661346209665],[107.98853321894119,13.111744316972132],[107.98835011473932,13.111927422910403],[107.98838063197435,13.112244041328722],[107.98876210177573,13.112860115299602],[107.98873158463769,13.113009842443795],[107.98860188439278,13.11306038802607],[107.98808308576697,13.113009842584987],[107.98763295188955,13.113043220658824],[107.98736592234941,13.113310249622545],[107.98732014605385,13.113975914716272],[107.98739644046064,13.115258606859621],[107.98719807582656,13.115508469643169],[107.98648091225235,13.115674408491126],[107.98633595424678,13.115941437961554],[107.98633595416739,13.116190346805533],[107.9865038001888,13.116473588257294],[107.98636647115069,13.116640481378933],[107.98613759074094,13.11662331534923],[107.98598500268169,13.116440209099698],[107.98571797314338,13.116390617712364],[107.98529835640078,13.116440208782905],[107.98483296325125,13.116740616985231],[107.9846880054313,13.117606553268507],[107.98430653565924,13.118006142734414],[107.98372670148123,13.119529160311936],[107.98368092422326,13.12007943104859],[107.98435994148458,13.120615396611367],[107.98557301447825,13.121431741595597],[107.986099443674,13.122369203435301],[107.98661824205205,13.123014840559987],[107.98674794159083,13.123814019047185],[107.98664113091351,13.12422791387083],[107.98529835702485,13.126033219167656],[107.98520680382674,13.126235397962299],[107.9851381397559,13.126688394303388],[107.98506184651052,13.127758416788414],[107.98509236296498,13.12875119159114],[107.98482533510476,13.132377061230912],[107.98471089458202,13.135362061568753],[107.98470326412075,13.136949929553225],[107.98551198047753,13.141873751343516],[107.98546620440268,13.142746363382093],[107.98526021054664,13.144160661949428],[107.98389455034913,13.14702740697824],[107.98378773784634,13.14802590480002],[107.98292561600853,13.149288569265611],[107.98215504846907,13.150651369245994],[107.98226948965942,13.15315667261959],[107.98211690141034,13.1572031127871],[107.98104115622095,13.159317409381147],[107.97625752641375,13.164734279607757],[107.97489949349284,13.16572419330263],[107.97427388399761,13.166295444843623],[107.97637196759293,13.16799870611521],[107.97715016625897,13.1690239064669],[107.98007222373154,13.170717631260409],[107.98314687004469,13.174208079857417],[107.98490163154865,13.17550412325348],[107.98683186741266,13.176575099298677],[107.98818990098442,13.178721820084549],[107.98831197026246,13.180261050499459],[107.98954030221975,13.179682170798884],[107.99035664862498,13.179767047648575],[107.99217244468903,13.180932436978772],[107.99259969042203,13.181797420272805],[107.99242421495384,13.182575618384629],[107.99219533282819,13.183189784716182],[107.99218007350578,13.184491550541397],[107.99102040619412,13.187755977453556],[107.98994466121623,13.190026675853828],[107.989418232907,13.192200099565017],[107.98831960053376,13.192652142406395],[107.9872285973079,13.194032108236003],[107.98715230326019,13.195283329383159],[107.98770161899519,13.196384823145042],[107.98717519191747,13.200809872640763],[107.98663350491469,13.202814495555],[107.9866411350782,13.204260265645543],[107.98803731417605,13.21026173852061],[107.9880144263962,13.211790478592063],[107.98697682841636,13.21429482792098],[107.98690816362185,13.214636243388274],[107.98792287295622,13.218538677828796],[107.98889180655063,13.220055974314029],[107.98748799791792,13.221352971278886],[107.9866182462077,13.223431981853555],[107.98452779283491,13.224655545922896],[107.98285695605753,13.22810784673817],[107.98078938999855,13.231705107099941],[107.97811910156148,13.232676901574624],[107.97756978522179,13.232918181195345],[107.98183461721298,13.235854544124503],[107.98226949273435,13.23601380782676],[107.98323842611454,13.23604909342324],[107.98498555715443,13.23585263709383],[107.98597737836046,13.235993779656928],[107.98800679687662,13.237713255011428],[107.99192067742192,13.242024817041214],[107.99303456878367,13.24295274219994],[107.99584218628748,13.246457494862954],[107.99682637794282,13.247139371835695],[107.99820729860517,13.247311032637022],[107.99912282562032,13.24820558013817],[107.99990102433708,13.249736227395942],[108.00008413023994,13.251167692313999],[107.99849721637253,13.254854597351674],[107.99844381042954,13.255372442698265],[107.99868795159139,13.256015219421037],[107.99976369515909,13.257249274007386],[108.00009938913298,13.259337820581823],[108.00058767096536,13.259778418326817],[108.00099965734417,13.260498442564511],[108.0008165525046,13.261185086960293],[107.99825307538585,13.26352731230533],[107.99787160549133,13.267691054736872],[107.9973146610047,13.26880208463631],[107.99734517819299,13.274712004692319],[107.99764272388704,13.276927389899967],[107.99772664839762,13.277207771523896],[107.99798604722076,13.277483382093658],[108.0003664182231,13.279188552342639],[108.00179311569441,13.284091392188932],[108.00179311583686,13.290994087948203],[108.00141164648065,13.291327873287893],[108.0008699593602,13.293657700130641],[107.99949666844854,13.293913285187678],[107.99546834819418,13.294130722254923],[107.99438497408073,13.294829766307993],[107.99274465436933,13.296590248226794],[107.99199697402351,13.296807686487586],[107.99095937613977,13.296735207289503],[107.99047872395967,13.29656640743396],[107.98999807230663,13.296927849625318],[107.98979970807423,13.297699372714371],[107.98939534992773,13.298254410320089],[107.98915120919527,13.299387375161167],[107.98883840444336,13.300038735968943],[107.98826620005377,13.300231377736035],[107.98770162411735,13.300355355402937],[107.98669454425779,13.300272385955475],[107.98580190478594,13.300368706674275],[107.9855806534977,13.300657669998158],[107.98534414094115,13.30194417722596],[107.98481008390391,13.302570740825887],[107.98410818001065,13.302932183784334],[107.98394033291743,13.303245941947322],[107.98389455723164,13.303704659884913],[107.98402425652732,13.304123322824115],[107.98438283832043,13.304315965227795],[107.9852068122144,13.304343621671318],[107.9856111701092,13.30439798117737],[107.98604604630044,13.304810921690903],[107.98647329196034,13.305416505057362],[107.98669454423822,13.305850426954072],[107.9865953628707,13.306260507220571],[107.9863283336327,13.306915680822774],[107.98596975274687,13.307152191783846],[107.98542043555143,13.307147423730532],[107.98477956657857,13.306933801436799],[107.984291285553,13.306901375862802],[107.98387929858131,13.307254236292644],[107.98376485748801,13.30775396095317],[107.98345968175317,13.308551232971569],[107.98284932942974,13.309672754355724],[107.98332998164624,13.310714166451447],[107.98362752837834,13.311798494729418],[107.9834291636109,13.314241807611642],[107.9823305318557,13.315798204180691],[107.98009511847124,13.31776468099756],[107.97975942568782,13.318283479695705],[107.97951528513713,13.3192571821935],[107.97969076072597,13.320945184689412],[107.98024007796414,13.323570650833883],[107.97923299694219,13.326111238999589],[107.9780046652044,13.330180567655201],[107.9777071193809,13.332986277817508],[107.97657796887697,13.335926455403188],[107.97406026850624,13.343808573663182],[107.9728700833821,13.345858973768664],[107.97310659494057,13.346739214883392],[107.97316763029397,13.34837572055155],[107.97406789820732,13.349916858049474],[107.97420522747836,13.351053638001533],[107.97479269172347,13.35285799005557],[107.97482320841398,13.354615612093738],[107.97474691482881,13.355107707285388],[107.97454855008496,13.355512065377063],[107.97422048621807,13.355654163503342],[107.97409841624061,13.355869693794416],[107.97407552879993,13.356185359737486],[107.97437307496111,13.357257289398776],[107.97477743222503,13.358255786295851],[107.97484609792028,13.358860416813977],[107.9746858798428,13.359128398803435],[107.97390768128696,13.359200878787918],[107.97379324086397,13.359511775390247],[107.97353384148121,13.359750194845699],[107.97212240395807,13.360101146982835],[107.97172567491694,13.360684795778273],[107.97186300391184,13.36164133109925],[107.9717104161447,13.361933156098662],[107.97099325289896,13.362423343898309],[107.97089407102283,13.362656993744492],[107.97102377109009,13.363252086814029],[107.97101614209491,13.363671703996147],[107.9707491127358,13.363905353744935],[107.9703371249142,13.363963528175583],[107.96992513820479,13.364103717689563],[107.96916219915971,13.365176601837499],[107.96891042884549,13.365597171951599],[107.96877310001996,13.365986271313242],[107.96853658800877,13.366252347291766],[107.96669790356519,13.36759607458568],[107.96130392215122,13.368559285945357],[107.96005270208005,13.36904089065279],[107.95948049637268,13.369486256423963],[107.95833608766698,13.371420308677207],[107.95825216533238,13.373127386300004],[107.95738241369051,13.374474926924526],[107.9556505412232,13.376136227861165],[107.95523855381137,13.37730257230992],[107.95494100738553,13.380624218991704],[107.956001492923,13.381628438994689],[107.95760366666278,13.382453367409724],[107.95778677159389,13.381985113753359],[107.95785543658297,13.381003782482349],[107.95825216503911,13.380553648587966],[107.9585954869068,13.380359098558458],[107.9588243695172,13.380333349576524],[107.95918295176284,13.38039438462618],[107.959877226458,13.380429670382325],[107.96099874778282,13.380279942961515],[107.96344778210273,13.379785939654141],[107.96488210871048,13.379689618533996],[107.96524069069571,13.379749699966725],[107.96591970616245,13.379980488755756],[107.96641561749584,13.38025991606874],[107.96780416641319,13.381760998882967],[107.96899435261638,13.382478161563606],[107.9696657395612,13.382713720223382],[107.97016164968605,13.38275282094478],[107.97074148342337,13.382735654198303],[107.97133657652137,13.382555409416621],[107.97274801430132,13.381657048523856],[107.97345754883055,13.381360455812452],[107.9739229418008,13.381234570236506],[107.97418997096698,13.381246014600475],[107.97454855177398,13.381437703896621],[107.97484609890448,13.381661816832393],[107.97499868677836,13.381936474178476],[107.97507497984213,13.382176800585569],[107.97508260981932,13.382840558496316],[107.97518942066831,13.38305418187719],[107.97538015540903,13.383250638436461],[107.9755937789889,13.38338033799323],[107.9769899583051,13.383936329635905],[107.97862264921761,13.384280606248064],[107.97888204769743,13.38428632820082],[107.98026296867118,13.384006901812562],[107.98090383838647,13.383695050581808],[107.98115560778204,13.383711262401755],[107.98138449000321,13.383842869707221],[107.98161337176711,13.384286328876613],[107.98174307135305,13.384643002780107],[107.98175070057661,13.385234280305061],[107.98121664312133,13.386127873572358],[107.98078939743237,13.3870748727336],[107.98037741060307,13.388762875369585],[107.98031637494809,13.390323086545093],[107.98040029811263,13.3906807151962],[107.98052999820185,13.39087717138151],[107.98191854694116,13.392219945663802],[107.98311636222098,13.392669125317788],[107.98381826730426,13.392729207282178],[107.98448202457284,13.392559454035403],[107.986374114768,13.391820355871513],[107.98716757101994,13.391792698939604],[107.98789999340374,13.391900464843197],[107.98869345032531,13.392088337126488],[107.98908254993212,13.392082615473832],[107.98944876040547,13.391924305622737],[107.9901125172153,13.391397877262758],[107.99131796188334,13.390132351161077],[107.99214956528618,13.389458104116631],[107.99324056923035,13.388960285883925],[107.99344656259788,13.388921184926557],[107.99400350833955,13.388998433474203],[107.99456045486924,13.389279766766297],[107.99617788700594,13.390395566083932],[107.99671957366591,13.39065305814551],[107.99703237818925,13.390696926921182],[107.99745962437639,13.390663547737377],[107.99792501765613,13.390471858699902],[107.9986040339825,13.38974897407579],[107.99907705674873,13.389349384622571],[107.99945089651844,13.389118595885568],[107.99972555480662,13.388828678868537],[107.99979421970991,13.388680858511796],[107.99987814213348,13.3880943491683],[107.99981710754955,13.386856479677967],[107.99993154857303,13.386675282164145],[108.00069448770597,13.38622037839209],[108.0022051074386,13.385547084589732],[108.00426504460036,13.384434146062336],[108.00543234156729,13.38393632848274],[108.00597402817888,13.383551998106219],[108.00679800324549,13.382725162582403],[108.0078050832981,13.381212635319374],[108.008117888241,13.380911273451124],[108.00831625206037,13.380856914575022],[108.0088350511162,13.380889339557779],[108.00939962619147,13.380988521411348],[108.0106355882541,13.381513996299306],[108.01215383877806,13.382325572356875],[108.01262686033013,13.382653636131682],[108.01281759551966,13.383037013646906],[108.01325247117508,13.384335918528068],[108.01368734679991,13.385218067335185],[108.01408407596884,13.385711115750068],[108.01484701469492,13.386142176859751],[108.01635000563252,13.386580867117384],[108.01709005714382,13.386640949195131],[108.01763937395202,13.386565608128974],[108.01837942458123,13.386170786950334],[108.01871511767692,13.386084003249511],[108.01924154601926,13.386154574683],[108.01989767371408,13.386335773048875],[108.0203783262672,13.386549395620536],[108.0213167422056,13.38679067570499],[108.02186605797847,13.387026233129621],[108.02259085090367,13.38763372365416],[108.02300283773305,13.388160151875823],[108.02345297166683,13.38886682513819],[108.02393362405145,13.389968317591599],[108.02444479358374,13.390817088584916],[108.02473471048148,13.391030712168336],[108.02515432704719,13.39126626875555],[108.02565023858165,13.391403597739755],[108.02594778384706,13.391825121797831],[108.02636740167243,13.39301912256579],[108.02647421270397,13.394142551139659],[108.02656576533178,13.394504946883739],[108.02668783568568,13.394806308271159],[108.02697775219107,13.395096224596053],[108.02726004047014,13.395260256706363],[108.02791616859746,13.395337504682798],[108.03003714032572,13.394745273110413],[108.03025076338726,13.3947347829913],[108.03039572102024,13.394806307529185],[108.03057119714528,13.39512864975155],[108.0306856387868,13.39596692945525],[108.03087637334752,13.396230144112966],[108.03183767774425,13.396417064049912],[108.03237173442405,13.396263522855767],[108.03302023399881,13.395644587428878],[108.03322622782878,13.395605486585868],[108.03336355651155,13.395666521889758],[108.03363821481531,13.395956438897883],[108.03392813134818,13.396525782381149],[108.03421041865491,13.39759961936707],[108.03452322500202,13.398241442588766],[108.03530905194992,13.399281901352403],[108.03557608039888,13.39981309808212],[108.03572103995968,13.400459689815358],[108.03575918705059,13.401095790070173],[108.03566000427244,13.402284069087452],[108.03567526317842,13.402503414165865],[108.03575155696863,13.40267889001242],[108.03594229228219,13.402816218605787],[108.03610250861516,13.402848643710998],[108.03717825421238,13.40244905393686],[108.03759024104109,13.402393740394903],[108.03820059286836,13.402388972587447],[108.03848287955219,13.402284068585985],[108.03873465009026,13.402032298344759],[108.03909323200135,13.40137521696982],[108.03959677205985,13.400744837825728],[108.04028341772792,13.40026800037588],[108.04057333471428,13.399978083971874],[108.04081747503892,13.399435442327105],[108.04092428689124,13.399287623860284],[108.04108450350394,13.399271410151755],[108.04140493915469,13.399385851227295],[108.04192373737892,13.399780672835014],[108.04244253592665,13.40035001616384],[108.04279348779316,13.400624674165382],[108.04299185259215,13.400662821434555],[108.04380056786569,13.400443475991093],[108.0442659614524,13.40039388532961],[108.04473135535903,13.400536936387047],[108.0453493348746,13.400936526131176],[108.04566214081792,13.40130941221204],[108.04579947019025,13.401714724586311],[108.04592154017855,13.403511446380751],[108.04618856907022,13.404169482692259],[108.04720327867066,13.404941958321476],[108.04735586600384,13.405429285323608],[108.04756948970163,13.406826418164131],[108.0476991895941,13.40708963241323],[108.04818747011642,13.407576960956447],[108.04982016135206,13.40862314194072],[108.05049917784005,13.409121912241138],[108.05121634089066,13.410491389338617],[108.05155966382223,13.410992068492135],[108.05241415597523,13.411732119853312],[108.05344412379922,13.412330073571534],[108.0540926228789,13.41242925526894],[108.05491659665881,13.412451189467678],[108.0554430250801,13.41235963712066],[108.05697653394625,13.411099833656893],[108.05713675041217,13.410809916073909],[108.05713675093142,13.410656374230532],[108.05700705075292,13.41038743794552],[108.05677816867495,13.410108012499679],[108.05652639873571,13.409971636406276],[108.05616781787516,13.410015505061002],[108.05591604778076,13.409971635932987],[108.05571768410144,13.409850519953045],[108.05539724864427,13.409505289564684],[108.05530569537235,13.409231585194428],[108.05526754865915,13.408694665894668],[108.05536673158424,13.408442895905411],[108.05587027135077,13.408009928232296],[108.05735037375185,13.407478731825792],[108.05770132599756,13.407483500395823],[108.05799124269902,13.40761033899198],[108.05878469967618,13.408299844666265],[108.05942556839497,13.408491534338891],[108.06037161377054,13.408557337101847],[108.06175253478405,13.408387583155426],[108.06269094964024,13.408710879207979],[108.0633394485606,13.40913812520381],[108.0637590649407,13.40934125820401],[108.06404898222947,13.409325045167538],[108.06430075270613,13.409177226188802],[108.06444571106918,13.40896360177459],[108.06446096936315,13.408524911621875],[108.06416342293811,13.407451074794668],[108.0641100173978,13.40686456521633],[108.06424734697886,13.40648691015599],[108.06444571077786,13.406382960200876],[108.06472036906403,13.406382959538774],[108.06526205560661,13.406754893140587],[108.06584951930697,13.407341401880457],[108.06615469507669,13.407840173613076],[108.06640646459726,13.408513467768493],[108.06658194117324,13.408820550490042],[108.0669710407776,13.409160058794404],[108.06776449766693,13.409543436160105],[108.0684435138355,13.40969220937119],[108.06882498302478,13.409708421667554],[108.06914541821709,13.409566324408528],[108.06942007552514,13.409335534654575],[108.06976494778905,13.408252929206395],[108.06982443366078,13.408066195046757],[108.07042715619039,13.405889909452844],[108.07058737330136,13.404776971041636],[108.0705950022973,13.4045414140331],[108.07052633765552,13.404323022412273],[108.07025167965634,13.403818528986958],[108.07016775696364,13.403539102774602],[108.0702516800579,13.403227250837924],[108.07047293288365,13.402898233295494],[108.07067892586416,13.402772348160248],[108.07088491945007,13.402706544569437],[108.07178518874088,13.402640740879537],[108.0718996288488,13.402569215477374],[108.07226583978466,13.401276032839574],[108.07272360323316,13.39996663783575],[108.07297537361801,13.39961663977966],[108.0733873603724,13.399468819853679],[108.07363150176765,13.399539392291617],[108.0739290473598,13.399813095945701],[108.0745699176488,13.400991838478797],[108.07524893381415,13.401977936690137],[108.07598898471991,13.402903955320172],[108.07666037157674,13.403566758852966],[108.07704947114466,13.403802315774483],[108.07729361108676,13.403856675837636],[108.07819387995222,13.403911989020235],[108.07920095945893,13.404459397779286],[108.07940695421425,13.404492776273887],[108.079658724254,13.404383104105934],[108.07982656968241,13.404245775272383],[108.08038351549902,13.403435151115627],[108.08049032779306,13.40316144691949],[108.08057425129915,13.402690331547463],[108.08057425113148,13.402525346175292],[108.08046743938178,13.402076165826665],[108.08027670516154,13.401681344214467],[108.07978842272222,13.400969902448736],[108.07968924092361,13.400662819927103],[108.07971975844694,13.400317589576575],[108.07982656990433,13.399978081934325],[108.07996389896728,13.399862686415586],[108.08024618633883,13.399791161862527],[108.08065817396603,13.399862686714735],[108.08097860879654,13.400060097805614],[108.08133718937805,13.400383394231033],[108.08193228238602,13.40176431358438],[108.08261892913734,13.402760903967959],[108.08306143402615,13.403205316038736],[108.08364889713587,13.403656404090206],[108.08390066685865,13.404201905948048],[108.08405325514123,13.404387872205596],[108.08448813007786,13.404662530236312],[108.08699820117617,13.406027237633568],[108.08825705159154,13.406870286172051],[108.08852408042793,13.40711156556144],[108.08978293034164,13.408875862948594],[108.08994314811844,13.408930222897427],[108.09018728825887,13.408897797671944],[108.09062216391276,13.408628861923278],[108.09159872620681,13.408475319292062],[108.09184286707168,13.408355156417732],[108.0927431354365,13.407699982338157],[108.09371969842707,13.407481592001133],[108.09480307221219,13.407658974195076],[108.09559652918823,13.407850663933447],[108.09626028610042,13.408075730919515],[108.09677145657102,13.408409516838997],[108.09820578230014,13.409779946700295],[108.09843466436493,13.409900109430072],[108.1023638022672,13.410502830963187],[108.10363791153522,13.410760323716973],[108.10408804537653,13.41094628965536],[108.10457632661571,13.411343018459451],[108.104812837715,13.411392609070795],[108.10506460804942,13.411403099068812],[108.10530112019913,13.411348739820907],[108.10549185446851,13.411237160190868],[108.10605642963594,13.410598198082809],[108.10632345873455,13.409983078121819],[108.10644552867728,13.409791390225397],[108.10666678108129,13.409668366529921],[108.10688040375035,13.409673134124333],[108.1069948446302,13.409766594443827],[108.10703299134806,13.410553375873855],[108.10713980402795,13.410769859919673],[108.107506015159,13.41115323728066],[108.10810873670555,13.411458411713603],[108.10889456512653,13.412436882010915],[108.10897848753909,13.41285459237692],[108.10899374719384,13.413346688319491],[108.10904715204327,13.413661399802265],[108.10958883918906,13.41452638361677],[108.11048910823824,13.415746132456185],[108.11106894201578,13.416263024465486],[108.11137411842512,13.41643945329144],[108.11176321695179,13.416580597252445],[108.11221335084626,13.416607299885046],[108.11296866148652,13.416479508171888],[108.1138384119543,13.41614953640475],[108.11435721096319,13.415702262905457],[108.11515066849515,13.41530362721142],[108.11550162019637,13.414812485190346],[108.11583731430979,13.414433875853165],[108.1165315882838,13.413937011671155],[108.11814901980803,13.413426795546307],[108.11859152507982,13.413375297314262],[108.11937735350274,13.41300145756084],[108.12022421481028,13.412235656993898],[108.12078116126679,13.411886612032859],[108.1218035003363,13.411748328272415],[108.12233755839975,13.411606231386092],[108.12274191630559,13.411408820475973],[108.1231462737207,13.410912910432426],[108.12366507243212,13.410169997764138],[108.12395498884887,13.409855285455768],[108.12429831187218,13.409615913727855],[108.12553427439558,13.409068504707058],[108.12577078482782,13.409043708655881],[108.1262056613447,13.409098068267033],[108.12654898349169,13.409181991358626],[108.12712881674925,13.40941278027899],[108.12751028740685,13.409648338115497],[108.12834952083594,13.410813728075532],[108.12891409614124,13.411084571511049],[108.12973044169443,13.411317268096466],[108.13017294647359,13.41128102842794],[108.13066885740704,13.411155143512383],[108.13129446685156,13.410715499162242],[108.13166830731672,13.410194793471259],[108.13195822411495,13.409471907764287],[108.13218710622768,13.409058967082528],[108.13236258239063,13.408924498950858],[108.13267538694161,13.40883771422704],[108.1341783781726,13.409093299063464],[108.13474295338317,13.409093298933039],[108.13541434019254,13.40930787609273],[108.13584158635672,13.409161963745667],[108.13629172014456,13.40887013872683],[108.13649771429762,13.408385672483748],[108.13684866607912,13.40715543269354],[108.13717673033437,13.407005706064847],[108.13748190583932,13.406998076589108],[108.13832113959448,13.40710298094428],[108.13917563121355,13.40703050145175],[108.13962576637022,13.40674630699383],[108.13999960609426,13.406592764284014],[108.14042685236194,13.406608977170752],[108.14070914001763,13.406819739366957],[108.14084646936338,13.407387175875652],[108.14092276378906,13.407917418857542],[108.14090750441633,13.408315100935907],[108.1413805268318,13.408679404777029],[108.14167044382509,13.408687987289403],[108.14316580509664,13.407917418115199],[108.14425680870308,13.40755311397843],[108.14445517209637,13.407277502229151],[108.14436362059757,13.406953253025344],[108.14418051421274,13.406524100445594],[108.14437887958937,13.40615884256132],[108.1446535375088,13.40585080662511],[108.14478323602981,13.405454077613692],[108.14463064902316,13.40508118983314],[108.14466879523596,13.404468931242905],[108.14503500622367,13.404092229943501],[108.14551565870566,13.403897681461213],[108.14603445763503,13.40389005077736],[108.14646933345436,13.403971112722049],[108.1468431732871,13.404442228984284],[108.14723227226044,13.404675878906994],[108.14755270749664,13.404627240876735],[108.14932272640738,13.403063215376905],[108.14945242612526,13.402755179290661],[108.14939901993814,13.402017987974185],[108.14962790204436,13.401636519334057],[108.1501085543137,13.401198781998183],[108.15074942313846,13.400744832850284],[108.15094015828925,13.40050164620139],[108.1509325285748,13.399683393380313],[108.15108511662207,13.399546065102516],[108.15131399799321,13.399497426443872],[108.15149710438565,13.399586118618922],[108.15182516841209,13.400712408102676],[108.15203879148545,13.400971808138177],[108.15241263172776,13.400980391065538],[108.15292380066167,13.40041295514646],[108.15381644054327,13.399935164049676],[108.1543047208539,13.399773038601811],[108.15517447234843,13.399634755165142],[108.15558645910949,13.39950505618428],[108.15604422292574,13.399732030399068],[108.15656302191283,13.400308049113928],[108.15681479209603,13.400923169884704],[108.15715048577647,13.401401914355286],[108.15774557804154,13.40150681820536],[108.15871451097352,13.401337064427278],[108.15951559720551,13.401061452229808],[108.1598894383052,13.40109387714733],[108.16013357821699,13.401214994352978],[108.16033194283322,13.401450551061158],[108.16062948984167,13.401450551330488],[108.16110251153965,13.401239789280528],[108.16182730408464,13.400775350325889],[108.16224692080831,13.400600826905894],[108.16243765589729,13.400391973311372],[108.16245291422761,13.400008596663337],[108.16217825657974,13.399364865093329],[108.1621935154741,13.399033940345738],[108.16249106145067,13.398754514557623],[108.1631319300902,13.398005880032754],[108.16342947757511,13.397099889073175],[108.16522238435329,13.396055615824961],[108.16539785989526,13.395724691426071],[108.1652376431241,13.395445264015821],[108.16474936223416,13.39504472135717],[108.16463492100902,13.394783413753421],[108.16465018043021,13.394365704789701],[108.16510031447734,13.394121563930055],[108.16581747729916,13.393947994786096],[108.16689322229809,13.394104397864474],[108.1672060272031,13.393895543161415],[108.16725943290028,13.393651403247523],[108.16705343894701,13.393268025649048],[108.16700003301511,13.393076336688157],[108.16713736253328,13.393024839187307],[108.16909048718362,13.393111622807007],[108.1695406219505,13.39290276776685],[108.16996023792704,13.392240917596988],[108.16996023810837,13.391613400941706],[108.17013571413776,13.391474163290349],[108.1703798549986,13.39152661534514],[108.17081473168977,13.392188465767992],[108.1711122776861,13.392466938965061],[108.17156241089992,13.392466938146963],[108.1742250702807,13.391491329119189],[108.17450735854639,13.39114323883513],[108.17445395239982,13.388025677410898],[108.17468283410699,13.387781536457151],[108.17536184997691,13.387625134244619],[108.17628500593175,13.38764229977164],[108.1769258757723,13.387851154226874],[108.17722342245699,13.387747203777543],[108.17736075156931,13.387467777385845],[108.17719290407936,13.386893665025543],[108.17717001579862,13.38605729313191],[108.17736075092763,13.385064518369333],[108.17738363947659,13.384472285772],[108.17769644390225,13.384088908863454],[108.17779562663982,13.383705532380262],[108.17794058480844,13.383627330999353],[108.17813894892332,13.383661662895578],[108.17884085404808,13.383963023939794],[108.17913840001435,13.384048854708288],[108.17946646404438,13.384090817294236],[108.17992422832847,13.384052669740612],[108.18023703347193,13.383935368092988],[108.1804506556495,13.383797084966869],[108.1806413913694,13.383608256853565],[108.18123648283836,13.38270989597873],[108.18178579974901,13.38223687324944],[108.18244192837238,13.381759082943223],[108.18271658611505,13.381596004829255],[108.18296835645377,13.38150254478858],[108.18363974300324,13.381446277513895],[108.18405935947268,13.381355678181603],[108.18444082927891,13.381059085644868],[108.18457815796062,13.381009494265992],[108.18526480399682,13.38111344463078],[108.1854860559807,13.381109630463053],[108.18589041392168,13.38101807790792],[108.1860658903475,13.381039058583296],[108.18688223541763,13.381354724591352],[108.18746206946282,13.381533061659683],[108.18848440841953,13.381399547215821],[108.18924734770911,13.381231700648817],[108.18985006987806,13.381030475209817],[108.19002554585099,13.380923662886953],[108.19040701640921,13.380576526409495],[108.1908495212727,13.380364810514022],[108.19135306075242,13.380331431226871],[108.19185660129126,13.380394373995784],[108.19235251118319,13.380368624735349],[108.19265005804654,13.380307590326105],[108.1938402429772,13.379835521375382],[108.1948244350373,13.379309092910265],[108.1954653041337,13.379028711749498],[108.19611380341868,13.378876123612507],[108.19718954683395,13.378797922773805],[108.19742605935015,13.378749285798946],[108.19773123390249,13.378625307865565],[108.19886038558337,13.377812778061784],[108.2002489355707,13.37702313429883],[108.20048544609605,13.376693163230726],[108.20079062212737,13.375955019501717],[108.20133993829437,13.374957476556823],[108.20150015494087,13.374582682199835],[108.2016832609429,13.374353800630443],[108.20201132480952,13.37400857055097],[108.20253012443675,13.373651896799824],[108.20291159341832,13.373440180113803],[108.2032854339251,13.373318110391251],[108.20367453260585,13.373288546408892],[108.2043535491808,13.373398218661844],[108.20557425187654,13.373926554711549],[108.20697806081944,13.374816332453708],[108.20915243860797,13.376498612940232],[108.21006033638554,13.374040995535646],[108.21206686681124,13.370376024083908],[108.21313498231552,13.3682026005327],[108.22018454283695,13.370379838260925],[108.22245810275749,13.371126565279392],[108.2231523776243,13.370852860222227],[108.22443411494118,13.370546731008195],[108.22483847315902,13.370493325492811],[108.22687552269417,13.370509537876634],[108.22785971299544,13.370462808133578],[108.22866080014677,13.370593460864125],[108.22945425773118,13.370807083703296],[108.23017904916505,13.371109399198438],[108.23059103760744,13.371331605032676],[108.23176596311478,13.371549042650045],[108.23323080731063,13.371680650110596],[108.23402426443809,13.371836098566146],[108.23484061004476,13.371818933330175],[108.23515341581175,13.371765526748417],[108.23585531953174,13.371791275520442],[108.2359629654483,13.37180827329622],[108.23614523659325,13.371837052178972],[108.23687002875545,13.372724923169075],[108.2375795624751,13.373390588145663],[108.2379991794897,13.373394401942422],[108.23814413775526,13.373334320957225],[108.23854849595705,13.373010072176523],[108.23901388904666,13.372377785939713],[108.2396318700049,13.370934875285403],[108.24031088596755,13.370243463091665],[108.24102804878318,13.369634064568952],[108.24162314161765,13.368879707479593],[108.2422640101798,13.3682903371792],[108.24264548084822,13.368130119728203],[108.2430956144636,13.368145378302478],[108.24342367862451,13.368313225112791],[108.24382040753855,13.368750008697434],[108.2444383889591,13.369578751122683],[108.24524710456305,13.370533379442167],[108.24601767294912,13.37107601971106],[108.24671194805148,13.371104628987743],[108.24750540490258,13.371051223980535],[108.24810049765982,13.37087288701756],[108.24898550804838,13.370224388235535],[108.24964163541715,13.369923981381579],[108.2500688819281,13.369917304777148],[108.25124380869177,13.370083244148548],[108.2518923067301,13.370042236400641],[108.2525255470726,13.369938285812903],[108.2532503384936,13.369691284508253],[108.25371573283134,13.36960068539625],[108.25441763668171,13.369687469316665],[108.25524924144219,13.369856270204258],[108.25598166335256,13.369872481962254],[108.25798819269598,13.369415671817373],[108.25869009831099,13.369423301913873],[108.26020834679748,13.369877250695703],[108.2616808198342,13.370483786379395],[108.26235983744604,13.370872886943987],[108.26326010520523,13.371632964477346],[108.26409170899333,13.372255713499992],[108.27015707848388,13.36834660224962],[108.27726004400027,13.363967329608705],[108.27952597380809,13.362622648740615],[108.28131888249102,13.36123982089083],[108.28211996841227,13.360399633501398],[108.2829592017155,13.35922756842784],[108.28433249310453,13.357803732193805],[108.28681967495909,13.355062871778154],[108.28723929201807,13.354403883212013],[108.28744528624463,13.353003889001656],[108.28810904292575,13.350797086959892],[108.28852865953277,13.350432782842791],[108.28887198251142,13.350436597845562],[108.28988669197804,13.350926785707662],[108.29191611111835,13.351723103901648],[108.29323599557006,13.351958661359367],[108.29553244403074,13.351910023119403],[108.29669211179106,13.35172501161631],[108.29960654129937,13.350538640141805],[108.30332205594108,13.34917488629592],[108.31150839635367,13.34638443457701],[108.31330130444925,13.345865635556232],[108.3135683327867,13.345868496645894],[108.31497214128002,13.347046283390538],[108.31557486335936,13.347126391998282],[108.316139438965,13.346873668363866],[108.31827566926131,13.344791796990553],[108.31892416823462,13.344577221530386],[108.31951926053918,13.344842341785137],[108.32068655808406,13.345555691360742],[108.32109854552559,13.345449833107688],[108.3224336892162,13.344577221170379],[108.32450125537365,13.343103793601543],[108.32544730055791,13.342781451926376],[108.32733939066068,13.342874911805074],[108.32843039298966,13.342850116005446],[108.33030722462783,13.340765383402362],[108.33091757589513,13.339995768763847],[108.33159659187353,13.339781192672097],[108.33290121803708,13.339629557755487],[108.33441946829127,13.339127925244389],[108.33608267642974,13.338296320733999],[108.33707449720423,13.337863352239921],[108.33774588417276,13.33805504066473],[108.33864615264606,13.338545229868078],[108.33943960939425,13.338664438619483],[108.34065268326694,13.338122752046218],[108.34403250516054,13.338066485225786],[108.34523032079511,13.338743593728191],[108.34616873520518,13.33915939582975],[108.34662649922889,13.339274789401667],[108.34700033985567,13.339167978466495],[108.34716055713564,13.338689234034614],[108.34668753421991,13.336875345739747],[108.34606192428544,13.335170175935936],[108.34571097262281,13.332057382404276],[108.34592459481429,13.331864740194872],[108.34627554697408,13.331818964393063],[108.34805319598678,13.331798937698991],[108.34911368200771,13.331673052492402],[108.3500978744508,13.331369783606062],[108.35160849435852,13.33044757987842],[108.35224936345256,13.330141450983385],[108.35287497277729,13.3297370929369],[108.35332510779021,13.329174424819778],[108.35371420678116,13.328475382100322],[108.3538744242163,13.327550316910903],[108.35398123493165,13.326358225219687],[108.35386679469443,13.325926210211579],[108.35301230199396,13.324499513058768],[108.3527986790972,13.324066545031897],[108.35272238518043,13.323674584642918],[108.35284445619884,13.32328453214649],[108.35410330588374,13.321575548093936],[108.35472891582745,13.32030048490646],[108.35527060248305,13.31801643444695],[108.35558340789643,13.315975571261092],[108.35576651365321,13.315412902861206],[108.3558962126983,13.31525459320517],[108.35617850105436,13.315179253350786],[108.35758230919478,13.315164948065698],[108.36010000939918,13.315249824920283],[108.36108420207509,13.315181161450958],[108.36171744176784,13.3150609980163],[108.3620760224475,13.314849282041505],[108.36290762664458,13.31386032220921],[108.36309836207113,13.313235665088277],[108.363517979051,13.311420823012398],[108.3637087121608,13.310844802436607],[108.36393759500712,13.310534858740922],[108.36417410699073,13.310400391112495],[108.3653185155272,13.310411834883897],[108.36647818334944,13.310345077479154],[108.36687491144144,13.310271644806125],[108.36725638137689,13.310001754363025],[108.36770651553769,13.309517288719293],[108.36811087368328,13.308659935601609],[108.36824820235915,13.308006668629005],[108.3684999722924,13.307461166469405],[108.37017081028624,13.305873297967722],[108.37106344977626,13.304728889586343],[108.37162802405442,13.303903006777128],[108.37213156449076,13.302988432964948],[108.37245962815543,13.302522086629729],[108.37248251641395,13.302365684067043],[108.37240622210862,13.302189254265729],[108.3721239353116,13.301892662340157],[108.37184164701176,13.301683807177028],[108.37146017769123,13.301621817710235],[108.37094137899155,13.301733398016578],[108.3705522789933,13.301964186675605],[108.37005636909606,13.302154922553047],[108.36945364726215,13.302109146134457],[108.36919424684342,13.301988982978141],[108.36901877155724,13.301733397809897],[108.36896536513977,13.301360510897512],[108.36898825458564,13.300774002046094],[108.3693010594787,13.299955748982741],[108.37032339807274,13.298293495232583],[108.37049124375567,13.297903442014002],[108.37047598487361,13.297590636735418],[108.37025473352703,13.297235869908496],[108.36878988891502,13.295792007353073],[108.36864493074391,13.29552688557957],[108.36859152536262,13.295252227203495],[108.36879751915248,13.29468669814302],[108.36972830451012,13.293150329046544],[108.37072775492896,13.291674040369921],[108.37314627341453,13.288519285982153],[108.37326071347428,13.288216971599569],[108.37326834340388,13.28796234058204],[108.37291739140821,13.287059210631977],[108.37284109779962,13.28645171999947],[108.37296316715816,13.283507727150527],[108.3729173914475,13.282588385263326],[108.37304709037114,13.281953238139579],[108.37373373631232,13.279964827337913],[108.37379477169937,13.279554747255599],[108.37372610761281,13.279328725592995],[108.3726808788496,13.278319738753968],[108.37260458607743,13.278065108128612],[108.3726808796579,13.277947806379263],[108.37345144833135,13.277232550175068],[108.37365744225794,13.276901625280079],[108.37387869421102,13.276317022902337],[108.37399313472487,13.275761030980663],[108.37396261809722,13.275486371645993],[108.3737642535347,13.274956130132445],[108.37348959553769,13.274385831481244],[108.37315390169518,13.272562406584338],[108.37237570410136,13.269452475006156],[108.37208578655584,13.267757795890198],[108.37223074436788,13.26736774218741],[108.37257406773534,13.267038724156958],[108.37303183164174,13.26688709052915],[108.3743135697812,13.266919515343611],[108.37588522455714,13.26715125804851],[108.37641165288093,13.26709785197616],[108.37693045156497,13.266888044024748],[108.37867758357626,13.265330693959482],[108.38049337838109,13.263490101849623],[108.38338491938002,13.259968182629859],[108.38379690700388,13.259591481698063],[108.38504812760682,13.258762738644187],[108.38719961686536,13.25743426944337],[108.38858053783792,13.256959340154431],[108.39065573235753,13.256736180528497],[108.39179251287433,13.25657214839436],[108.39376089668845,13.255926510463633],[108.39553091534223,13.25564136215846],[108.39659140181608,13.255523105941005],[108.39733145260057,13.255517383918383],[108.39852926759315,13.255672832659599],[108.39881155542581,13.255753895114674],[108.3992159137247,13.25594081489881],[108.39941427769959,13.256085773580994],[108.39953634775158,13.256308933768036],[108.39968893588527,13.257547756574208],[108.39987204202218,13.257641216970622],[108.40019247612743,13.257670780808844],[108.4009554156538,13.25758685690351],[108.40135214436656,13.257591625418454],[108.40173361408664,13.25775184309969],[108.40198538418166,13.25800170620281],[108.4023515949089,13.25855292928325],[108.40267202873764,13.25890769560808],[108.40306875798052,13.25926055617706],[108.4034425979432,13.259355922705534],[108.40391562108856,13.259633441670847],[108.4049227010107,13.26033439256889],[108.40520498777406,13.260414501918003],[108.40524678338836,13.260407656094568],[108.40542624108826,13.260378261823739],[108.40593741029042,13.259862323360066],[108.40686819640574,13.258570094483614],[108.40711233730838,13.258416553713477],[108.40760824834379,13.258369823161887],[108.40782949985106,13.258254428483193],[108.40795157000667,13.258125682527902],[108.40825674604497,13.25741328885403],[108.40837118659407,13.256723781675175],[108.40860006933798,13.25634898783556],[108.40888235680349,13.25615634534907],[108.40901205608895,13.256119151542755],[108.40940878463186,13.256115337386559],[108.4094621899873,13.255196948832953],[108.410125948043,13.253012081297852],[108.41022512990546,13.252071758454587],[108.4100191361519,13.250471491805305],[108.41022512997229,13.249074358657555],[108.4104311233771,13.2483381228361],[108.41085836980793,13.247702976201042],[108.4124605428999,13.24716987214491],[108.41355154588318,13.246585268537515],[108.41490194834806,13.245594401648749],[108.41624472184652,13.244960207640215],[108.41723654373529,13.243664164275085],[108.41790030059519,13.243384737424611],[108.41918966905516,13.243257899458115],[108.4197008373262,13.24269904526275],[108.42089102249952,13.241860766269054],[108.42147848660338,13.240692515539502],[108.42153189215908,13.24023475119323],[108.42134878631614,13.24008311690895],[108.42038748213794,13.239701647357782],[108.41832754607883,13.239117044940514],[108.41771719415813,13.238406557364199],[108.4173891300506,13.23457087930275],[108.41756460603922,13.233250040289533],[108.41896078655392,13.23170031976296],[108.41998312491043,13.230811495048545],[108.42008230657777,13.228270906744518],[108.4205400700627,13.22799147972365],[108.42183706699053,13.227534669699955],[108.42214224322774,13.227178949733819],[108.42216513099642,13.226848977528014],[108.42203543222979,13.226645845522857],[108.42081472874538,13.22618808202514],[108.4194719547192,13.22557868348696],[108.41767141774784,13.224410432936207],[108.4172594308814,13.22357215306725],[108.4163744206788,13.22227610941152],[108.41616842620166,13.221006768534654],[108.41673300121907,13.220173257362651],[108.41709921288769,13.219698327236582],[108.41723654226477,13.218898195903465],[108.41744253510468,13.218339341812172],[108.41802236901508,13.21770419408097],[108.41817495779082,13.217018501991706],[108.41786978148942,13.216409105468381],[108.41746542365857,13.215722459646207],[108.41764089920588,13.214351074843027],[108.41815206964166,13.213411706630763],[108.41883871378742,13.213030236086533],[108.4197542418865,13.21237029453942],[108.42044088690086,13.211735147338421],[108.42104360948835,13.211658852599665],[108.42147848544765,13.211328881678783],[108.42157766748822,13.210871117998826],[108.42163107311978,13.210261719651482],[108.42127249147849,13.208711999211884],[108.42124960279808,13.207975763266257],[108.42214224171364,13.206578630085419],[108.42305013975908,13.204926865690778],[108.42300436349036,13.204419510567096],[108.42262289407611,13.203810112953606],[108.42244741795588,13.203378098176207],[108.42226431312073,13.20259036343683],[108.42295095730441,13.199922936031827],[108.42363760354745,13.197713271877422],[108.42513296434441,13.196697609035361],[108.42612478564257,13.19537676992557],[108.4270708306611,13.192277329036887],[108.42797872828802,13.191667930832804],[108.42917654381593,13.190321342425325],[108.43051931657051,13.187197105606343],[108.43143484452577,13.186231986105197],[108.43290731763234,13.184352294448525],[108.43406698529749,13.182951346848698],[108.43481466654589,13.182453529281934],[108.43529531720297,13.182039633970602],[108.43563101136922,13.181623832139017],[108.43645498492484,13.179586783812958],[108.43681356721235,13.179290190787043],[108.43809530487674,13.179031744649713],[108.43933126729318,13.178602591987017],[108.43997213641714,13.178538694408813],[108.44061300521693,13.178406135113994],[108.44147512695577,13.177647009531206],[108.44254324160447,13.176204100336482],[108.44342825193111,13.175515547627603],[108.44390890361517,13.17482222631645],[108.44441244365849,13.174314871756597],[108.44654867398704,13.173464193575098],[108.44767019476798,13.172544850885474],[108.44929525626294,13.17135180504275],[108.4512941580497,13.1695455461012],[108.45422384495514,13.167415036470167],[108.45478842002758,13.16687239655167],[108.45631429848751,13.165873899456049],[108.45652792180137,13.165680303295092],[108.45675680413478,13.165617360806825],[108.45790121312523,13.165771855151023],[108.45907613993838,13.165391339446318],[108.45958731033441,13.16516150416252],[108.46032736049865,13.164710416679847],[108.46207449203311,13.163393392031303],[108.46313497823486,13.162920369318883],[108.46377584686655,13.16239108000548],[108.4638750284487,13.16218222494935],[108.4638979171338,13.161934270018131],[108.46385977024892,13.161737812929449],[108.46345541312554,13.161314382155279],[108.4628755789458,13.160537137335144],[108.46254751432406,13.159905805089949],[108.46226522630427,13.159171474539932],[108.46220419204566,13.158438100326627],[108.4619066441645,13.157597913315545],[108.46152517513353,13.157149685492339],[108.46113607680577,13.15632189697058],[108.46106741140319,13.15600718343778],[108.46080801248756,13.1555866134599],[108.46066305360542,13.155113591141317],[108.46065542407128,13.154774082614763],[108.46089193571966,13.15408266889417],[108.46132681164858,13.153132809706209],[108.4615099160649,13.152436626437963],[108.46143362270492,13.152261150486304],[108.46138021600844,13.151864422478852],[108.46157095084544,13.151054752905743],[108.46147939799174,13.15000761815818],[108.46127340494758,13.14939154413238],[108.46130392250988,13.14886893198417],[108.46181509179942,13.14828432812837],[108.46427175744874,13.147012126938343],[108.46050283601414,13.145658863388478],[108.45720693657599,13.145746601767268],[108.45603201097532,13.147589101111842],[108.45568868826852,13.147631062391687],[108.45471212478095,13.1478666195687],[108.45330068676824,13.148964299007673],[108.45176717917042,13.14998282320696],[108.45122549190279,13.149982822902869],[108.45065328783903,13.149806394151518],[108.45027944673294,13.149414433767337],[108.44916555553353,13.149414434467086],[108.44844076310234,13.149336231702891],[108.44824239848859,13.14913977516586],[108.44806692267149,13.148866070777819],[108.44767782423436,13.148669614519306],[108.44714376613064,13.148572339102296],[108.44530508184224,13.149081601519688],[108.44409200811238,13.149316205067],[108.44309255763937,13.149238004541534],[108.44238302395802,13.149003400235788],[108.44203207165855,13.148787870471716],[108.4417955609885,13.148277654798623],[108.44169637781027,13.14763678506947],[108.44152853136677,13.147244824238305],[108.44139883133356,13.147156133478061],[108.44131490848166,13.147185696934526],[108.44129201984678,13.147557630421591],[108.44119283760027,13.147891416681587],[108.4410021024672,13.14801825428759],[108.44066640972532,13.147979154725006],[108.44048330477672,13.14803828218561],[108.43994924662465,13.14874304745937],[108.4397966584374,13.148850812456063],[108.43930074862969,13.14879263813934],[108.43871328430428,13.148900403961788],[108.43832418531167,13.148783101848869],[108.4380876750601,13.148664846680598],[108.43770620440641,13.148391141665329],[108.43741628723176,13.14835204100059],[108.43698904160578,13.148430242151372],[108.43682882504896,13.148400678628631],[108.43667623627512,13.148253812580302],[108.43664571839678,13.147754087301193],[108.43689748823496,13.147508992243386],[108.43717977674365,13.147342099072295],[108.43726369936347,13.1468433286866],[108.43727895821638,13.146382703693751],[108.43710348212319,13.145931615043095],[108.43669912471638,13.145765676657975],[108.43602010867177,13.145305051668794],[108.43548605036007,13.145392789557306],[108.43479940521387,13.145657910855137],[108.43460104073115,13.145667447398809],[108.43441793542472,13.145461454760248],[108.43426534774188,13.145206822831408],[108.43366262537226,13.145089521940932],[108.43314382607768,13.144550695482943],[108.43308279175979,13.14378584860461],[108.43246481003384,13.143413915213738],[108.43235799835702,13.142982854752468],[108.43231985183169,13.142227544179901],[108.43169424109901,13.141803159798496],[108.4306642728005,13.141742124476272],[108.42965719346014,13.14156950932876],[108.42520925597972,13.142266645887464],[108.42469045717705,13.142399206219112],[108.4238741119149,13.142633810212876],[108.42259237286575,13.143158331381171],[108.42122671218607,13.143647565739121],[108.4199831206498,13.144050969927994],[108.41883871138896,13.144341840782293],[108.41827413564148,13.144579305852824],[108.41756460218778,13.144797697058827],[108.41618368175402,13.144853010690314],[108.41504690205159,13.144806280429123],[108.41292593097792,13.144577398874326],[108.41146108667985,13.144544973460064],[108.41062948269334,13.14448489297595],[108.4091264914876,13.14426173230158],[108.40818807663155,13.144200697364296],[108.40589925770078,13.144454375096982],[108.40487691908467,13.144181624716772],[108.403396816342,13.143595115087887],[108.40121480947164,13.142637625696864],[108.40090200488233,13.142582313323576],[108.40042898139798,13.142604247253757],[108.4000246232026,13.142919913392735],[108.39966604253357,13.143101111969155],[108.39888021436592,13.143287077932682],[108.39827749258134,13.143338576080074],[108.39806386959998,13.143423453418093],[108.39768239940275,13.143705740673559],[108.39676687250139,13.144227401074465],[108.39646932632986,13.144333259023597],[108.39586660374414,13.144409553589506],[108.39495870546324,13.144419089319403],[108.39389822034805,13.144282714106755],[108.39309713379808,13.14429892693952],[108.39237234162718,13.144387618481334],[108.39206716580327,13.14436568397974],[108.39170095432513,13.144264594731363],[108.39039632872718,13.143624679273827],[108.38987752974776,13.143261329624982],[108.38903829489843,13.142769233309302],[108.38808462172953,13.142284766072805],[108.38720724147929,13.141753570303782],[108.38550588653575,13.14039935263076],[108.3850938977346,13.140114204420641],[108.38355276083215,13.139240638957096],[108.38245412757361,13.13848342126074],[108.38164541241689,13.138223067402384],[108.38133260690728,13.13822020671765],[108.38101980240718,13.138285056168336],[108.38030263893914,13.138553992296801],[108.37977620966744,13.138587371477405],[108.37930318818262,13.138359443313739],[108.3781816664295,13.137956039750042],[108.3776476092084,13.138979332174069],[108.3772356219986,13.139588729481508],[108.37722036277205,13.140612023152425],[108.37739583896561,13.14118231942434],[108.37774679066054,13.141497031997998],[108.37783071469724,13.141693488605044],[108.37763235106931,13.142283813515979],[108.37708303366101,13.143129722669126],[108.376449794417,13.14397563222111],[108.37619802390454,13.144565956503596],[108.37597677203159,13.145332710474717],[108.37558004325426,13.14591349823651],[108.3753893089574,13.146119492323514],[108.37518331541804,13.146186248729258],[108.3748552514732,13.14619864733219],[108.37438222841068,13.145923035437399],[108.37361928928016,13.14472331321573],[108.37212392757445,13.143975632624313],[108.37070485990901,13.141615288433147],[108.36948415683298,13.139195816405353],[108.3688356582544,13.13752307120915],[108.36759969640367,13.136756317445245],[108.36631795735777,13.136205093772215],[108.36580678887661,13.135379212239203],[108.36580678886719,13.134455100799837],[108.36608144660546,13.133372680680456],[108.36649343346704,13.1326249998992],[108.36647817526773,13.131976502347054],[108.36712667357297,13.129477875108714],[108.36709615587527,13.128369704699207],[108.36718770793517,13.127833740108272],[108.36707326752094,13.127519028077888],[108.3668520148365,13.12721575904606],[108.36614248093488,13.126468078296915],[108.36549398321485,13.126055137352688],[108.3649828134788,13.12591780863976],[108.36457082599519,13.125976936705177],[108.3636629283995,13.126704589475192],[108.3631365000716,13.12737311549188],[108.36285421205669,13.128002540880212],[108.36276265993862,13.12867106555374],[108.36195394412704,13.129596130823979],[108.36080953492193,13.129831688056807],[108.36035940041086,13.130107300061564],[108.35994741333256,13.130854980875885],[108.35933706101166,13.131189720238167],[108.35845205207104,13.13136615055319],[108.35744497234086,13.131484406002855],[108.3572923841542,13.13160266173356],[108.35725423713066,13.131720917499814],[108.35733053095063,13.131897346892671],[108.35764333648827,13.132212059145408],[108.35776540637454,13.132448570162886],[108.35780355279768,13.132841484158677],[108.35768148299532,13.13315619764304],[108.35669729143063,13.133333580569428],[108.3564836680781,13.133550064493566],[108.35648366802423,13.133825676484703],[108.35672017927817,13.134002106296549],[108.35688039637083,13.134218590130674],[108.35685750857473,13.134553330226746],[108.35668203200656,13.134690659543054],[108.35617086343862,13.13469065922414],[108.35585805791716,13.1350053714837],[108.35526296487073,13.135320084401414],[108.3542635141342,13.136519806510751],[108.35327932258261,13.137503998451045],[108.35245534827436,13.137563126409255],[108.3512880501937,13.138270753202324],[108.35018941731673,13.138782875673238],[108.3497774305922,13.139116661890794],[108.34790822873263,13.139155762966984],[108.34759542297984,13.139294045846018],[108.34688589007871,13.139797585975277],[108.34695455388817,13.140601532918708],[108.34756490658732,13.142022508219654],[108.3477708997273,13.142211335064198],[108.34806844640369,13.142196076966881],[108.3482744391172,13.142283815180598],[108.34838888010114,13.142602342430996],[108.3486253918005,13.142920869501486],[108.34856435670558,13.143167871501197],[108.34806844613615,13.14334143887259],[108.34738943078116,13.143776315623224],[108.34703084866143,13.143820184454857],[108.34674093178701,13.143602746392556],[108.34645101473984,13.143486397976572],[108.34584066241486,13.143747705265177],[108.3456957047183,13.144081491170624],[108.34539052827998,13.144255059482234],[108.34481069448965,13.14435614923162],[108.34452077773842,13.144516366529391],[108.34440633611975,13.144675630572157],[108.3444444830441,13.144921678524486],[108.34468099551574,13.14509620066054],[108.34468099520919,13.145327943110814],[108.34415456661439,13.145980256413107],[108.3434297747826,13.146096605312676],[108.34288045790042,13.145879168005644],[108.34195730125798,13.145255464964404],[108.34152242519536,13.144647020601758],[108.34020254071022,13.143530267415658],[108.34012624600626,13.143226045450936],[108.34021779902012,13.142848390668947],[108.34012624604426,13.142747300125507],[108.33985158834894,13.14274730074729],[108.33957692982315,13.142848390745163],[108.33922597700467,13.142616647740596],[108.33867666117891,13.142036813852517],[108.33837148501843,13.142008203767196],[108.33764669277689,13.142211335667621],[108.33716604106948,13.14197863945582],[108.33577749148822,13.141935724689072],[108.33563253349493,13.142051119110869],[108.33561727452947,13.142863650066168],[108.33542653915282,13.14300860774725],[108.33498403395629,13.14289225984613],[108.33434316508078,13.142485994559118],[108.3338319962968,13.141847986493552],[108.33361837251853,13.141819375654773],[108.33335897348873,13.141935724610738],[108.33318349677742,13.142123598254267],[108.33318349736408,13.142399210162603],[108.33308431557211,13.142616647634648],[108.33271810410612,13.142834086291705],[108.33244344618679,13.14284839051467],[108.3321840464233,13.142791169498864],[108.3321077517297,13.142529863497474],[108.33244344624374,13.142008203783579],[108.33238241110882,13.14142836941807],[108.33219930531959,13.141094584087002],[108.33194753505131,13.141022104540346],[108.33142873617328,13.141167062776033],[108.33118459633401,13.141138452866006],[108.33080312563091,13.140963929506238],[108.33049795031593,13.140949624797132],[108.33033010292131,13.141022104952329],[108.33026906837493,13.14128341098006],[108.33029958573773,13.14148558956535],[108.33073446104189,13.141819375905595],[108.33100912022577,13.142138857039898],[108.3311845963696,13.142443079050977],[108.3311083024859,13.142791169977478],[108.33102437779108,13.142993349194242],[108.33068868497514,13.142979043758547],[108.33022329199352,13.142892260052982],[108.3298036753512,13.143037217730756],[108.32951375798672,13.14354457273179],[108.3296129401749,13.143892663738209],[108.3296053107571,13.144138711955225],[108.32925435947313,13.144255060090602],[108.32856008427082,13.144396204091775],[108.32828542599287,13.144356149869802],[108.32772084965909,13.144470591136052],[108.32733175066879,13.14449157226145],[108.32701894621036,13.14443721207698],[108.32667562283707,13.144536394329945],[108.32659932881295,13.144765276080884],[108.32659169968096,13.145122904685225],[108.32653829427323,13.14525069659296],[108.32616445402675,13.145885843949511],[108.32605764225302,13.14619197347476],[108.32579824354688,13.146292109729696],[108.32556173244313,13.146225352031076],[108.32514974478637,13.145862955560549],[108.32428762313957,13.145827669730073],[108.32381460052689,13.145866770033809],[108.32344839030088,13.146100420372973],[108.32303640218238,13.146071810504477],[108.32243368035186,13.14595450873214],[108.32167837047406,13.145866770267109],[108.32116720088457,13.146115679357575],[108.3203432262334,13.147066492313842],[108.31841298904389,13.147826571747256],[108.31764242017648,13.14782657163377],[108.31737539143778,13.147519488960985],[108.31716939844608,13.147519488781302],[108.31696340359014,13.147812266440566],[108.3167497812026,13.148368258831958],[108.31626150002252,13.14864577755677],[108.31620809361904,13.148938555566502],[108.31633779430268,13.149319071500202],[108.31629201696056,13.149567026462973],[108.31605550623017,13.149582286308034],[108.31542989577218,13.148982425051376],[108.31466695631036,13.148850818330967],[108.31452199843248,13.148938556112151],[108.31450673893956,13.149055858356455],[108.31472799232144,13.149347681743324],[108.31475850938872,13.149610896137325],[108.314567773741,13.149728197815628],[108.31428548691456,13.149626154606016],[108.31330892413868,13.148763080243352],[108.31322500117227,13.148499865533678],[108.31300374781706,13.148499866332072],[108.31272146123028,13.148558039880438],[108.31231710324464,13.148396869214853],[108.31205007433708,13.148239513007848],[108.31222555008802,13.147725481882711],[108.31259176058678,13.146880527167166],[108.3133547008408,13.146003147207775],[108.31428548677043,13.145190615572355],[108.31506368499217,13.144280810564823],[108.31544515509135,13.143093485482721],[108.31533071408518,13.141991991417157],[108.31494924412428,13.14133872493257],[108.31415578681433,13.140729327640795],[108.3117448971668,13.140034098638818],[108.3115770512804,13.139851946430015],[108.31149312775979,13.139306444913876],[108.31114980541973,13.137760538435096],[108.31033345954887,13.13589896653695],[108.30934926731787,13.135214228835641],[108.30811330591295,13.134765047336527],[108.3062288452167,13.13418712193528],[108.30464193125604,13.133567232494858],[108.30130788637506,13.133245845207592],[108.30061361067374,13.132679362755455],[108.29972097158283,13.132325548995327],[108.29859945102748,13.131566425326199],[108.29807302175547,13.130957027311094],[108.29692098358093,13.129892726271128],[108.29659291967963,13.129799265581388],[108.29653951337365,13.129687685454368],[108.29660054833033,13.129548449981742],[108.29659291976871,13.129163164539246],[108.29570790930268,13.129537958742763],[108.2943575070538,13.13000526001515],[108.29319783863214,13.130021472188176],[108.29184743534171,13.130270381026222],[108.29110738445424,13.130488773354205],[108.28993245743683,13.130255123176186],[108.28820821462617,13.129771610525815],[108.28668996568803,13.128944774502413],[108.28555318531724,13.127409357964561],[108.28524800934115,13.12660541091225],[108.2847673571668,13.12605990911765],[108.2837526486037,13.125537296379962],[108.2826463862883,13.124749561009436],[108.28173848796317,13.12422790116863],[108.2812425773567,13.124204059286155],[108.28102132557652,13.12439097964646],[108.28075429594762,13.124398609442297],[108.28041097271658,13.12421931850755],[108.28003713344074,13.124110599525606],[108.27950307547471,13.124164958839952],[108.27868672967797,13.123989482118642],[108.2781526716957,13.123537441182881],[108.27754232098857,13.123571773281155],[108.27706166873027,13.12396468734792],[108.27593251788244,13.124119182621195],[108.27520009710898,13.123999019614745],[108.27477284968658,13.124033351778662],[108.27430745681735,13.124443431614823],[108.27391835765657,13.124939342349531],[108.2726213612119,13.125092884074226],[108.27244588480391,13.124956508717034],[108.27237722092471,13.124631305617607],[108.27188130983042,13.12410201693308],[108.27066823610507,13.12372626836521],[108.27032491265679,13.123418231571238],[108.26979848510663,13.12338389984079],[108.26905080528206,13.123271367136775],[108.26871511072025,13.123053928481358],[108.26850911787395,13.123002430069283],[108.2682344591665,13.123142619712816],[108.26788350640977,13.123399158836037],[108.26771565990462,13.123450656548709],[108.2675172962239,13.123411556877098],[108.26731130273521,13.123232265646728],[108.26720449057125,13.122605701857372],[108.26708242119793,13.122157475244283],[108.26688405540341,13.122131726097995],[108.26652547499677,13.12249030726705],[108.26634999917916,13.12260570192447],[108.26612111652415,13.122516056188243],[108.26593801195794,13.122183223995073],[108.2656480947841,13.122105975832953],[108.2652895130007,13.12242641134812],[108.26489278490598,13.122976680993261],[108.26457997866693,13.123014827961297],[108.26448079678552,13.122809788289201],[108.26444264931247,13.122554202906677],[108.26417562088666,13.1224388091213],[108.26374074602789,13.122566600695405],[108.26323720535376,13.123117825252343],[108.26314565238891,13.123795887358723],[108.26299306429634,13.124052425838126],[108.26268788891944,13.124166867043732],[108.26221486680362,13.124077221326456],[108.26181813883221,13.124166867387043],[108.26155873900909,13.124704739255273],[108.26119252777185,13.125306508069782],[108.26079579935977,13.125511547018144],[108.26006337816628,13.126023671344802],[108.2593996198196,13.126266858071043],[108.25905629793708,13.12622871179908],[108.2584230580417,13.125946423744702],[108.25743886536466,13.126317402314346],[108.25698873192393,13.126305005373077],[108.256797996905,13.12635650386261],[108.25666066807575,13.126471898886955],[108.2563249732287,13.124492070338636],[108.25588246999129,13.12351169197997],[108.25589772753392,13.122387310669554],[108.25604268626358,13.1213516198644],[108.25634786217037,13.120498082209608],[108.25656148526586,13.119580646981886],[108.25661489017281,13.11907043127796],[108.25659963214103,13.117997547835786],[108.25457021354181,13.118204495178137],[108.25276204643157,13.11853160528964],[108.24777242206841,13.117177388693527],[108.24193593442443,13.114611050907108],[108.23857900158313,13.112987896323641],[108.23636647706333,13.112053296732705],[108.23418447055934,13.110712429907588],[108.23367330074245,13.11045589152773],[108.23143788772083,13.109622380837166],[108.22663136897181,13.10796489547292],[108.22609731125974,13.10768165337453],[108.22431966245274,13.106505772613396],[108.22232076121102,13.107650182358459],[108.22156545114304,13.107269665969126],[108.22048970587078,13.107450864449143],[108.2191698210707,13.107356451635589],[108.21885701566427,13.107445142781916],[108.21775838265283,13.107128522648766],[108.21608754615809,13.107181928505863],[108.21581288723611,13.109415433257382],[108.21483632488635,13.111084363784014],[108.21158620358696,13.114170455088578],[108.21077748733437,13.114698789946159],[108.20972463094265,13.115671538278246],[108.20870229181237,13.116163634282449],[108.20744344186244,13.116427802412145],[108.2056123868659,13.117292783970832],[108.2028200290801,13.118746184274144],[108.20192738952639,13.11933460189596],[108.20024892345062,13.120282553412954],[108.19805165752287,13.121796035098125],[108.19654866656795,13.122564696518094],[108.19581624435021,13.122756385030936],[108.19546529239045,13.123224638975271],[108.1952669284244,13.123776816781517],[108.19498464014823,13.123789214900405],[108.19413777849333,13.123164558456182],[108.1936647552029,13.122936630460263],[108.19345113267849,13.123056792749894],[108.1931383275241,13.123069191287726],[108.19290181609354,13.12299671094263],[108.192558493021,13.122732544596193],[108.1921388760081,13.122588538817924],[108.19129201330381,13.1229003905034],[108.19104024358379,13.123213195557764],[108.19081899108166,13.123393440415176],[108.19064351548852,13.12340488454119],[108.19041463288873,13.123297118857062],[108.19008656915945,13.12303295133397],[108.18968221153676,13.122900389934497],[108.18929311228666,13.122912788190684],[108.18885060707221,13.12323703744492],[108.18849202596776,13.123357200710066],[108.1881563318145,13.123357200775178],[108.18805714996036,13.123477362998502],[108.18782063920908,13.123572731407519],[108.18732472851075,13.123176956249278],[108.18731709927344,13.122792625763601],[108.18711873465665,13.122684860371855],[108.18680662294149,13.12272387437104],[108.18656941781614,13.122684860009661],[108.18619114475987,13.122799367041521],[108.18593617931234,13.122876548883633],[108.18577596069618,13.122972869601993],[108.18576833215327,13.123176956628516],[108.18556996831785,13.123237037533134],[108.18522664509085,13.12324848156462],[108.18485280381981,13.123213195830925],[108.18441792924718,13.122888946245395],[108.18441029989927,13.122732544545299],[108.1843111168309,13.122612381464592],[108.18403645938398,13.122552299164255],[108.1836549898968,13.122576141310834],[108.18353291864456,13.12293663058523],[108.18332692605674,13.122960472824557],[108.18319722628458,13.122852706910153],[108.18318196664511,13.122648620167794],[108.18301411951626,13.122528457240326],[108.18286153311713,13.122588539490488],[108.18284627440921,13.122732544720579],[108.18297597286711,13.122936630644764],[108.18295308533352,13.12308063574699],[108.18280049728227,13.123128319014139],[108.1824419156273,13.122984314692081],[108.18225881034567,13.12304439522228],[108.18206807463505,13.122960472660065],[108.18222066311031,13.122648620238706],[108.182174886858,13.122480775042797],[108.18195363473859,13.12233676968882],[108.18164845857743,13.121630096414677],[108.18145772399859,13.121358299881736],[108.18131276450498,13.121325875012177],[108.18116017818319,13.121369743607124],[108.18105336572475,13.121347809032844],[108.18090077807403,13.121054077216742],[108.18044301341149,13.121064567605252],[108.17981740378625,13.120804214435513],[108.17948933965559,13.120532417323949],[108.17913075903199,13.119999313645277],[108.17887135830686,13.119815254963244],[108.17862721873166,13.119575882596504],[108.17841359572888,13.11951007886745],[108.17826100803855,13.119532013583317],[108.17816945474638,13.119695091273593],[108.17831441273921,13.120032692900242],[108.1782457486267,13.120271110606732],[108.17767354337771,13.120575333090684],[108.1772920752343,13.120923423493926],[108.17656728138877,13.120945358777153],[108.1762392181431,13.120771789380992],[108.17473622708678,13.120717431137233],[108.17449971528015,13.120826149675231],[108.17418691062763,13.121140862301136],[108.17317220045157,13.121467018581644],[108.17244740859651,13.121478462861928],[108.1720201630896,13.121282005903796],[108.17184468714198,13.121282006262419],[108.17150136388904,13.121336364659786],[108.17115804104323,13.121543312958963],[108.17095204738594,13.121728324787231],[108.17066975998765,13.121738816267369],[108.17033406623939,13.121402169134587],[108.16989919086146,13.121445084078132],[108.16976949210358,13.12154331264819],[108.16938039160901,13.122358703795676],[108.16946431576098,13.122477913552299],[108.16947957427577,13.12265243639449],[108.1693880212587,13.122793579864421],[108.16856404714457,13.122890854356806],[108.16815968835733,13.122890853927961],[108.16795369526433,13.12314167137752],[108.167663778655,13.123902703566845],[108.16666432749362,13.124163056213954],[108.16626759882796,13.124326134193351],[108.16613789941087,13.124511147363677],[108.16629811713199,13.125423813592253],[108.16657277466751,13.125880623766694],[108.16659566293734,13.126152421394723],[108.16639729884146,13.126772309400002],[108.16629048740697,13.12772884416322],[108.16654988731575,13.128783608371815],[108.16651174006375,13.129218484393716],[108.16642781732067,13.129392052579187],[108.16651174019904,13.129852677324271],[108.16642781653913,13.130019570402027],[108.16622945161784,13.130051041475376],[108.16596242360457,13.129914666451999],[108.16587849956365,13.129763032953148],[108.16595479351999,13.129381562795258],[108.1659242770832,13.129152680541992],[108.1657488009365,13.128859902400379],[108.1655733248516,13.12865295528183],[108.16526051859958,13.128511811737948],[108.16280385360336,13.125163460882192],[108.16285725977161,13.124709511401024],[108.16359731072794,13.123010064336855],[108.16362782879469,13.12239303661075],[108.16317006480372,13.120916749180747],[108.16026326542425,13.12001266560612],[108.15208455447628,13.117283250134763],[108.14952107723843,13.116259003539508],[108.14862080906728,13.115975762787164],[108.1462709545705,13.115038301029795],[108.14560719821611,13.115010644971232],[108.14495106983114,13.11513176064934],[108.14470692877791,13.115122224007205],[108.1427080277883,13.114741707737874],[108.14251729309791,13.114602471592299],[108.14212819380128,13.113990212777273],[108.14068623852346,13.112571146277444],[108.1404573561964,13.112385178631177],[108.14012166277163,13.112274553270296],[108.13858815412776,13.110780145205917],[108.13843556600195,13.106868173252604],[108.13882466553167,13.106065178765403],[108.13886281217715,13.10543098537923],[108.13866444776141,13.104996110644024],[108.13725300981008,13.103466416459776],[108.1371767162782,13.102600480694083],[108.13695546358983,13.101351166999004],[108.13628407663536,13.100716019569559],[108.13469716307169,13.099558260035344],[108.13437672807456,13.099065209315135],[108.13398762909357,13.098210718045342]]]]}}]}