{"type":"FeatureCollection","name":"gis.vn","features":[{"type":"Feature","properties":{"ma_huyen":"651","ten_huyen":"Ea Kar","loai":"Huyện","cap":2,"stt":9,"ma_tinh":"66","ten_tinh":"Đắk Lắk"},"geometry":{"type":"MultiPolygon","coordinates":[[[[108.4841920844264,12.681568495572002],[108.48409290251482,12.681588522117186],[108.48403949648215,12.681540837997732],[108.48398609078664,12.681337706271709],[108.48391742681098,12.68124996829209],[108.48383350297452,12.681228987380988],[108.48373432072485,12.68126999521706],[108.48367328583072,12.681568495268019],[108.48355121533119,12.681887022799623],[108.48359699184124,12.682123533646202],[108.48344440401144,12.682197920216145],[108.48329944614058,12.682184568127363],[108.48311633957177,12.681791655837452],[108.48295612305625,12.681723944705581],[108.48258228286569,12.681805006437518],[108.48239917661643,12.681920401422971],[108.48239917712952,12.682015768496992],[108.48287220021206,12.682733885021655],[108.48287982916062,12.683600775890326],[108.48280353493922,12.683648458455075],[108.48262805845943,12.683628431227426],[108.48212451887244,12.683194510845333],[108.48194141399667,12.683100096465585],[108.48172016088452,12.683174482432838],[108.48155231365506,12.683506361305596],[108.48155994423165,12.683702818520366],[108.4827425003298,12.684617392456934],[108.48297138230167,12.685010305810652],[108.4829027165111,12.685572973710139],[108.48300952882542,12.686087957526349],[108.48283405321044,12.686440817709194],[108.4828264232751,12.6866239224372],[108.48233814195376,12.68673836373364],[108.48204822467025,12.686643951080734],[108.48191852532058,12.68610798580251],[108.48172779013642,12.685837141441306],[108.48158283183471,12.685837141877693],[108.48149127889975,12.685965888081421],[108.48143024391574,12.686291090801753],[108.48082752197405,12.686738363641675],[108.48076648723725,12.686840406617591],[108.48078174629896,12.686941496846094],[108.48094959170595,12.687152259125781],[108.48092670356338,12.687626234564805],[108.48102588605994,12.687748304409352],[108.48115558573362,12.687741630086244],[108.48140735631388,12.687586181000462],[108.48152942560753,12.68759953155031],[108.481826973295,12.687883726961486],[108.48197193089956,12.687883727076917],[108.48217792473316,12.68767391830475],[108.48248310117444,12.687490812471193],[108.48271198208624,12.687464109217746],[108.48296375163578,12.687525145372764],[108.4829866409938,12.68768726961404],[108.48278827587625,12.687924735097395],[108.48266620559095,12.688269964514433],[108.48261280029438,12.688677183978191],[108.48246021176747,12.68874489514332],[108.48221607209368,12.688744894900855],[108.48204822528407,12.688791624314156],[108.4819643025142,12.689056747184921],[108.48197956141354,12.689266554645766],[108.48213977795277,12.689476362849668],[108.48238391809105,12.689605109111831],[108.48246021171974,12.689814917589644],[108.48251361792933,12.690126768597768],[108.48234577094344,12.690405241681846],[108.48233814245239,12.690580718042087],[108.4824907300243,12.690770498887389],[108.48245258281364,12.691001287517825],[108.48258228347132,12.691116682604685],[108.48248310098043,12.691272131882041],[108.48188037853139,12.691516272671167],[108.4815904610019,12.691516273081955],[108.48143024406623,12.691428535269393],[108.48133106200596,12.69119107009759],[108.4814149851179,12.69065510448037],[108.48130817423336,12.69021546100066],[108.4811403268726,12.689890258178302],[108.4810258862874,12.689821592608563],[108.48076648692968,12.68989693405199],[108.48070545183779,12.689957968757012],[108.48071308076122,12.690466277285472],[108.48052234603834,12.691617361537421],[108.48020954089061,12.69172608050529],[108.47906513205314,12.691597335029028],[108.47895069097785,12.691671721783694],[108.47892017314415,12.69176041294998],[108.47898120775132,12.692072264615444],[108.47900409739202,12.692546241188552],[108.47895832046629,12.692613952458204],[108.47878284412761,12.692661634853101],[108.47838611610372,12.692632072185894],[108.47785968728648,12.692759863870888],[108.47782153975629,12.692842833781382],[108.47738666495641,12.693009727488041],[108.47669238975122,12.693695417776652],[108.47615833261924,12.694061629196183],[108.47596759861648,12.69405781529669],[108.4756929392403,12.693719260577652],[108.4756242755751,12.69345890704914],[108.47562427530299,12.693153731214293],[108.47589893275739,12.692902915266298],[108.47614307433633,12.692603461400893],[108.47612018575266,12.692449919745494],[108.47578449202678,12.69206368172385],[108.47579975119163,12.691871038894424],[108.47608966781446,12.691181533561455],[108.4760744085966,12.691070907023628],[108.47601337402644,12.69099652035362],[108.4758760446035,12.690932623721135],[108.47567768143162,12.690932624515897],[108.47550220501559,12.691019408562681],[108.47543354026844,12.69110237825593],[108.47538013422701,12.691460958852229],[108.47519702948885,12.691700331889791],[108.47470111778198,12.692020766040391],[108.47438068447582,12.692324035530568],[108.47422046582706,12.692375532901824],[108.47392292022643,12.692276351559993],[108.47359485562107,12.69201123062841],[108.47335834505424,12.691663137971142],[108.47319049786383,12.691330306239259],[108.47315235100865,12.691052787447326],[108.47319049832801,12.690840118223853],[108.47374744419497,12.690513960835808],[108.47390766089565,12.690161101452887],[108.47415943117312,12.689983718213094],[108.47473926531008,12.6899675063594],[108.47514362326838,12.690085761184035],[108.4754487992912,12.690043799164657],[108.47559375708362,12.689896934324889],[108.47569293872216,12.689301841390758],[108.4757005690873,12.689037673358207],[108.47556324010095,12.688781134834672],[108.47489948211289,12.688549391868417],[108.47377796076424,12.688375822991619],[108.47349567406327,12.688135497039562],[108.47307605659607,12.688021055715456],[108.47234363453673,12.688091628337995],[108.47162647192997,12.688261382197897],[108.47016925757165,12.68831192682103],[108.46908588411064,12.688788764460021],[108.46801013866073,12.689065330532603],[108.4672243103896,12.689364783398018],[108.4669877994,12.689513557040408],[108.46611804905177,12.690261237249208],[108.46573657932144,12.690397613713484],[108.46529407443835,12.690429084188962],[108.46468372230731,12.690255515860883],[108.46379108371713,12.689207427219182],[108.46382923092361,12.688986175707495],[108.46397418875402,12.688588492396276],[108.46394367200236,12.68841492494047],[108.46367664222916,12.687930457955439],[108.46313495577618,12.687384955585724],[108.46211261621994,12.687094085473314],[108.46094531935813,12.688790671828391],[108.46080799049722,12.689392441013664],[108.46080036076563,12.69012104769026],[108.46070117829106,12.690716140856154],[108.46010608553723,12.691466682419577],[108.459945869083,12.691801421882811],[108.45976276343708,12.692025535453098],[108.45968646984397,12.69254242649818],[108.4596483229417,12.693690650886465],[108.45993060993978,12.69372116851168],[108.45961017615099,12.694234244648882],[108.45989246321305,12.694302910192928],[108.46026630419621,12.694847457972184],[108.46024341509208,12.695130699036586],[108.45971698693889,12.695718163201963],[108.45968647022401,12.695795410270067],[108.45970172801067,12.695958489496045],[108.46002216283158,12.696381920200729],[108.4600603102161,12.69654595220838],[108.4599763873906,12.696939819274744],[108.45997638699713,12.69727455902325],[108.46006793873664,12.697369927070454],[108.46055622133822,12.697391860748848],[108.46083087893034,12.698894852330037],[108.46030445118004,12.699563376765502],[108.45895404842403,12.70055424494127],[108.46057147908184,12.705627792316102],[108.46259326984836,12.712517136762468],[108.46395893201787,12.71834217891038],[108.46324939787596,12.718134278250243],[108.46244831175554,12.718356485321905],[108.46199054833818,12.718786591916427],[108.46175403660752,12.719385499036699],[108.46154041367475,12.719703072567018],[108.46101398529659,12.719715469832595],[108.46003742279309,12.719349260098351],[108.4594499590153,12.719251985451574],[108.45862598465915,12.719604844307762],[108.45744342886866,12.719397897087628],[108.45697803602678,12.71945893202239],[108.45644397780151,12.720263833445854],[108.45603962017891,12.720641488650006],[108.45555133882354,12.720738763142691],[108.45426960120126,12.721725816555205],[108.45201892931311,12.723054284667004],[108.45110340163426,12.723200196534465],[108.44728870523976,12.723090524552607],[108.44602222482551,12.722798700641599],[108.44390125305615,12.721750611966973],[108.44203205181635,12.722759600164892],[108.44336719591803,12.732534762261439],[108.44440479312628,12.734991427800855],[108.4442674644754,12.735855456336164],[108.44459552814472,12.735883112301668],[108.4447710045391,12.735638018419497],[108.44497699878761,12.735688563192646],[108.44532795059898,12.737113352672953],[108.4461748132228,12.737817164010027],[108.44726581657737,12.737866755569188],[108.44828815543855,12.73817860599379],[108.44861621959296,12.738334055220458],[108.45012683946413,12.73971879051699],[108.45053882785375,12.740428323995516],[108.45114154987377,12.740826006037212],[108.45175190056312,12.74132763903447],[108.45259876378688,12.741276140656902],[108.45359821479656,12.7410854065736],[108.45355243762143,12.741466874867832],[108.45209522372794,12.741830225364286],[108.45185108347026,12.742106791273159],[108.45173664275747,12.74335324330738],[108.45183582542872,12.744910593889117],[108.45207996534529,12.746052141604181],[108.4524232882629,12.746519442592973],[108.45299549291576,12.746727343333632],[108.45368976839609,12.74646794310847],[108.45423908382445,12.746467943816677],[108.45510883495064,12.746848459039109],[108.45545215859042,12.747073527018157],[108.45614643297354,12.746675844684091],[108.45710010743194,12.747367257958146],[108.45687122489082,12.748094912819736],[108.45643635068737,12.74823319542543],[108.45513935360914,12.748163576241872],[108.45404834934544,12.74843060572737],[108.45320148582573,12.748475428441983],[108.45207996500395,12.748388643878632],[108.45010395249072,12.74852692676605],[108.4490663551428,12.749046679618788],[108.44868488546608,12.750067111141345],[108.44860096124503,12.751261111341012],[108.4481660859239,12.751987810565744],[108.4468690890826,12.752888079645105],[108.44501514651421,12.753771181966824],[108.44486255826808,12.753678675933614],[108.44465656390885,12.753714916499474],[108.44439716576558,12.753916140899916],[108.44447345967478,12.754441615341742],[108.44478626412032,12.754527446071965],[108.44500751766864,12.754902240282213],[108.4448701885859,12.75516068638115],[108.444420053277,12.755276079892008],[108.44417591301487,12.755714771682428],[108.44383259075028,12.755714770900006],[108.44369526111483,12.75639855495918],[108.44400043700126,12.75644909998539],[108.4439317720286,12.757441875849286],[108.44325275678342,12.75821244471352],[108.44318409180795,12.75893056037325],[108.44331379180183,12.759810802482207],[108.44297046894569,12.76056134323949],[108.44254322228055,12.761155483594163],[108.44216938247428,12.761455891004145],[108.4411623026,12.761869785521887],[108.4408571263816,12.76216637774328],[108.44062061601244,12.762249347557354],[108.44015522236543,12.762287495162509],[108.43987293458078,12.762384770109156],[108.43969745907263,12.762795802808377],[108.43942280064626,12.763015147615635],[108.43902607196866,12.763001796577433],[108.43887348347467,12.763179179784844],[108.43879718941959,12.763529179301802],[108.43853779082683,12.763972636603013],[108.43777485212689,12.764987346753601],[108.43704242985909,12.767103550066508],[108.43650837209358,12.767677662232758],[108.4359514258773,12.768006679823433],[108.43503589857369,12.76803338364431],[108.43363971936115,12.76922356796152],[108.43284626280106,12.769715664544105],[108.43227405791579,12.770767567698561],[108.43138904810203,12.771994946609025],[108.43129749634736,12.772535679188477],[108.43132038435391,12.772978184218458],[108.43085499142151,12.774697659320909],[108.43084736094066,12.77496945642327],[108.43105335498288,12.775256512478459],[108.43151874791265,12.77560269647445],[108.4317400012216,12.775904057336106],[108.43170185387137,12.776716587750327],[108.43144245440318,12.777027485604927],[108.43133564349937,12.777240155908594],[108.43133564268955,12.777735112639775],[108.4312059434879,12.777980206418407],[108.43116016710552,12.778236744725596],[108.43100757882868,12.77844846073291],[108.43053455597794,12.7788490041813],[108.43029041606282,12.779127477080017],[108.43019123355376,12.779547094384414],[108.43015308601206,12.780087827260122],[108.43034382100525,12.780360578416051],[108.4306566261289,12.780591366711207],[108.43083973260501,12.780807851126415],[108.4308168445208,12.78112065586844],[108.43075580902057,12.781277058980102],[108.43057270293811,12.781389592429392],[108.43019886321979,12.78144299767761],[108.42976398743417,12.781794904017383],[108.42821522003673,12.783471464035868],[108.4258272200856,12.786975263891707],[108.42497272864051,12.7879880654518],[108.42479725143836,12.788828252806436],[108.42533131001831,12.789373754541456],[108.42612476692588,12.78987443373197],[108.42697162996427,12.790497182201833],[108.42712421769836,12.791067479619008],[108.42709369953353,12.791586278393329],[108.42679615357471,12.792398809325277],[108.42543049161135,12.794802068540106],[108.42373676676549,12.797136663685077],[108.42314930313995,12.798769353683186],[108.42313404405924,12.798963903942921],[108.42301960357815,12.799159406863302],[108.42245502788896,12.799470305497643],[108.42217274069068,12.799603818937493],[108.42190571222719,12.799788832340207],[108.42135639588702,12.800016760522311],[108.42108173735969,12.80041825726128],[108.4210969957465,12.800852179068508],[108.42072315561767,12.801220297251435],[108.42054005037126,12.801578879706776],[108.42054004970673,12.802023290916596],[108.42076893232742,12.802295087956615],[108.42104358979348,12.802519202228414],[108.42110462623167,12.802694678530901],[108.42115040220523,12.803232550803383],[108.42137928383534,12.803839087035765],[108.4213945432426,12.804081320612823],[108.42122669604008,12.804232954287388],[108.42082996718001,12.804309248094203],[108.42062397430118,12.804581999063121],[108.42041035123223,12.80499112506077],[108.4206239739069,12.805294394162578],[108.42096729583768,12.80534017030546],[108.42113514347572,12.805491804670195],[108.42113514278715,12.8057044740483],[108.42075367360147,12.805977225181433],[108.42056293891105,12.806023001902641],[108.42033405721384,12.805931448141758],[108.42007465753147,12.805764555352349],[108.419922069585,12.805764555365924],[108.41960163500538,12.80596196678272],[108.41942615918586,12.806280493283476],[108.4193956408192,12.806508421887822],[108.41949482300441,12.806614279901677],[108.41996784617412,12.806675314631219],[108.41995258759697,12.806796431208248],[108.41981525799581,12.807023405962585],[108.41960163570869,12.807130217220916],[108.41951008259295,12.80731236965174],[108.41966266997638,12.807524084686115],[108.4198305169971,12.8082374333389],[108.41972370537478,12.808389067873614],[108.41949482359999,12.808419585480964],[108.41846485571432,12.808433890444302],[108.41823597369714,12.808312774031357],[108.4181215321179,12.808312773920726],[108.41819782590343,12.808661818761596],[108.4180757564604,12.808752418088254],[108.41764851068365,12.808767676785022],[108.41757221611678,12.808934569420451],[108.4177095456893,12.809435249158925],[108.41787739260522,12.809859633894337],[108.41812153235534,12.810133337651594],[108.41823597307405,12.810436607115502],[108.41813679129395,12.810678839554964],[108.416992382456,12.810784697630611],[108.41654224820222,12.810982108475695],[108.41611500210236,12.811073660639165],[108.41552753822015,12.81098210897001],[108.41516132773653,12.810784697962912],[108.4148103749752,12.810815215775985],[108.41461201119616,12.810936332074403],[108.41447468219711,12.810966849693404],[108.41425342906821,12.81131589511368],[108.41394825349961,12.811498045959375],[108.41342945510343,12.811907173329438],[108.41326160882308,12.81230199453865],[108.41059132054261,12.813111663067147],[108.40132923566871,12.819384933634824],[108.39981861579867,12.820172669295602],[108.39785785999165,12.82042825372953],[108.38822956561309,12.821280838609242],[108.38629169809565,12.821681382459916],[108.38584919368492,12.822718979974411],[108.38512440116114,12.825760248239577],[108.38381214566394,12.828794839166806],[108.38227100753237,12.831321123056469],[108.37940235592932,12.832984331669321],[108.3749086423963,12.834735277932525],[108.37215443088593,12.837116603437742],[108.37224598328939,12.83767927016036],[108.37221546577207,12.837834718758948],[108.37209339606179,12.837834719387143],[108.37185688447474,12.837571504815491],[108.37158222695972,12.837416055863038],[108.3713533448956,12.837559107425161],[108.37116261008362,12.837834718849477],[108.37076588090137,12.837954882338085],[108.37068195803606,12.838074091986712],[108.37119312797617,12.839414957913677],[108.37139912058596,12.839522723129022],[108.3717577029889,12.839635255844698],[108.37180347874813,12.839738253273552],[108.37608356928564,12.846351031012494],[108.38162251103806,12.853632334475042],[108.38433094604154,12.856974963219642],[108.3848650040617,12.857386950572188],[108.38675709270422,12.858371141867265],[108.38847370692527,12.858688716626316],[108.39053364415035,12.858650568715984],[108.39118214226735,12.858568553136607],[108.39215107506232,12.858568552692153],[108.39299793850614,12.858448390037378],[108.39383717109413,12.858494165915177],[108.39408131172853,12.858632449101911],[108.39445515235948,12.858728769969703],[108.39488239896077,12.85934675054892],[108.39511891049959,12.859543208339165],[108.39639301885937,12.859914187179605],[108.39870472491222,12.860194566805738],[108.40061970333463,12.859421136885784],[108.40177937108156,12.858887079623381],[108.40257282872457,12.858057382517845],[108.4028169696169,12.856858614261725],[108.40391560210115,12.857860925580503],[108.40544911063775,12.860639932110209],[108.40639515516266,12.86125409890344],[108.40853901526026,12.862755182208446],[108.40876789793613,12.86442029734527],[108.40985127175337,12.864420297922955],[108.41059132276791,12.864548090669885],[108.41292591799946,12.865083101537506],[108.41359730435101,12.865451219072217],[108.41451283193501,12.866214159377177],[108.41554280046469,12.867308977224747],[108.4160310806605,12.867735269094263],[108.41642781051313,12.867949846530387],[108.41722889632341,12.868138673711224],[108.41812153516545,12.86823022619914],[108.42005177184835,12.868545891940695],[108.42096729907182,12.868789079639505],[108.4225160668725,12.869029405572736],[108.42334767168207,12.868881586022257],[108.42388172870031,12.86895501877279],[108.42478199744623,12.868974091952548],[108.42537708893586,12.86889970467886],[108.42592640620074,12.868752839787337],[108.42649098094938,12.868740441989317],[108.42702503978133,12.868549706634562],[108.42708607393841,12.868420006885017],[108.42716999763323,12.86837136996439],[108.42733784477298,12.868371369804777],[108.42762013141594,12.868444802781156],[108.4287187648143,12.868502976698599],[108.42910786366433,12.868663193451749],[108.42968006799344,12.868702294904564],[108.43054981966527,12.869068505869853],[108.43127461191915,12.86953866710209],[108.43177815138041,12.869753243975202],[108.43201466357935,12.86984861086339],[108.43301411315645,12.870101334922227],[108.43330403083588,12.870269181858427],[108.43365498384534,12.870618226627183],[108.4339067536858,12.87078798074521],[108.43456288051843,12.871123673733731],[108.43598957743338,12.873161675808824],[108.43626423585229,12.873403908724509],[108.4364473415172,12.873637558902749],[108.43661518915766,12.87391317035888],[108.43676777648936,12.874464394740023],[108.43699665795003,12.87460172402244],[108.43726368672057,12.874835373762403],[108.4378664085335,12.876455667090795],[108.43963642884974,12.879712465126449],[108.4406740275571,12.882420900004016],[108.44103260862619,12.88353669937152],[108.44160481353214,12.884838464297616],[108.44231434623585,12.88623845787964],[108.4442369548099,12.88965738126529],[108.447517594497,12.89684713091357],[108.44754811240742,12.897276284876604],[108.44839497482575,12.89842260135737],[108.44888325655006,12.899667146208012],[108.44921894976434,12.89996660052196],[108.44924946729425,12.900065782605068],[108.44922657908079,12.900126817442452],[108.44908162075075,12.900204065409241],[108.44898243854479,12.900479677075875],[108.44858571053314,12.90097749543593],[108.4482729046471,12.90124261671269],[108.44789143514252,12.902297380757052],[108.44792195243274,12.902843835322459],[108.4480974285393,12.904329660393154],[108.44823475742974,12.904705408688368],[108.44829579356684,12.905025842282388],[108.44853993378474,12.905064943145918],[108.44860859828164,12.905130746421174],[108.44859333990799,12.90529096492791],[108.44842549239542,12.905417803010844],[108.44840260438077,12.905500772378128],[108.44843312274494,12.90556752954584],[108.44854756376357,12.905600908380805],[108.44869252143704,12.905556085930078],[108.44880696246128,12.905589464645526],[108.4487764460104,12.90566098926342],[108.4484560108472,12.905843141464967],[108.44835682861984,12.906141641515724],[108.44808217061028,12.906313303462259],[108.44796772936452,12.90647828865674],[108.44797535835944,12.906666162211902],[108.44833394049962,12.907196405262498],[108.44832631081319,12.907296541226119],[108.44821949926695,12.907362344276986],[108.44808217073317,12.907384280086118],[108.44796010002428,12.907500627310094],[108.44792195306569,12.90772664911845],[108.44820424083633,12.907959344465002],[108.44824238787768,12.90814721883502],[108.44847889837084,12.908345583790412],[108.44841786410393,12.90848958767648],[108.44823475789227,12.908622148546973],[108.44776936439611,12.908577326145496],[108.4477235886144,12.908677461415214],[108.44777699492069,12.908931139852571],[108.44773121752418,12.909057978020758],[108.44729634245434,12.909621599998873],[108.44731160170471,12.909859064452547],[108.44709797857402,12.91008031646876],[108.4468156908041,12.910107974264879],[108.44661732653995,12.910179498674468],[108.44643422072038,12.910107974063934],[108.44637318611741,12.910118464180414],[108.44557972898315,12.910488489547056],[108.44511433589287,12.910786989834943],[108.44493123088392,12.915329341023599],[108.44744893084476,12.91795957383981],[108.44660969745274,12.918856981818122],[108.44575520544969,12.920839671360639],[108.44582387023543,12.922062281045852],[108.44600697538965,12.922425631534136],[108.44645711054228,12.922942523311123],[108.4496385670265,12.924773576925903],[108.44986744964558,12.92480791064642],[108.45235463218236,12.925846461615235],[108.45306416542157,12.925974253627048],[108.45343037623728,12.925887469335228],[108.45401784031834,12.925561311975882],[108.45494862649868,12.924876574526646],[108.45544453698054,12.924610499330575],[108.45572682485403,12.924522760915018],[108.4561845890224,12.925039652469273],[108.45687886368597,12.926162127498998],[108.45726796236382,12.927009944463475],[108.4580537900278,12.927994135392035],[108.46015187395257,12.928485278045311],[108.46143361230841,12.92867315240627],[108.46176930493897,12.928344134175502],[108.4622881042282,12.926985148338252],[108.46260090918912,12.92596471670016],[108.46273823899469,12.92453801968559],[108.46295186161248,12.923493745650001],[108.46289082562846,12.92287481212832],[108.46264668563899,12.922231081977369],[108.46244832199136,12.921979311424302],[108.46231862197091,12.921917323012995],[108.46185322854222,12.921994570016405],[108.46133442948305,12.92226064467744],[108.46062489597115,12.923053148970508],[108.45962544571752,12.923715951658963],[108.45951100433354,12.923739794026556],[108.45942708029932,12.923720720650566],[108.45910664671852,12.92296636425888],[108.45906849920017,12.922593478047316],[108.45911427554192,12.92220247066223],[108.45934315745299,12.921588304972786],[108.46015187329522,12.920668962807307],[108.46176167559156,12.919363382587441],[108.46239491501996,12.918459299829326],[108.46274586782458,12.917579057217495],[108.46259327945592,12.916065576682355],[108.46281453173968,12.91526735142117],[108.46293660274841,12.915073755692692],[108.46307393143049,12.915025117080793],[108.46319600172991,12.915054681055834],[108.46340962430892,12.91527688706019],[108.46385975810793,12.9159148967502],[108.46400471759155,12.91640413032717],[108.4641420464647,12.916553857236066],[108.4643632993323,12.9166749740497],[108.46462269841803,12.916694047772394],[108.46511097957963,12.91656339407089],[108.46532460283444,12.916287782356848],[108.46539326713938,12.91586244345415],[108.46528645575795,12.914986969954896],[108.46554585554053,12.913990381502796],[108.46620198357832,12.91253030517271],[108.46646901088056,12.912133577513954],[108.46681996415724,12.911998154692967],[108.46696492222293,12.9120076923637],[108.46707936298077,12.912171724284105],[108.46767445631151,12.913308504176042],[108.46795674354476,12.914053322759175],[108.46821614319127,12.914899232005636],[108.46845265490865,12.916413667062814],[108.4686128714123,12.917738321201698],[108.46924611149042,12.91892850637886],[108.4700929749524,12.91948449935717],[108.47058125600104,12.919464470885096],[108.47126027133305,12.919256570462347],[108.47158833596514,12.918996217411866],[108.47166462999223,12.917845131760407],[108.47197743460742,12.917061212491962],[108.4721223935579,12.916268709242747],[108.47245045766324,12.915199640370536],[108.47321339653755,12.914062859730617],[108.47354146065892,12.913787248225061],[108.47407551879225,12.913695695109194],[108.47447224659834,12.913777711168349],[108.47563954493445,12.914372803989085],[108.4767915823206,12.914716126576442],[108.47708912975348,12.91468179514003],[108.47737141681648,12.914425255580756],[108.47817250324222,12.912491204548246],[108.47836323883958,12.912259461313537],[108.47997304017447,12.911867501626128],[108.48042317476896,12.911692978474123],[108.48074360913549,12.91139352529159],[108.48117848439665,12.911176087444948],[108.48194905322713,12.910354019998682],[108.4826738455172,12.909348847244956],[108.48275776982197,12.909285904418251],[108.48294087430973,12.909202934940803],[108.48316975633567,12.909224869069188],[108.48378010874603,12.909505249319444],[108.48403950716886,12.909442307352021],[108.4848787407408,12.908566834376959],[108.48506184682016,12.908499122879247],[108.48525258124661,12.908538223864184],[108.48636647221743,12.909174324313199],[108.48718281876477,12.909999253239723],[108.48726674144844,12.910029770034058],[108.48735066505121,12.909999253472542],[108.48750325268257,12.909743667660216],[108.48789998146306,12.909266831145507],[108.4882967092836,12.908460022320543],[108.48874684351934,12.907368064572369],[108.48919697839679,12.906682373683685],[108.48976918252207,12.906398178879925],[108.49007435813184,12.906294228200789],[108.49020405858104,12.906335235540865],[108.49043294090099,12.906504035599248],[108.49099751571278,12.906719566946125],[108.49140187311751,12.906755805420207],[108.49161549690442,12.906889320598959],[108.49204274257089,12.907453895751269],[108.49216481222184,12.90753019003019],[108.49246998898296,12.907576920027513],[108.49266835232065,12.907684684315955],[108.49315663378496,12.908135773030134],[108.49365254457724,12.908305526670093],[108.49411793753647,12.908382774268764],[108.49510975882475,12.908628822363543],[108.49564381628532,12.908633590391917],[108.49672719113605,12.9082845452937],[108.4971620668926,12.908074737838804],[108.49743672495747,12.908059478269768],[108.4976503479136,12.90810525566591],[108.49787159960326,12.908474327133835],[108.49848195147902,12.909731269960142],[108.4988557916366,12.910109878202253],[108.49959584262905,12.910299659566874],[108.501823627115,12.910551429236424],[108.5021364317675,12.910523773272377],[108.502357683698,12.910388351117252],[108.50264760125127,12.910286308448773],[108.50294514776704,12.910259605282594],[108.50336476433377,12.910288215363154],[108.50379200955082,12.91034066733857],[108.50405903892552,12.910476088978436],[108.50447865641114,12.910863281276107],[108.50471516740038,12.91093194541149],[108.50520344810482,12.910972000411828],[108.50572224706754,12.911080718184442],[108.50687428581561,12.91097200062704],[108.50749226719478,12.911148429453458],[108.5091173286029,12.91231000481311],[108.50999470822256,12.912642837311546],[108.51011677935969,12.91264951301954],[108.51025410847937,12.912588477785391],[108.511566363978,12.912516952338153],[108.51274892039065,12.912632347056185],[108.51422902217469,12.912956596115185],[108.51520558565069,12.913251280874354],[108.51551839055827,12.913486838751167],[108.5161363715956,12.914684654132138],[108.5167162056155,12.915233969707687],[108.51717396873721,12.915536284776822],[108.51785298570846,12.916242003714705],[108.5185854064142,12.917439819005848],[108.51960774544017,12.919586540212764],[108.51980611075228,12.920521140814998],[108.51985951573839,12.9209874873107],[108.51979848045205,12.92184197929914],[108.51968404013667,12.92209947240606],[108.51923390624027,12.922613502312798],[108.51843282003819,12.922994018577395],[108.51634999500538,12.924122215698954],[108.51525899077086,12.92483651737742],[108.51356526595569,12.925748229974076],[108.51309224326816,12.925715805656779],[108.51276417862428,12.925814033808173],[108.51223775084068,12.926373840990562],[108.51186391136613,12.92683637237303],[108.51156636467154,12.926982284549908],[108.51135274134919,12.927030921351149],[108.50917073507017,12.92824685724648],[108.50785084879927,12.92885530098582],[108.50742360318552,12.929291131300396],[108.5071260567814,12.929727912871634],[108.50640126375183,12.930497528848504],[108.50392171094626,12.932622314905991],[108.50283833717425,12.933155419031337],[108.50103017101743,12.933771492670223],[108.50064107189871,12.934019448936292],[108.50041981935536,12.93426835794154],[108.50028249033652,12.934518219354638],[108.500221454985,12.934925438517105],[108.5001222728603,12.93637693174934],[108.5003358957252,12.937226655942375],[108.50119038823746,12.938552262782855],[108.50135060489531,12.938866974951205],[108.50144215840494,12.939213158320426],[108.50143452934954,12.939935090816236],[108.50125142318797,12.942254426942398],[108.50104542903173,12.943225266978452],[108.50078603048668,12.943818452105395],[108.50045796627235,12.944180849292056],[108.49981709748091,12.94472635029741],[108.49946614520468,12.945227983257247],[108.49886342337894,12.946730019730538],[108.49827595934019,12.948521974554001],[108.49801656098303,12.949560524927723],[108.49803944920369,12.950662019721722],[108.49827595964206,12.95185792760093],[108.49824544322587,12.952225091313649],[108.49789449046874,12.95277250174343],[108.49725362092104,12.9542049198559],[108.4969942216697,12.955089929969288],[108.49691792782473,12.956467035901552],[108.49707814477406,12.957591417695662],[108.49696370387872,12.959489230195167],[108.4968950399484,12.96316469107144],[108.4967195645897,12.963729266249421],[108.49617787723835,12.96504152241903],[108.49604054839263,12.965744380389454],[108.49613210029845,12.966511134392066],[108.49652882922179,12.967189195695315],[108.49690266913358,12.967499139733018],[108.49752828076245,12.967749957029918],[108.4979936736234,12.968029382881696],[108.49839040160057,12.968554858383058],[108.49843617840587,12.971724871497559],[108.48761006788702,12.975898150804618],[108.48351308222917,12.977404956001386],[108.4820634980222,12.978248958004508],[108.48159047455097,12.978642826503483],[108.48149892297833,12.979070071981816],[108.48145314536839,12.979927425594521],[108.48190328052935,12.982167606504472],[108.48189565050308,12.983117466073603],[108.48204060980439,12.985370044941543],[108.4819414275971,12.985797290601095],[108.48152943969005,12.986682300886088],[108.4814302578425,12.987293605572974],[108.48143788690241,12.992212659190114],[108.48153707059475,12.997727757551688],[108.48163625297043,12.99896562648747],[108.48169728745805,13.001245862588503],[108.48160573449866,13.001847630540944],[108.48094197807015,13.004598981436908],[108.4799043798095,13.008283024462672],[108.47962972175864,13.009055501735798],[108.47940084057697,13.010065442655382],[108.47937032302536,13.010927564208703],[108.47948476315457,13.012824423060337],[108.47941609966284,13.013760931261508],[108.47907277678851,13.015028364276036],[108.47891255976624,13.015974409350624],[108.4787370832533,13.016273862698991],[108.47837087282576,13.016668684346389],[108.47717305751266,13.017712957402303],[108.4764635232254,13.01824415413167],[108.47581502566194,13.018863087908944],[108.47563954931822,13.019098646675916],[108.4755479964225,13.019463903015986],[108.47547170230648,13.020087606352591],[108.4754717026241,13.020388967213698],[108.48949453022674,13.020913487465851],[108.49086019180619,13.020775204427505],[108.49275228182518,13.020750409396816],[108.49295064594816,13.020796185691431],[108.4930803458678,13.020925885230309],[108.49311849271352,13.021034604912494],[108.49307271573993,13.021399861285195],[108.49283620458786,13.021774655650221],[108.49250814099574,13.022138005455938],[108.4922334830348,13.022587186844431],[108.49218770626916,13.023104077725215],[108.49235555270853,13.024290448937789],[108.49231740595266,13.02562559299001],[108.49223348301462,13.026260740252255],[108.49222585284637,13.026885397196468],[108.4923326656117,13.027122862138748],[108.49294301620775,13.027732258742846],[108.49333974485597,13.027972584755204],[108.49451467194648,13.02886713228132],[108.4957353749894,13.030085928337035],[108.49594899803937,13.030712491807469],[108.495987145588,13.031078703003672],[108.49602529210016,13.032134420252262],[108.495964257558,13.033556349260946],[108.49617788051208,13.033945448288904],[108.49642202019083,13.034034138915864],[108.4972994016169,13.0341075716398],[108.50539418897073,13.033708935409198],[108.51039144276332,13.033712750598399],[108.51184865669768,13.033771878742021],[108.5131303950405,13.034426098909865],[108.51637288838903,13.033846265150505],[108.52085134286828,13.032872562638188],[108.52159139371217,13.032749538590432],[108.52347585396807,13.032711391724492],[108.52529927995987,13.033064251960859],[108.52877065433817,13.033928280195944],[108.52939626541205,13.033953075865535],[108.52976247578688,13.033937816236799],[108.53033468080685,13.03373754562287],[108.5312120606663,13.033223514468341],[108.53199025932973,13.032885913674013],[108.53342458523544,13.032563572009192],[108.53434011244242,13.032404308198865],[108.5350801630169,13.03235567144944],[108.53710195318004,13.032374744291394],[108.53770467566906,13.032240275927515],[108.53955861881455,13.031548862021177],[108.54079458011152,13.030887012352533],[108.54490682410454,13.028959636052534],[108.54628011508326,13.028450373778778],[108.54912587962477,13.027525309801106],[108.55181905589106,13.026514414017829],[108.55509969596011,13.025370958745926],[108.55832692907595,13.02393663248988],[108.56094381106232,13.022859933296523],[108.56674978032427,13.020106675981058],[108.56764241956482,13.019731881989225],[108.56796285459997,13.019679430070049],[108.56864949933868,13.019686105400764],[108.56912252249813,13.019876840208829],[108.5697328732196,13.020405176467778],[108.5712511241645,13.022415521667872],[108.57195302739552,13.023038270884475],[108.57247945584717,13.023415926683489],[108.57463094598593,13.02454698340992],[108.57506582123122,13.02492368480169],[108.57547780759025,13.025412920082651],[108.57564565519921,13.025731446883622],[108.57598134863282,13.026593567804925],[108.57621023031972,13.027005556408007],[108.5765382939234,13.027428986945017],[108.57680532315922,13.027692200899141],[108.5771257585595,13.027938249602123],[108.57746145153688,13.028128030229452],[108.578430383962,13.028454187525698],[108.58046743279775,13.02849138013618],[108.58264943952062,13.028633478221794],[108.58638021334293,13.029209496938382],[108.58776876387049,13.02931535491291],[108.58953115327661,13.02936017774256],[108.59165975484291,13.029509903730235],[108.59194967108132,13.029420258644214],[108.59219381207538,13.029198052245874],[108.59711477173576,13.023468377562319],[108.5990144915335,13.021181466135998],[108.60052753451895,13.017921995184755],[108.60083028761144,13.017588020422428],[108.60112020392893,13.017441154971745],[108.60163137277735,13.017334342430889],[108.60235616536897,13.017284751784407],[108.60291311114212,13.017345787846493],[108.6040498914376,13.017953277247672],[108.60467550171724,13.01823937983416],[108.60531637123907,13.018393875725458],[108.60563680486493,13.018369079816422],[108.60609456909258,13.018224121480063],[108.60643789145077,13.017984748952712],[108.60739919541992,13.01700437149093],[108.60906240280733,13.014649749286509],[108.61178609662997,13.010084509549754],[108.61306783462307,13.00809991399037],[108.61333486412828,13.007785201183166],[108.61383077478851,13.0074352027391],[108.61404439794856,13.007343649305579],[108.61461660229676,13.007349371279203],[108.6149217782989,13.007463813096184],[108.61728689080248,13.009108900708469],[108.61811849474574,13.010037779429988],[108.61857625828335,13.010357261063467],[108.61920186903043,13.010283828083885],[108.62194845103197,13.008876204136469],[108.62290212522761,13.008427023483693],[108.62391683460413,13.008114218660815],[108.62519094288272,13.007782339074222],[108.62746450292138,13.007476210356822],[108.62767049621085,13.007494330193735],[108.62778493685252,13.007609724144046],[108.62814351966512,13.008757948103785],[108.62834188327272,13.009038329087705],[108.62878438841463,13.009304403770553],[108.62923452256119,13.009438871760821],[108.63002035029963,13.009511351328815],[108.63072988490418,13.009624838158413],[108.63106557759001,13.009594321340911],[108.63224813363883,13.009654401868461],[108.63327810175083,13.009737372437884],[108.63429281143317,13.009894727712776],[108.63529989190205,13.009952901643338],[108.63668081141755,13.010095953233817],[108.63726827563858,13.010101675026336],[108.63880941266119,13.01032006637107],[108.64035055027101,13.010334371584406],[108.64269277474878,13.010167478244492],[108.64385244301353,13.010177968934396],[108.64508840511554,13.010488866249906],[108.64524099237043,13.010432599560124],[108.64534017526076,13.010299085156149],[108.64578268002582,13.008850454588043],[108.64635488497592,13.00786912319139],[108.6471712296917,13.007008909352452],[108.64767476946655,13.006619808778368],[108.64863607360869,13.005701421376715],[108.64917013042296,13.00486409507265],[108.65059682753433,13.002977726715942],[108.65161153724561,13.00204026513234],[108.65250417671005,13.001299259408345],[108.654297083344,13.00010525931761],[108.656181544933,12.999179241683779],[108.65699026081505,12.998964665240587],[108.65757772357402,12.99872815429767],[108.65835592177774,12.998599407182516],[108.65908071466757,12.998687145980936],[108.6593684365779,12.998846898130246],[108.66001912953855,12.999868748390094],[108.66046163486436,13.000378010335323],[108.66208669608214,13.001724598551162],[108.66302511146209,13.002238629381464],[108.66413900320936,13.00254761924083],[108.665336817943,13.002718327549099],[108.66542837123085,13.002926228061185],[108.66558095909186,13.004259464906925],[108.66576406375535,13.004697201462552],[108.66599294610936,13.00479161554744],[108.66629812215014,13.004771588742072],[108.66759511859493,13.004474995703886],[108.66986867889271,13.00175702300761],[108.6716310686025,13.000240680871892],[108.67435476283846,12.997759219507047],[108.675384730964,12.99675976994923],[108.67565176000699,12.996427890953656],[108.67462942098457,12.996028301749545],[108.67381307576171,12.995525714588481],[108.6727525894607,12.994613048904176],[108.67255422571691,12.99408375939485],[108.67262288981942,12.993032809398512],[108.6730043597476,12.991840717647047],[108.67359182217626,12.990266200624946],[108.67401906834601,12.989679691401719],[108.67603322829511,12.987732288207086],[108.6767046151957,12.986918803523283],[108.677192896207,12.986153003212268],[108.67723867377528,12.985639926084593],[108.67752859072958,12.984669086002846],[108.67793294817174,12.98379075223596],[108.67842122902333,12.983392115423062],[108.67941305037083,12.982785578847839],[108.68121358719057,12.982051249962511],[108.68215963209029,12.981604929579232],[108.68401357563398,12.981716509208804],[108.68815633621622,12.98174798034619],[108.68940755706242,12.981413241511051],[108.69055196607604,12.980886812211466],[108.69145986460025,12.980040903231986],[108.6920549571871,12.979258889784695],[108.69219991574496,12.978062028933195],[108.69189473980278,12.975157137113332],[108.69203969788123,12.973673220222889],[108.69219991527477,12.972763414699063],[108.69261190330708,12.972205514711993],[108.69623586542244,12.970784539830584],[108.69870778924272,12.9693559352165],[108.69980642240978,12.968803758198566],[108.70130178345269,12.968284005169743],[108.70220968073889,12.96771656885075],[108.70316335498556,12.966990822892283],[108.70465871756522,12.96624886438767],[108.70502492843178,12.965834015618453],[108.7054521736572,12.964955681825366],[108.70561239092166,12.963974350543863],[108.70552846832283,12.962537163966406],[108.70535299232859,12.961299294558621],[108.7052843263781,12.9590095223223],[108.70468160499253,12.957436913525097],[108.70451375723204,12.953436249212057],[108.70359059994482,12.951543204956801],[108.70275899629215,12.950457924585624],[108.7018129518911,12.949937217932868],[108.7009966065024,12.949563377187605],[108.7005083254907,12.94922005558413],[108.70037862528328,12.948668831150107],[108.7004472905318,12.948001259238033],[108.70304128387706,12.944393509411912],[108.7034303834509,12.943441742227336],[108.70496389116941,12.942136162025083],[108.70583364166272,12.942020766840917],[108.7068636106667,12.94218575269577],[108.70861074193178,12.942934386531341],[108.70912954148798,12.943107955400473],[108.7096559692544,12.943203322645978],[108.7101518805355,12.943212859590659],[108.71054860797595,12.943126075721718],[108.71102926007148,12.942733162028382],[108.71128103023385,12.94233643391882],[108.71158620577181,12.94201218316573],[108.71205159925637,12.941419951436988],[108.71526357366913,12.938110702336935],[108.71617910124314,12.93734967013605],[108.7173998053892,12.936171881728118],[108.71833822010711,12.933853498746641],[108.71965810473101,12.931550375482198],[108.72025319785524,12.930240027078579],[108.72137471852695,12.928656927867554],[108.72253438675536,12.92761074680913],[108.72342702585996,12.926465384139155],[108.72468587603755,12.924514166279065],[108.72481557553652,12.923976294072164],[108.72473928120354,12.923292509289663],[108.72447225241487,12.922579160770686],[108.72416707741172,12.921407095271135],[108.72309896156749,12.919257512714891],[108.72266408645763,12.918761602069544],[108.72193166450509,12.918235174340964],[108.72099324790084,12.917764059494663],[108.72016927397144,12.917611471591469],[108.71807882051898,12.917820326081335],[108.71665975235209,12.917512289635553],[108.71485921502976,12.917435041536427],[108.71295949580008,12.91638790702809],[108.71159383419499,12.915570607993924],[108.71083852421357,12.915400854396905],[108.70912190963784,12.915555349497136],[108.70843526504386,12.915555349433005],[108.70787068947375,12.915335051507041],[108.7062227406312,12.915060392919196],[108.70516988357818,12.914587370515004],[108.70325490600571,12.912876479118518],[108.70235463774155,12.912620894124776],[108.70164510348603,12.912629478084224],[108.70083638712032,12.912501684930861],[108.69915029157659,12.91162811991475],[108.69841786902147,12.911361090852553],[108.69747945329703,12.911260955069563],[108.69538137041359,12.911327712133632],[108.69310018111817,12.911307685263901],[108.68954488342074,12.910841338028908],[108.68712636535817,12.91067444544463],[108.682472433556,12.910021178389128],[108.6797639992857,12.909278266121824],[108.67852803643372,12.909252518048516],[108.67628499473797,12.909894341146329],[108.67583486047252,12.909883850038835],[108.67543813264098,12.909784668150031],[108.67414876448521,12.909248702919651],[108.67221089825932,12.908767098181972],[108.67100545364555,12.908693665224721],[108.66802236012141,12.907866828687954],[108.6664125589477,12.907594077706742],[108.66417714512626,12.907273644156245],[108.6634218358501,12.907206885964182],[108.66206380333506,12.907173508337399],[108.66029378332058,12.906907433371229],[108.65549489396456,12.905967110812078],[108.65493794879066,12.905750626354552],[108.65203114892134,12.905478829605675],[108.64865132725,12.905309074681986],[108.6453478000444,12.90467583624624],[108.6447374478268,12.904589051281524],[108.64355489160597,12.904502267115314],[108.64118214976098,12.904083604163457],[108.63867970846276,12.903509491943495],[108.63505574581995,12.902594917855765],[108.63215657543068,12.901757592142323],[108.63017293349448,12.901137704436282],[108.62760945603203,12.900253648357179],[108.6249315394937,12.899711007234732],[108.62313100219293,12.898981446932366],[108.62116261800287,12.897942895378026],[108.61952992824763,12.896857614967924],[108.61774464855576,12.895275469097793],[108.61664601535996,12.894593591855227],[108.61431905104573,12.894081469155406],[108.61347981806344,12.893461579356453],[108.61267873022172,12.892298097494304],[108.6124727374166,12.890572901136576],[108.61178609140075,12.888769502404914],[108.61148854488181,12.88691842035999],[108.61117574014878,12.884201402543296],[108.611496174496,12.883352632213743],[108.61217518994086,12.88299405072439],[108.61283894826437,12.882776612722767],[108.61295338810359,12.882460946075788],[108.6124117010182,12.881053322996497],[108.61056538800027,12.877169961424363],[108.61041279969342,12.876465195771335],[108.61081715770393,12.872417802200166],[108.61045094647841,12.869775169888877],[108.61000844097026,12.865725868378695],[108.60960408282627,12.865681047103022],[108.6083986394454,12.865756386479198],[108.60544606343642,12.866201752682267],[108.60308635430209,12.866992644891715],[108.60238667641443,12.866186493730053],[108.60128804327887,12.865650528905585],[108.60077687370108,12.865240448746718],[108.5989915947296,12.864249580819108],[108.59836598520151,12.86339699714388],[108.59817524962303,12.863035554517305],[108.59786244457054,12.86269604636657],[108.59781666870335,12.86231171543485],[108.5979845143984,12.861822479885472],[108.59791585117247,12.861537332017193],[108.59703846952819,12.861468666915721],[108.59625264300266,12.861263626785705],[108.59583302609114,12.860842103301305],[108.59567280864957,12.860386247239083],[108.59564229060013,12.859724397365087],[108.59571858508173,12.859032983170925],[108.59545155541367,12.85866581847041],[108.59477253946301,12.858272905266888],[108.59450551084875,12.857695932150078],[108.59450551041827,12.85658680783533],[108.59469624509754,12.85565506868752],[108.59519978500164,12.854683274024884],[108.59520741579162,12.853872651016543],[108.59482594547148,12.852852219533787],[108.59444447546018,12.851644868136756],[108.59390278792243,12.850925798237231],[108.5938188647429,12.850520486181445],[108.5938798999129,12.849386566407139],[108.59409352314495,12.848190659338226],[108.59444447506515,12.847674721433268],[108.59456654600035,12.847269409303653],[108.59431477592508,12.846712463448544],[108.59379597736593,12.845810288413839],[108.59337636016409,12.845476502208863],[108.59317036575769,12.844868057603808],[108.59301014928374,12.843785637742636],[108.5925218673496,12.842650765521356],[108.59226246814525,12.84214627168109],[108.59197255032582,12.840387695008706],[108.59166737596063,12.839893692556393],[108.5911104297424,12.839232796657162],[108.59060688963581,12.838533753401148],[108.59053059511356,12.838088387677866],[108.59073658985528,12.837511414138307],[108.59061451861824,12.836781853154317],[108.59025593721434,12.835728996145487],[108.58995839037951,12.834999435848568],[108.59001942542399,12.834554070653539],[108.59042378356872,12.83405815896988],[108.59075184718438,12.833466881358074],[108.5911485766824,12.832903259453094],[108.59181996364195,12.832528464868231],[108.59262867828409,12.83192097485628],[108.59309407171982,12.83107029725291],[108.59324665883075,12.830612533955684],[108.59323140080875,12.830252998356203],[108.5931169605053,12.830067031591708],[108.59214802674698,12.829236381895214],[108.59194966176378,12.828934067083509],[108.59193440310155,12.828575484567379],[108.59214039711813,12.828315132345702],[108.5924303140596,12.828143470954679],[108.59282704320019,12.828021400671883],[108.59303303589658,12.82781731421305],[108.59331532409192,12.827377669771684],[108.59622212310752,12.825129859448896],[108.59744282610973,12.824511878581527],[108.59756489717788,12.824035995455178],[108.5972749801835,12.823145263637231],[108.59702320953636,12.822200172555183],[108.59706898550886,12.821828239687266],[108.5968935098988,12.821125381739645],[108.59623738140705,12.820674293584869],[108.59578724754384,12.820187919060759],[108.59551259016075,12.8193982760131],[108.59580250636992,12.818598144249934],[108.59598561181579,12.817798010985378],[108.59586354160669,12.816724173942013],[108.59603901738323,12.815397613312944],[108.5958482822166,12.814698568924797],[108.59526844838037,12.813817373817752],[108.59452839793002,12.813624732196045],[108.59326954735364,12.813716284888663],[108.59212513780108,12.81336151811121],[108.59109516954871,12.812267654107853],[108.5906984408758,12.811265342069126],[108.5902025302593,12.810505262915594],[108.58988209484178,12.809502951812009],[108.5895082553853,12.807806365269428],[108.5892488556092,12.807178846906053],[108.58889790284266,12.806621902422586],[108.58816548231867,12.806224219275881],[108.58759327700132,12.805799834311175],[108.58748646512106,12.80547653931075],[108.5874254302351,12.805096976300769],[108.58770771772035,12.804814688875087],[108.58884449781478,12.804447523623843],[108.58911915552477,12.804175727299326],[108.58908863781562,12.80373131505158],[108.58899708616705,12.80321347016166],[108.58856221026197,12.802869192677072],[108.58786030539486,12.802838675766042],[108.58734913592441,12.802524917416724],[108.58583851570503,12.800803534788875],[108.58425160133781,12.799902311869383],[108.58319111536208,12.799435965684385],[108.58245869345947,12.799162261393304],[108.5819475248861,12.798808448212782],[108.58182545440569,12.7985452341436],[108.581939895114,12.798058860212466],[108.58226032970533,12.797501913539792],[108.58305378609728,12.795881621247354],[108.58513661086538,12.790432325417415],[108.5854723045812,12.79002224562579],[108.58789845231085,12.788675657249055],[108.58830280977443,12.7875913304923],[108.5888063504548,12.78640686620066],[108.58889790182592,12.78589951126779],[108.5888139786771,12.785672537268365],[108.588546949594,12.78533875162452],[108.58850880313376,12.784917226751714],[108.58870716790452,12.784460416987361],[108.58957691896785,12.78351151092049],[108.58996601839719,12.783323637124063],[108.59041615170187,12.783200613029663],[108.59066792206453,12.782794348323893],[108.59087391564628,12.782145849210181],[108.5910036150033,12.781036726224443],[108.59147663752545,12.780351987874885],[108.59186573723636,12.780049672541063],[108.59292622245984,12.779917111426142],[108.59370442097122,12.779670110785585],[108.59432240154736,12.779535642554148],[108.59474201913291,12.77917038478528],[108.59484120099599,12.778583875573874],[108.59519978148242,12.778293004570653],[108.59571858083656,12.778227200226036],[108.59614582671836,12.777894368667152],[108.59678669607419,12.777881017863074],[108.5973665294725,12.777003636296627],[108.59849568076527,12.776684154937943],[108.59913655027032,12.77611195160983],[108.60053272847335,12.775580754321698],[108.6009599743638,12.775354733046493],[108.60117359818211,12.774822583430174],[108.60158558556763,12.774715771735861],[108.60232563689063,12.774144520637401],[108.60276051157972,12.773144115723863],[108.60304279937948,12.77276455427456],[108.60324116389846,12.772344936715372],[108.60320301666907,12.771847119200652],[108.60353871071244,12.77117859357662],[108.6040956555352,12.771031728312423],[108.60502644262836,12.77121864746619],[108.60557575841726,12.771125187427609],[108.60600300501295,12.77072655135912],[108.60662098527462,12.770273556370157],[108.60693379101485,12.769516338371037],[108.60731526038799,12.769382824510684],[108.60790272411796,12.769622196523068],[108.60833759935939,12.769861568474902],[108.60867329229221,12.769868244766037],[108.61035938841337,12.769309391876975],[108.61110706949547,12.768664707228057],[108.61177082717457,12.76836525370877],[108.61235829060594,12.768255581376984],[108.61338062931793,12.768142094187771],[108.61483784369085,12.768125881616342],[108.61746998444642,12.768571246807216],[108.62105579994065,12.769401896834045],[108.62207050987784,12.769415248834461],[108.62326832516533,12.769239772624077],[108.62458058129904,12.768936503924712],[108.62632771212367,12.76865230911964],[108.62879200608623,12.769158709435791],[108.63019581515186,12.76909862905683],[108.63626118453503,12.769580233467009],[108.63896961924006,12.770017016263706],[108.64103718564311,12.769418109191545],[108.64299793905587,12.769034732439886],[108.64649220287318,12.768615114851528],[108.64812489298457,12.768579829103142],[108.64964314305844,12.768643724842718],[108.64982624784012,12.768712389626646],[108.65062733437216,12.76942001578488],[108.65103169227334,12.769690860015604],[108.65162678461057,12.769696582119735],[108.65296955884715,12.770159113997448],[108.6536790915325,12.770633089568934],[108.65463276668999,12.771175730526704],[108.65488453667055,12.771177637579047],[108.65507527167448,12.771112787771768],[108.65545674046655,12.771199571188841],[108.65587635757123,12.771437036345304],[108.65704365484314,12.77224861378816],[108.65773793042554,12.772642481389004],[108.65811939969419,12.772258150738018],[108.65860005157083,12.771895754417427],[108.65916462671446,12.771700250668841],[108.66014118965502,12.771508562001568],[108.66189594980749,12.7710231421524],[108.66320057679997,12.770533906859827],[108.66451283297408,12.769710886444745],[108.66553517237001,12.76893459533824],[108.66613789364592,12.768622743443517],[108.66661091553021,12.768510210104223],[108.66713734376475,12.768497811888441],[108.66814442379346,12.76862369682509],[108.66907521125532,12.768882142606659],[108.66941853295226,12.76891933554758],[108.67412587035135,12.768626557255308],[108.67511769154959,12.768468247240008],[108.67578907853598,12.768224107738217],[108.67659779402379,12.767746316852588],[108.67736836215553,12.766885148096593],[108.67814656096853,12.765723573650915],[108.67923756375357,12.764765129847536],[108.68074055510499,12.763909684074271],[108.68221302808712,12.763371811667637],[108.68287678495776,12.762959823602523],[108.68308277926796,12.76277862580095],[108.68355580114874,12.762181625540297],[108.68421192943322,12.761102066812716],[108.68549366799235,12.759356842915576],[108.68560047872889,12.759107933623662],[108.68566914421562,12.75874076860257],[108.6856844016729,12.757723198753132],[108.68549366757148,12.755569801244265],[108.68525715527137,12.751681671193593],[108.68528767325807,12.75044666360805],[108.68521137984784,12.749635085955305],[108.68482990931183,12.748964653279716],[108.68491383315573,12.748218879057648],[108.68579884231843,12.744710311783257],[108.6864015650507,12.742754326194895],[108.68700428687576,12.74106155355673],[108.68732472097679,12.740299568143548],[108.68728657403817,12.739294395221906],[108.68731709216385,12.738744124824656],[108.68743916162748,12.73819576214693],[108.68779011361649,12.73716960889033],[108.68779774399744,12.736667976033457],[108.68765278498823,12.736355170597369],[108.68559284927107,12.734921797485999],[108.68472309763412,12.733937606755939],[108.68453236299327,12.733529433607092],[108.68437214592419,12.732069358798585],[108.68413563339307,12.731325492553394],[108.68360920530719,12.730627402298788],[108.68273182582348,12.729830130973603],[108.68225117389055,12.729563101545807],[108.6813280163149,12.72924362171566],[108.67969532658175,12.728583679000018],[108.67862721178875,12.728096350384229],[108.67809315349032,12.72756515485061],[108.6769563729008,12.72628818503443],[108.67657490275134,12.725925788738353],[108.67613239923931,12.725706443426619],[108.67584248175253,12.725632056882231],[108.67539997687683,12.72565208394526],[108.67415638509235,12.72619091001676],[108.67322559954532,12.726494177497575],[108.6713945455217,12.726693495686145],[108.6707078995236,12.72687850858974],[108.6698228892709,12.727324829021214],[108.66806049945825,12.727740631033539],[108.66738148289207,12.727781639145785],[108.66650410332926,12.727750167948232],[108.66579456866062,12.727600440867631],[108.6648256360585,12.727114067480507],[108.66400166103256,12.726627693008718],[108.66331501606905,12.726478919869582],[108.66243763524385,12.7263749689257],[108.66200276018355,12.726180419950753],[108.66159077271311,12.725913391492215],[108.66115589706757,12.725502356995177],[108.66072102191862,12.72490058909763],[108.66024037014715,12.724130974329334],[108.65939350632101,12.72319065159563],[108.65873737909497,12.722945556437713],[108.65832539153523,12.722679481803814],[108.65808125084521,12.722341881167397],[108.65798969744169,12.721958503619286],[108.65799732711245,12.720810280019125],[108.65788288632864,12.720379218916925],[108.65721149911724,12.718985901266187],[108.65666218319578,12.717976912806737],[108.65559406765722,12.716866836615797],[108.65542622121076,12.716458664028513],[108.65531178009678,12.715931282037806],[108.6553194095579,12.71511875102584],[108.65512867390764,12.714495048209418],[108.65465565171216,12.713246689432381],[108.65575428549359,12.713137016451498],[108.65782948000059,12.713035927297696],[108.65856190229343,12.712874756060918],[108.66020222248355,12.712076529670647],[108.6611558964399,12.711534843114823],[108.662185864065,12.711232527279183],[108.66397114350552,12.710961684626808],[108.66558094503647,12.710592612608595],[108.66638966112299,12.710265502189996],[108.66901417210113,12.708709105468758],[108.67005176987556,12.708025321626074],[108.67086048619555,12.70767341513349],[108.67240162401593,12.707136495756856],[108.67369862126803,12.706908568349714],[108.67488880620786,12.707039220761338],[108.67537708685839,12.70716319882713],[108.67627735587156,12.707242354309093],[108.67694111370218,12.707128866452818],[108.67720814188255,12.70691524411116],[108.67736073057138,12.70665393659893],[108.67736072989645,12.706291540561335],[108.67719288300357,12.705815657082447],[108.67678089644764,12.705309255741335],[108.67647572005349,12.704732282613557],[108.67618580331872,12.704132422168357],[108.67570515101279,12.702884061930138],[108.67539997581602,12.701613768010539],[108.6753084233895,12.701062543934226],[108.67529316360857,12.70034538072764],[108.67539997581723,12.699006422454348],[108.67563648658414,12.697214468739066],[108.67577381548327,12.69537482997985],[108.67614002673085,12.692938192250534],[108.67629261470627,12.692198141188838],[108.67624683719889,12.691767080614522],[108.67610950898597,12.691192013767813],[108.67608662056833,12.690832478951055],[108.67614002691326,12.690546376927333],[108.67648334946193,12.689711912422915],[108.6766664541055,12.68909202301278],[108.67666645416499,12.68873248786287],[108.67657490174412,12.688325268763792],[108.67635364937162,12.687869412704138],[108.67633839051372,12.687462193767832],[108.67638416721675,12.68727145897007],[108.67658253135103,12.68688998926599],[108.67774219907591,12.68579994030009],[108.6781847047769,12.685613019640297],[108.67852802620637,12.68537650814194],[108.6789705309214,12.684853895170598],[108.67912311941342,12.684305531936577],[108.6798173944207,12.683235509774962],[108.68055744500191,12.682404858993413],[108.68104572704574,12.681930882135184],[108.68124409128447,12.681692463342003],[108.6813203847796,12.681477887116424],[108.68134327354332,12.681287152210118],[108.6812974970892,12.681047780393362],[108.68028278737248,12.679818493683856],[108.67994709412949,12.67909846928454],[108.67983265329981,12.678331715788627],[108.6799242063108,12.676132542469785],[108.68053455677075,12.673865658418867],[108.68075580941368,12.673388821510533],[108.68112964997128,12.672769887563819],[108.68226642979019,12.671392781511564],[108.68322773252319,12.669702870394731],[108.68396778481711,12.668872219881608],[108.6846315421234,12.668351512467291],[108.68537159231451,12.667951924119135],[108.685936169083,12.667574268886883],[108.68623371464844,12.66650043203528],[108.68678303078575,12.665644031695148],[108.68720264802221,12.665240628005394],[108.6883775745588,12.664461475372237],[108.68952961248755,12.663993221297833],[108.69204731331638,12.663297992225015],[108.6932985335282,12.662902217374205],[108.69337482804943,12.662615160831441],[108.6925355949187,12.660527567953208],[108.69208546007049,12.658872943209076],[108.6919252420754,12.658201557334241],[108.69185657826772,12.65772281160242],[108.69193287273373,12.657197338278786],[108.69217701229428,12.656672816944251],[108.69274921694138,12.655769686656178],[108.69292469343702,12.655316691707382],[108.69293232178481,12.65479026342454],[108.6925813696744,12.652969698736669],[108.69219227080292,12.650263171805591],[108.69222278876066,12.64933047801277],[108.69200916623234,12.648898463821471],[108.69133014920851,12.64783988471993],[108.69129200145444,12.64728961444799],[108.6916963597141,12.644973139590215],[108.69227619390884,12.643016200438568],[108.69238300585256,12.642203669527158],[108.69241352245047,12.641343455687164],[108.69252033483757,12.640817979931008],[108.69286365722223,12.64024672884124],[108.69335956790339,12.639581064957918],[108.69438953639583,12.638466218652182],[108.6946641948166,12.638085703267496],[108.69493885238964,12.637585978030504],[108.69501514611224,12.63701281976414],[108.69510669960559,12.635218958306266],[108.69506092208545,12.634788851299218],[108.69496937071366,12.63440451992011],[108.6940767306768,12.633576730797232],[108.69396229012338,12.633777955822675],[108.69335193797018,12.63388381371666],[108.69245166887049,12.633636812762951],[108.69203205359702,12.633730272551867],[108.69170398921428,12.634166102044118],[108.69121570793456,12.634283404325023],[108.68936176551541,12.634024958205135],[108.68897266598417,12.634248118087303],[108.68847675533223,12.634671549307742],[108.68816395055198,12.634729723333335],[108.68793479922259,12.634465462104815],[108.68792743850845,12.634456973404543],[108.6878892919228,12.633965830559182],[108.6877061864931,12.633460382984007],[108.68708057616445,12.633154253497265],[108.68671436481357,12.633319239383612],[108.68618793734171,12.633919100198653],[108.6857759488105,12.634118418417913],[108.68478412837192,12.633941987936828],[108.68365497825856,12.63385997236583],[108.6827318207495,12.63337550603911],[108.68196888123349,12.633097033775185],[108.68154926522317,12.633132319507471],[108.68107624232432,12.633419375621767],[108.68075580798929,12.633979182295514],[108.68038959733019,12.63440070691523],[108.68003864450704,12.63449607379575],[108.67966480424357,12.634531359397872],[108.67935199879796,12.634451251746393],[108.67901630557023,12.63378940127807],[108.6785966885874,12.632738451988331],[108.67793293131669,12.631432871597305],[108.6778032320429,12.629006724620252],[108.67782612005274,12.628075938683695],[108.67755146167704,12.626056056057102],[108.67755146172063,12.624706605862222],[108.67748279665447,12.624513009787496],[108.67702503326132,12.624412874831775],[108.67655201003251,12.624415736695456],[108.67627735224977,12.624530177078055],[108.67612476443841,12.624539713448751],[108.6759569171145,12.624433856139149],[108.6758195882792,12.62444243933238],[108.67571277736528,12.62460074968659],[108.67577381242393,12.625024180694703],[108.67568988971328,12.625205378176368],[108.6750642782815,12.625291209363416],[108.67444629767843,12.62512050163643],[108.6738130583301,12.624102931695008],[108.67366809891101,12.623558382307497],[108.67373676456589,12.623008112051753],[108.67394275744013,12.6223672434883],[108.6745302214574,12.621308665070586],[108.67469806735913,12.620502810464378],[108.67456073779576,12.619801858969836],[108.67499561382347,12.619490962070673],[108.67528553104343,12.619177203552496],[108.67569751787019,12.618554453184606],[108.67588825345193,12.61802420959889],[108.67586536489806,12.617747645325437],[108.67569751771107,12.617230752683218],[108.675705146921,12.617060999252397],[108.67523212545333,12.61652980292672],[108.67511768357342,12.616262774069334],[108.67516345956798,12.615706782137996],[108.67527790096455,12.615071634804103],[108.675491523665,12.61455569652462],[108.6755830772335,12.6140779062852],[108.67534656536563,12.61201701608949],[108.67549152384466,12.611804347062057],[108.67560596502469,12.611279825572085],[108.67549152341222,12.610818246489378],[108.67533130685847,12.610493043842876],[108.67524738327356,12.609806398795936],[108.67507953675243,12.609106401881434],[108.67518634863008,12.608806947351718],[108.67554492971244,12.608145097779905],[108.67550678234302,12.60789523541442],[108.67529315937462,12.607632974694326],[108.67489643150068,12.60767016773936],[108.67473621383218,12.60780749624828],[108.67450733242386,12.607745508736436],[108.67427082038897,12.607520441219616],[108.67401905081417,12.607470849549749],[108.67375965176106,12.607470849392488],[108.67337055281445,12.60767016747381],[108.6731721873601,12.607645372420752],[108.67297382364671,12.6075080433978],[108.67284412316161,12.607545236584256],[108.67269916576093,12.607719758711722],[108.67248554241411,12.60771975833355],[108.67224903160059,12.607520441898311],[108.67237110154515,12.606945375396435],[108.67234821309336,12.605734209208883],[108.67174549147292,12.605034213023522],[108.67047138269922,12.604959825440682],[108.66921253219273,12.604935029673934],[108.66854114520741,12.604697565942653],[108.66819782263462,12.60467276958933],[108.66787738805012,12.604585031907307],[108.66784686984417,12.604460101102891],[108.66828937535442,12.60402331757234],[108.66836566959535,12.603735307970707],[108.66817493436915,12.603473047395335],[108.66687793706053,12.60284839087776],[108.66678638417493,12.602636674406186],[108.66705341327865,12.601911882530407],[108.66685504951528,12.601350168544126],[108.66695423128843,12.601100305893176],[108.66701526627789,12.600725511464555],[108.6667253488058,12.600312571103863],[108.66613788598663,12.599314074094382],[108.66532916993246,12.59850154250053],[108.66461200651051,12.598035196643321],[108.66374225540834,12.59764609760057],[108.66315479202962,12.597751954621078],[108.66261310501903,12.59820208992416],[108.66170520717777,12.598826746188777],[108.6611406316859,12.598964075793614],[108.66078967949427,12.598939279926519],[108.66014118156659,12.598664621956635],[108.65984363495795,12.598126748428493],[108.65962238289671,12.597190241058117],[108.65929431903533,12.59655318696928],[108.65813465051536,12.595891336995331],[108.65778369885578,12.59556613370342],[108.65750903946886,12.594891885845621],[108.65710468264768,12.594117502830636],[108.65660877127702,12.59369311767296],[108.65580768536331,12.59323058551237],[108.65515918645993,12.592056611392051],[108.6545869814125,12.592044214620913],[108.6541978825604,12.591894488118408],[108.65312213848819,12.591057161699872],[108.65239734537937,12.590645174145118],[108.65125293625722,12.590257982680649],[108.65047473826249,12.59019503983988],[108.65042896074027,12.59035716535531],[108.65049762646504,12.590620378914247],[108.65039844398116,12.590707162609611],[108.65029163208926,12.590719560705109],[108.64990253290176,12.590295176225737],[108.64963550454034,12.59027038001062],[108.64947528744435,12.590344767423996],[108.64951343411718,12.590794900579816],[108.6494295110059,12.591019968129565],[108.64911670641663,12.591007571029088],[108.64888782443406,12.59083209539622],[108.64886493504265,12.590370515614776],[108.648704718275,12.59031997226075],[108.64819354868717,12.590331415832285],[108.64796466669637,12.590234141439176],[108.64770526856827,12.590032916371774],[108.64756030875922,12.589543680620055],[108.64748401486942,12.589056352608587],[108.64724750433932,12.58893046786639],[108.64633960631593,12.589071612310235],[108.64551563073624,12.589276651816968],[108.64434833386854,12.590011934837552],[108.64358539386048,12.590648989395905],[108.64250964979644,12.591431002793511],[108.64205951621534,12.591540675479935],[108.64156360492046,12.591322282981107],[108.64044208407321,12.590430598442044],[108.6397859557301,12.589028697030129],[108.63912982809359,12.58837352248674],[108.63806934141054,12.588082652449083],[108.63625354570968,12.588610987156159],[108.63417835077512,12.588919979008312],[108.63281268857759,12.588792186094985],[108.63150043405528,12.588901858942988],[108.6302110659885,12.588155131997311],[108.62771625352671,12.58471618185704],[108.62728137740179,12.583660464287709],[108.62667865560931,12.583405833958768],[108.62564105874242,12.583241801626254],[108.62445850088925,12.582913737982377],[108.62130756121873,12.583059650386959],[108.62000293534082,12.583059649788813],[108.6182176569158,12.58189521418443],[108.61656207825945,12.581057887689727],[108.61572284476485,12.580529552365102],[108.61490649894895,12.579547267456425],[108.61370105485065,12.579547267543719],[108.61270160369727,12.579038005223985],[108.61112231930197,12.576053005187957],[108.61071796178476,12.575506549055634],[108.60995502158532,12.575288158312564],[108.60904712325242,12.57537971158682],[108.60855121339624,12.57527003851659],[108.60813922518962,12.574937205990667],[108.60722369830049,12.574715953360663],[108.60638446560273,12.574715953432948],[108.60565967201818,12.574916225378246],[108.60491962116882,12.574776035389098],[108.60301990208846,12.573734622034827],[108.60255450886986,12.573674541532167],[108.60155505787486,12.57415519358678],[108.6007310831465,12.57487617148471],[108.60013599178343,12.575538021281876],[108.59911365266429,12.575898510691596],[108.59787006030913,12.576238971740292],[108.59682483338284,12.575918538149221],[108.59598560033955,12.575237614136551],[108.59576434866946,12.574996334916406],[108.59546680112665,12.575016362012816],[108.59514636767452,12.575177533167759],[108.5945360154811,12.575809818394607],[108.5944673502101,12.576180798212691],[108.59423846947448,12.57645068772177],[108.5939409222264,12.576487880718597],[108.59352893556733,12.576479298122463],[108.59296435979351,12.576300006749186],[108.59259814889461,12.575969082094513],[108.59224719705608,12.57589946432229],[108.59193439159392,12.575933795544172],[108.59181232090155,12.576457363759431],[108.59158343941776,12.57664905206231],[108.59113330502997,12.576631885796244],[108.59087390641623,12.576579434242669],[108.59001178394976,12.576928479491261],[108.58956165052486,12.577416760365253],[108.58923358650145,12.577452046322906],[108.58667010881435,12.578794818954483],[108.58567065885896,12.578707080997521],[108.58530444859453,12.578934056709587],[108.58504504813855,12.579265935129463],[108.58483142481744,12.579369885049037],[108.58457202643983,12.579335553141236],[108.58432788481556,12.57895122284672],[108.58409900275993,12.578881604799788],[108.5837175343092,12.578881604592912],[108.58326739938462,12.579056126839482],[108.58305377594205,12.579562527897414],[108.58324451085255,12.58010326173645],[108.58316058792877,12.580451352167636],[108.58200854872182,12.580469472331323],[108.58157367450949,12.580539090921791],[108.58096332190506,12.58039985368437],[108.58058185248528,12.580556257094832],[108.5803377123175,12.581079823346652],[108.57989520691453,12.58120189392806],[108.57933826127021,12.58123622692024],[108.57814044572594,12.581166607516344],[108.57766742444058,12.581550938423412],[108.57674426686575,12.581603390826583],[108.57578296267504,12.581044537553423],[108.57536334696563,12.580678327058116],[108.57506579960565,12.580539091005859],[108.57480640112685,12.580591543364209],[108.57464618319794,12.58074794461859],[108.57464618303452,12.580992085937517],[108.57491321187304,12.581376417105842],[108.57489032372388,12.581603390529917],[108.57475299497058,12.581742628397826],[108.57454700067632,12.58174262789292],[108.57434863686042,12.581532818878333],[108.57419604856942,12.580539090972731],[108.57384509711717,12.580259663552596],[108.573082157861,12.580050809102598],[108.57279987014566,12.579788549028006],[108.57244891791623,12.579544407913549],[108.5718385659721,12.579544408439729],[108.5709306676128,12.579893452964333],[108.57035846363698,12.58017287989713],[108.57019824596667,12.580399853703613],[108.57023639278023,12.580747945558107],[108.57038898136996,12.581114155909066],[108.57032031671784,12.581515652910818],[108.5703737231306,12.582022054294402],[108.57018298775125,12.582266195200752],[108.56992358808198,12.58226619520823],[108.569381900695,12.582022054066416],[108.56890887849242,12.581550939337136],[108.56863422102599,12.581166608510157],[108.56812305042499,12.581132275975811],[108.5677797278152,12.581288679143691],[108.56761951095964,12.581463201011525],[108.56760425165368,12.581673010249595],[108.56765765825976,12.581934316095847],[108.56755084714226,12.582108839025459],[108.56707782435846,12.582108839217376],[108.56660480225823,12.58179508072448],[108.56634540233813,12.581795080768309],[108.56604785544654,12.582161291048612],[108.56577319769595,12.58238826585336],[108.56549090964663,12.582388264978656],[108.565193364106,12.582230909535271],[108.5649873693947,12.58181224676829],[108.56470508224555,12.581776960570346],[108.56456775254999,12.582091673345575],[108.56451434787203,12.582492216392758],[108.564621158773,12.582666738716181],[108.56465167692826,12.582963331584846],[108.56406421293292,12.58325992419362],[108.56359119044464,12.583207471107643],[108.56330890323825,12.582963331863976],[108.56306476329736,12.58298049776512],[108.56287402791968,12.583225591283199],[108.56287402767107,12.583486898861125],[108.56306476317042,12.583643301333797],[108.56329364344047,12.583766325323525],[108.56343097357542,12.583975179451054],[108.5634538620419,12.58416686849884],[108.56324023847503,12.58442912874086],[108.56284351010389,12.58453307946601],[108.56245441088963,12.584533079286125],[108.56222552864034,12.584602698022215],[108.56208819969899,12.584899290908718],[108.5617753945796,12.585231168961394],[108.56098956731375,12.585527762038772],[108.5602724040801,12.585475309421641],[108.55980701129236,12.585248336204657],[108.55928058284996,12.585248335699037],[108.55907458848405,12.58544002395073],[108.55900592501773,12.58568416508815],[108.55903644174866,12.585876807186649],[108.55921191793597,12.586085661523498],[108.55934924688567,12.586609228595329],[108.55925006509547,12.58690582108663],[108.5589677776995,12.586992605514562],[108.55872363679727,12.587219579839223],[108.55846423836387,12.587394103097012],[108.55811328586509,12.587394103201394],[108.55699939414117,12.58685336867133],[108.55633563689516,12.58667884745974],[108.5553209268519,12.586609228921526],[108.55499286304716,12.58680091743869],[108.55493945669966,12.586940154335146],[108.55504626900733,12.587097510003694],[108.55558032694883,12.58732448473249],[108.55570239721176,12.587428434741835],[108.55568713759206,12.587602957050564],[108.5554887738856,12.587647780053977],[108.5544664351135,12.587588652013117],[108.5540239295689,12.587736472537676],[108.55388660047988,12.587973937473016],[108.55405444775434,12.588582381444413],[108.55399341196205,12.588775023061887],[108.5538408248316,12.58886466896203],[108.55310077276148,12.588894231885389],[108.55267352655838,12.588864669150631],[108.55249042151826,12.589057311363211],[108.55243701564049,12.589353903690684],[108.55209369332916,12.589620932692176],[108.5520479170268,12.589903220321073],[108.55218524573003,12.590244635744208],[108.55213946991873,12.590482100730314],[108.55182666409834,12.590719565675606],[108.55159015272822,12.591149672274373],[108.55136890080938,12.591163977711513],[108.55124683037778,12.591238364634226],[108.55120105433791,12.59156452139202],[108.55087298999085,12.592425688812646],[108.55091113744126,12.592524871611062],[108.55117053748425,12.592796668672495],[108.55118579471272,12.593078002585148],[108.55108661339403,12.59319721174422],[108.5508043258732,12.593197211226727],[108.55059833227769,12.593078002792092],[108.55044574381155,12.592855796735922],[108.55029315604177,12.592849120595568],[108.55010242062103,12.592959746931077],[108.55001849816628,12.593315467276396],[108.54995746285337,12.593880042896462],[108.54969043433043,12.59401355680106],[108.54906482446758,12.593968733525697],[108.54857654219408,12.593746527521638],[108.5485841718836,12.59203658948029],[108.5489580116421,12.591088637256734],[108.54801196698216,12.590903624130464],[108.54792804361904,12.590775832507155],[108.54804248483562,12.59034858673588],[108.54804248487213,12.590106352228515],[108.5478593784662,12.590035781584005],[108.54743213276842,12.59012065854543],[108.54728717440949,12.589921340761924],[108.54720325061622,12.589465483839579],[108.54703540496891,12.589294776311709],[108.54663104721033,12.58905254292965],[108.5464174235255,12.589095458556953],[108.54605121304,12.589309081894568],[108.5458681064074,12.589351996804705],[108.54562396630237,12.589081153853874],[108.54524249636526,12.588939055462186],[108.5444719281471,12.588569029298334],[108.5441438635895,12.588156089629267],[108.54276294376267,12.58678947326386],[108.54217547949575,12.586388930275637],[108.54177112196558,12.5862592305841],[108.54121417673748,12.586292609333812],[108.5396425205779,12.587231978963802],[108.53729266744294,12.588193283347898],[108.5327989536916,12.589096412494818],[108.53023547720319,12.589278564629627],[108.52866382221927,12.58929096223938],[108.52745074838411,12.589221344241166],[108.5270006141998,12.58915935535024],[108.5234453161331,12.590904579625711],[108.52222461361536,12.591213569928716],[108.52068347531922,12.591287002360456],[108.51879138518046,12.591997491060047],[108.51783771165552,12.592484818032146],[108.5174180941594,12.593034134752891],[108.5169374425326,12.5934671029051],[108.51568622218333,12.593980179847241],[108.51509112898913,12.594412193910173],[108.51475543495796,12.59571968193783],[108.51435870787228,12.598398553268254],[108.51311511658116,12.602204667671392],[108.512191959973,12.60315834156147],[108.51114673285034,12.603935586819352],[108.51094836905003,12.604846345624091],[108.50144977192153,12.605116236636997],[108.49875659563155,12.604738581627275],[108.49796313816071,12.603910791140931],[108.49723834591776,12.600317346054068],[108.49628467089416,12.600100862061032],[108.493736453297,12.600286829516602],[108.49206561619155,12.60069118711397],[108.49063129041203,12.599909174267674],[108.48851031778672,12.59951530626852],[108.48712939769906,12.602030145690211],[108.48706073309593,12.602533685953693],[108.48600787733783,12.603128778978753],[108.48580951295038,12.606407511813764],[108.48564166621816,12.607557643484878],[108.48423022829184,12.611245501539523],[108.4784166295614,12.614393580317078],[108.47621173471235,12.617132533646993],[108.4771806674149,12.617962231149548],[108.47850818231481,12.618484843546957],[108.47852344147061,12.618869174670357],[108.47878284043497,12.619128573705988],[108.47981280877487,12.619870532568944],[108.48009509710448,12.620250095185293],[108.48025531370352,12.620808947912765],[108.48062915504579,12.621676791700395],[108.48154468220959,12.622808802787832],[108.48219318072941,12.623376240313751],[108.48284930792646,12.623832095516615],[108.48497028028861,12.629354824044212],[108.48538226764363,12.631121029267057],[108.48497028081675,12.631939280710704],[108.48468799353375,12.636103977379287],[108.48430652345681,12.63698231138489],[108.48464221699798,12.638198246807795],[108.4970705019071,12.65568577254041],[108.49375171505923,12.662971845054237],[108.49291248227819,12.664583553935497],[108.49283618863282,12.66520916563183],[108.49263782442772,12.6655210160337],[108.49267597121609,12.665941586378544],[108.49313373450376,12.666544309703887],[108.49323291653572,12.666808476463641],[108.49318714047139,12.666943898150363],[108.4923479070236,12.667479863228401],[108.49210376654,12.66747986365847],[108.49159259691668,12.667072644067453],[108.49136371509283,12.666991582761224],[108.49107379796449,12.667120328149604],[108.49078388109787,12.66711365224374],[108.49031085849022,12.666869512667592],[108.49013538249024,12.666829457862269],[108.49006671777018,12.666943898164762],[108.49011249398104,12.667445531307685],[108.4896471015678,12.667716374454242],[108.48955554839839,12.668095937937132],[108.48958606650753,12.668326726400988],[108.48976154188409,12.66851650737335],[108.48973865392887,12.66863190278314],[108.48963184234381,12.668699613287474],[108.48904437969614,12.668577542645178],[108.48887653207304,12.668686261399213],[108.48867053966222,12.669031491897286],[108.48864765019943,12.669241300368997],[108.48875446218892,12.669668546718825],[108.48914356174886,12.670115819758827],[108.48924274304969,12.670345655023697],[108.48918933698239,12.670420995265376],[108.48902149107393,12.670413365368352],[108.48857898676019,12.670183530975192],[108.48841876800896,12.670196882028536],[108.48825092246223,12.670373311245708],[108.48802966973177,12.670860639512888],[108.48802966928243,12.671023717795245],[108.48824329261627,12.671355596326668],[108.48846454551682,12.672419896452931],[108.48842639811411,12.672494283812215],[108.4882204043405,12.672527662104587],[108.48797626475742,12.672385564577656],[108.48769397674629,12.671952596556467],[108.48735065319975,12.671822897023782],[108.48719043649196,12.671680798420459],[108.48715991853936,12.671525351143307],[108.48719043602344,12.671172491019565],[108.48715228930747,12.671071401376057],[108.48703784829334,12.670969358047854],[108.48686237225569,12.670956006695995],[108.48661823145788,12.67107807652824],[108.48645801413201,12.671294560480415],[108.48651904931216,12.671762814583222],[108.4864809021933,12.672649733061187],[108.48657245517718,12.672914854036307],[108.48681659652193,12.673117987067958],[108.48685474352334,12.673205724582084],[108.48678607803551,12.673334471309714],[108.48628253867777,12.673483243737747],[108.48594684536944,12.673748364982053],[108.48567981674765,12.674466481795195],[108.48553485784099,12.674676291040734],[108.48543567576277,12.675157896202348],[108.48512287070683,12.675631872225697],[108.48497028250412,12.675937048260703],[108.48501605949676,12.676181189074608],[108.48533649341933,12.676519743080151],[108.48579425747194,12.677129141373717],[108.48622150341946,12.677278868412552],[108.48673267260936,12.677393309015816],[108.48683185435459,12.677468648617713],[108.48684711336827,12.677604070814601],[108.48665637829198,12.677719465132466],[108.48595447499605,12.677848211439326],[108.4856416697051,12.677955975934491],[108.48534412258448,12.67834221513337],[108.48500842948697,12.679169050431858],[108.48481006590646,12.679548613056538],[108.484695624611,12.67956196401817],[108.48449726091062,12.679474226647297],[108.48437518958889,12.679345480229975],[108.4842836373566,12.679101339122395],[108.48422260257536,12.679067961612306],[108.48413104963748,12.679081312402728],[108.48407764324301,12.67916904981419],[108.4840623843804,12.679399839236703],[108.48444385510105,12.680124631880618],[108.48445148389189,12.68026005439405],[108.48440570777761,12.680294386020405],[108.4842302313798,12.680266729241403],[108.48404712550223,12.679941526561503],[108.48397083158746,12.679893843142175],[108.48387164986556,12.679921499671456],[108.48385639138463,12.680050245599865],[108.48398609059144,12.680409780890242],[108.48427600736008,12.68094479195673],[108.48427600766207,12.681290976116358],[108.4841920844264,12.681568495572002]]]]}}]}