{"type":"FeatureCollection","name":"gis.vn","features":[{"type":"Feature","properties":{"ma_huyen":"646","ten_huyen":"Ea Súp","loai":"Huyện","cap":2,"stt":4,"ma_tinh":"66","ten_tinh":"Đắk Lắk"},"geometry":{"type":"MultiPolygon","coordinates":[[[[108.01209279032497,13.10285225664474],[108.01276417612135,13.102651983780314],[108.0132982343673,13.102651983950382],[108.01411457953544,13.10318508819797],[108.01569386470157,13.102935224997148],[108.01654072769475,13.102535636162427],[108.01697560275586,13.102451713003875],[108.01727314938202,13.102502256851375],[108.01750966046885,13.102768332407186],[108.0179216479867,13.103468329328736],[108.01832600586214,13.103567511352473],[108.01897450447973,13.103517920400607],[108.01980610828599,13.102102668212915],[108.02070637680038,13.10176888210467],[108.02140828037415,13.102002531430639],[108.02333851741994,13.10296860388642],[108.02466603276723,13.103984266846448],[108.02488728510664,13.103950888662984],[108.02511616698295,13.103684812849856],[108.02563496608744,13.10368481246878],[108.02606984178313,13.103917509316279],[108.02623768797685,13.104350477671856],[108.02643605196309,13.104616552307597],[108.02660389905009,13.104600341061333],[108.02721425101309,13.104216964055691],[108.02744313318387,13.10376587596233],[108.02768727323273,13.103409202010562],[108.02784748969621,13.102795034661487],[108.02780934243499,13.102433592962566],[108.02785512016597,13.102072149262986],[108.02837391887763,13.101411253448651],[108.02913685809001,13.100950628677206],[108.02977009816551,13.101000219775903],[108.03067799586441,13.101476103353647],[108.03173085173022,13.101788908383956],[108.03233357407571,13.101821332871902],[108.03274556223876,13.101723104290588],[108.03305836649729,13.10126343314877],[108.03332539584575,13.101016432129388],[108.03381367675526,13.100950628384707],[108.03519459689839,13.100918203169059],[108.03691884119567,13.101443677802143],[108.03755970985272,13.10201874271575],[108.0379564376967,13.102215200301867],[108.03849812537183,13.102018743300306],[108.03884144768502,13.1010498095441],[108.03923054695329,13.100340276964799],[108.03977223388522,13.100059895683827],[108.04076405521552,13.099735646799022],[108.0418321705764,13.099686055622218],[108.04193135251737,13.099932103976995],[108.0416795833603,13.10054054748425],[108.04163380569851,13.100868612009966],[108.04187794747314,13.101443678206461],[108.04241963372556,13.102002530896035],[108.04317494419182,13.102133183649924],[108.04418202390934,13.102478413419346],[108.04486867041341,13.102626233955792],[108.0459520442945,13.103037267819461],[108.04631062516353,13.103003888415943],[108.04659291288456,13.102560429421883],[108.0466081717369,13.102034955724575],[108.04711934095063,13.101673512227071],[108.04834767407812,13.100441365493994],[108.04918690665137,13.099949269229196],[108.04842396688791,13.097295193846895],[108.04827900897281,13.091817288333228],[108.04767628619886,13.088293462227133],[108.04754658669731,13.086827663961339],[108.04736348147071,13.086606411876147],[108.04748555152436,13.085557369721522],[108.04733296307589,13.085161595097752],[108.04601307806666,13.084089664517716],[108.04574604968978,13.083735851492516],[108.0447237098367,13.083154111390531],[108.04460926951451,13.081718830820455],[108.04399891771651,13.080831914339532],[108.04348774798794,13.080003171264199],[108.04265614438276,13.078238872487717],[108.04239674501898,13.07797279760822],[108.04172535745228,13.077702907749712],[108.0413286296658,13.077303318765848],[108.04089375363733,13.076332477621047],[108.04035969538408,13.076107410763983],[108.04013844390651,13.076104549616238],[108.03932209926307,13.076710132719768],[108.03887959421326,13.07674827957932],[108.03852101191723,13.076437382599806],[108.0383455361012,13.076040654022735],[108.0383073885269,13.075601009687986],[108.03817768977326,13.075336842132177],[108.03719349811873,13.075062183863102],[108.03688832129323,13.074882892635717],[108.03634663479002,13.074025539591387],[108.03595753533176,13.073972134261997],[108.03562184116468,13.073965459090534],[108.03524800136022,13.074008374274303],[108.0350725257591,13.074065594181894],[108.03471394466382,13.074324993597623],[108.03444691580357,13.0746377988457],[108.03381367557535,13.075572400033355],[108.03341694706624,13.07592049117701],[108.03286763051365,13.076046375936258],[108.03255482592601,13.076043515600297],[108.03241749694018,13.075964360578633],[108.03013630794429,13.073918729363957],[108.02970143114146,13.07378235289158],[108.02926655606586,13.073382764534216],[108.02781697139056,13.072329907008935],[108.0265428625508,13.0712513026533],[108.02594776966508,13.070655255307061],[108.02579518081315,13.070557979969799],[108.02549000606932,13.07045307587385],[108.02519245940947,13.070432095236946],[108.02358265676443,13.070629506407716],[108.02158375600308,13.070795445570683],[108.0207979283172,13.07078400155203],[108.01902027908545,13.07015839170174],[108.01713581887459,13.069759755591843],[108.0157548975728,13.069087415229632],[108.01479359346128,13.068064122877201],[108.01393147292416,13.06677952333502],[108.01307698028405,13.065762906671752],[108.01200123543924,13.064629941488649],[108.0116273955407,13.064137845941522],[108.01145191914237,13.063436894654387],[108.01081104890298,13.058570294127314],[108.01068135003867,13.057847409115626],[108.01051350319479,13.057405858170013],[108.00985737549343,13.056377797331729],[108.00933857663361,13.055878072608959],[108.00804157871335,13.054799466098297],[108.00760670391239,13.054371266673998],[108.00704975839713,13.053580670409273],[108.0067445823252,13.05307426903633],[108.0063936296101,13.052822499521888],[108.00589771878778,13.052800565157142],[108.00566883764859,13.052887349691277],[108.00511952119744,13.053200154665051],[108.00495930405886,13.053192525364514],[108.00407429414885,13.05291977481939],[108.00385304210984,13.053013234083544],[108.00377674811565,13.053139119109193],[108.0037004541766,13.053404240852336],[108.00370045410057,13.053570180181344],[108.00376148908738,13.05378571082697],[108.00395985281801,13.054303555536343],[108.00371571280436,13.05527725733799],[108.0037996359427,13.056611447753047],[108.0037309708007,13.056715398625535],[108.00356312536498,13.056833653412266],[108.00296803236252,13.057028203660291],[108.0026704853926,13.057028203819712],[108.00173207054574,13.056805043775054],[108.00109120110474,13.056557088332188],[108.00029774413596,13.055902867760938],[107.99999256835784,13.05545750189111],[107.99987812653391,13.054990201613354],[107.99993153275923,13.054263502044943],[107.99977131577099,13.053821951083584],[107.9992601457261,13.053038029853731],[107.998878675502,13.051786809276189],[107.9989397116427,13.050856023517849],[107.99900837538691,13.050248532364806],[108.00105305369944,13.044886021458263],[108.00106831262084,13.044526486405948],[108.0009386128369,13.04396381805596],[108.0003435195172,13.042936710922033],[108.00000019639,13.042599109802373],[107.99929066348133,13.042147068837224],[107.99897785823674,13.041851430535626],[107.99869557068813,13.041312604159577],[107.99835987679312,13.040087132623414],[107.99831410000414,13.03720036050675],[107.99861164730089,13.035841374433756],[107.99875660497906,13.035485653899105],[108.00029774257244,13.034343151685583],[108.00045795999627,13.034098057437324],[108.00051136554637,13.033893971202426],[108.0005800297386,13.033134846158068],[108.00110645873707,13.031316189495884],[108.0011903814262,13.030763057235545],[108.00115986349601,13.030608562735829],[108.00106068183356,13.030464557764725],[108.000763135484,13.030302433995171],[107.99992390142533,13.030015377496435],[107.99942036157044,13.02988567803386],[107.9982988404439,13.029853252809568],[107.99811573543222,13.029763607921637],[107.99797840697977,13.029652027458141],[107.99714680231075,13.02779045605376],[107.9967882208575,13.02734413606734],[107.99663563286788,13.027290729440235],[107.99650593364619,13.027279285503939],[107.9963304573477,13.027329830303348],[107.99620838636868,13.027430919962246],[107.9961931284536,13.027520565562103],[107.99584980543936,13.028174785595814],[107.99501057191485,13.028721242074432],[107.99473591377851,13.028760341574543],[107.99451466184448,13.028725055981049],[107.9939806031621,13.028404621974442],[107.99304218874241,13.027510074499222],[107.99301929906505,13.027193455918622],[107.99381275628292,13.025194554110058],[107.99388142139668,13.024763493078927],[107.99384327485012,13.02453747236882],[107.99367542736216,13.024407773070758],[107.99323292193814,13.024339107453745],[107.99269123575691,13.024332432551969],[107.99166126737542,13.024848369763685],[107.99149347656467,13.02491514879373],[107.9909975103335,13.025112537686361],[107.99077625708358,13.025080112917522],[107.99050159915556,13.024954227610008],[107.99025745950988,13.024753003114576],[107.98979206640608,13.02453747252668],[107.98935719050564,13.024397281686023],[107.98886890902268,13.02400818259509],[107.98864002749433,13.023897556797808],[107.98824329799663,13.023893742242914],[107.98785419880986,13.023972896864914],[107.98751850606754,13.023922352707025],[107.98567219197082,13.023375897128007],[107.9849245120721,13.02299538134231],[107.98360462666318,13.022534756483997],[107.98340626173349,13.022430805845797],[107.983261304475,13.022240071503376],[107.98311634477906,13.021873860114283],[107.98320789846875,13.02123012977244],[107.98321552726344,13.020730404842302],[107.98309345685317,13.020334629894105],[107.98298664641166,13.020173459346145],[107.98276539287745,13.020015149035213],[107.98255939883005,13.020015149063369],[107.98209400566856,13.02009430375758],[107.98136921373398,13.020428089879509],[107.98110981516189,13.020687489054854],[107.98091907979592,13.021100430091503],[107.98076649167554,13.021549611606542],[107.98055286937559,13.02168980110979],[107.98008747638436,13.021858601598378],[107.97961445334607,13.022264867492101],[107.97837849143151,13.022886662367808],[107.97778339905422,13.023023991257388],[107.97708912414276,13.02311745107289],[107.97686787094898,13.023203282024804],[107.97665424844682,13.023469357073862],[107.97644062484665,13.023980527080372],[107.976463512688,13.024657635554465],[107.97637959041671,13.025320439728418],[107.97618885548133,13.025863080314007],[107.97599812014043,13.02607861033215],[107.97489948724015,13.026604085572133],[107.97431202406672,13.026679425530373],[107.97383900208087,13.026618390837697],[107.97313709736764,13.026287465481492],[107.97232075244372,13.02564754994454],[107.97219105242034,13.025428204667916],[107.97193928175675,13.024507909568637],[107.97180195314354,13.024288564305452],[107.97119923069262,13.02394428801973],[107.97041340323514,13.023843198726318],[107.9699403810203,13.023580937376673],[107.96929188205695,13.023012547368715],[107.96855946077021,13.022089391573408],[107.96821613796543,13.021837621818415],[107.96791859105478,13.021722226397255],[107.96716328040657,13.021883397582494],[107.96679707002855,13.022097020494726],[107.96668262906215,13.021856695176943],[107.9666521115138,13.02146187361499],[107.96131916419974,13.018094449812548],[107.96057911363194,13.017341047087323],[107.96044178403388,13.017119794643147],[107.95710773787039,13.015065579846038],[107.95775623750522,13.014535336513507],[107.95826740583263,13.013463406707197],[107.9586717642921,13.013112454892646],[107.95870991156578,13.013001828376234],[107.95863361748074,13.01268807005382],[107.95865650507318,13.012452513112155],[107.95888538715947,13.01203766337576],[107.95891590488517,13.011604696062319],[107.95903034570556,13.01131096412658],[107.95961780918289,13.010130316016683],[107.95990772645811,13.009841351444896],[107.96019001421418,13.009648709969706],[107.96063251856346,13.009422688554412],[107.96099873025304,13.009292989627793],[107.96117420644691,13.009302525308518],[107.96186339192617,13.009519797752173],[107.96264667915139,13.009817509346643],[107.96306629512382,13.01006737263218],[107.96344013607819,13.010689168772062],[107.96364612918634,13.010708241282511],[107.96324177187964,13.00966110745642],[107.95977039723047,13.007506757587391],[107.95583362873387,13.001800923362046],[107.95452137311783,12.99958649165138],[107.95320148713303,12.997694402134501],[107.95121784526938,12.994513898299823],[107.95050831101946,12.993263631151242],[107.94905872626315,12.99090614809793],[107.94872303326403,12.990250974676439],[107.94711323066572,12.987873463652601],[107.9450151467688,12.986892133714207],[107.94124622559495,12.98544922312081],[107.93846912574347,12.984288602666345],[107.93691272908889,12.983699231214999],[107.93571491427181,12.983597188406664],[107.93473072257103,12.983566670308138],[107.93285389125923,12.983619122516187],[107.93141193629258,12.982934384894483],[107.9308092128881,12.982721715489863],[107.92841358428065,12.981712727711406],[107.92689533411348,12.980924039780549],[107.92623920633947,12.980628400729161],[107.92523212597531,12.979749112829209],[107.9246675507801,12.979316144707845],[107.92410297550241,12.978788762824916],[107.92361469365088,12.978397756109628],[107.92314930107814,12.978135495924144],[107.92279834854078,12.97825089069286],[107.92213459134521,12.978319554908504],[107.9214555755581,12.978204161004603],[107.92095966501859,12.977993399457947],[107.92015094860828,12.97800007402196],[107.91976947960693,12.978269964453096],[107.91954059752658,12.978630453280893],[107.91891498633684,12.978594213446362],[107.91821308260982,12.978396803524348],[107.9178621309945,12.97839680295956],[107.91770954291938,12.978342442735272],[107.91753406690079,12.978132635078355],[107.91743488428841,12.9778198303885],[107.91727466640559,12.977658659071153],[107.91671772179127,12.977369696144843],[107.9167024628607,12.977154165553056],[107.91680927392902,12.976913838872798],[107.91682453213005,12.976680188886556],[107.9166414276914,12.976445585418675],[107.91645832170816,12.975798039920491],[107.9163515102157,12.975671201700775],[107.91584034068948,12.975683599385214],[107.91563434725595,12.97560539849984],[107.91538257702162,12.975575833852012],[107.91499347831403,12.975059896386155],[107.91450519616907,12.974921614467359],[107.91414661558692,12.97485581051663],[107.91371936932035,12.974939732940177],[107.91339893427264,12.974879652629367],[107.91315479348414,12.974699407536226],[107.91296405951357,12.974633604186195],[107.91242237251575,12.97489777189973],[107.91229267211669,12.975044638098899],[107.91201038466325,12.975188642415747],[107.91159076852031,12.97571030241523],[107.91132373962213,12.975710302212068],[107.91074390559834,12.975860983632957],[107.9106065764163,12.975968748349043],[107.91044635800627,12.976478964449983],[107.9097826016665,12.977031141897562],[107.9093172084605,12.97700729915568],[107.90886707407446,12.977240949813243],[107.90793628841871,12.977306753729971],[107.90782947606729,12.977324873872595],[107.9077684416372,12.977379232541814],[107.90762348201794,12.977173239826875],[107.90762348238727,12.976915747885982],[107.90753955973162,12.976733595850524],[107.9075319301485,12.97654190661493],[107.90757770592623,12.976344496460413],[107.90778370034651,12.976253897549682],[107.90807361731638,12.976188093923078],[107.90812702275457,12.976122290741396],[107.90809650557446,12.97585907507881],[107.9078981409972,12.97550049471789],[107.90785999401484,12.975389868156725],[107.90787525235416,12.975298315098351],[107.90798206468952,12.97525349258036],[107.90810413426122,12.97527351941875],[107.90841693918843,12.975465208113429],[107.90885944410702,12.975864797607885],[107.90903492003817,12.975909620394578],[107.90911884388926,12.975854307172666],[107.90909595636018,12.975722700480139],[107.90919513790477,12.975060850737638],[107.90943164882096,12.97429791150301],[107.9097673424055,12.973737150371146],[107.9097597133963,12.97349968498206],[107.90887470341157,12.971514135619081],[107.90885944431395,12.971352011086415],[107.90985889516003,12.97095528251504],[107.9099580769838,12.970803647969063],[107.9104539880677,12.969642073342083],[107.9105150233875,12.969424634902103],[107.91048450507517,12.969141394407083],[107.91056842943851,12.968989759090126],[107.91062946397548,12.968969731981003],[107.910774421967,12.969030766678314],[107.91183490840257,12.969954877953665],[107.91203327248274,12.970015913396706],[107.91223926634807,12.969960600475327],[107.91231556042571,12.969758421184483],[107.91231556027653,12.96953049340284],[107.91241474190763,12.969182402021747],[107.9125749591227,12.969126135066348],[107.9134141933322,12.969288259206262],[107.91353626276049,12.969268231614507],[107.91368885137118,12.96905556311869],[107.91391773316994,12.96860066008781],[107.91436023789872,12.96823254232366],[107.91450519586697,12.968004614096527],[107.91481037220692,12.967822461695034],[107.91543598228871,12.967782408227057],[107.9157869351894,12.967828184234676],[107.91651935606502,12.968140989122775],[107.91709156104228,12.968136221140167],[107.91720600227553,12.96799984455242],[107.91724414957781,12.967670827819292],[107.91738910757168,12.967459112070616],[107.91761036010357,12.967382817366904],[107.91764850753162,12.967292219147664],[107.917610360516,12.966857343917626],[107.91768665414813,12.96676674413032],[107.91782398290884,12.966766743807224],[107.91798419966965,12.966948895986501],[107.91815967620207,12.966993718735223],[107.9184648523293,12.966887860792589],[107.9189226159229,12.966645627276673],[107.91905231540753,12.96640816237114],[107.91931171539746,12.96632710092173],[107.91935749138025,12.96626129650554],[107.91936512091509,12.966064839822437],[107.9194490445263,12.96593800048154],[107.919784737367,12.966180234702238],[107.92002124915912,12.966160207715347],[107.9199449551901,12.96588268712025],[107.92003650711123,12.965771107797769],[107.9202959070045,12.965604214545102],[107.92102069871713,12.965426831372683],[107.9214860925306,12.965419202840996],[107.92182941466183,12.965467839799734],[107.92203540940513,12.965617566563433],[107.92241687774002,12.965087323053284],[107.92276783069369,12.964473157283887],[107.92298908314761,12.964166074711295],[107.92427082065919,12.963348775510061],[107.92507190790425,12.962889104571198],[107.92565937089417,12.962396054565042],[107.92420215703062,12.961945920493049],[107.91847248075236,12.961635976207797],[107.91680927245753,12.96148052716263],[107.914947700521,12.961450009455328],[107.9107057576411,12.961981207027968],[107.90559406313066,12.963592916341122],[107.90390033805089,12.964016348569738],[107.90184040076295,12.964386373388786],[107.89262409223342,12.967802435489917],[107.88711566943921,12.970796973323187],[107.8870241166183,12.970965773346999],[107.88629169459671,12.971399694919882],[107.885780525302,12.971480758461448],[107.88552875611359,12.971611411481604],[107.8851167683943,12.97229519529122],[107.88497943886777,12.972425849013723],[107.8842699053838,12.972471625458061],[107.88349170751702,12.972763450428246],[107.8831560132459,12.972986609778747],[107.88276691460315,12.974075705586909],[107.88243122180725,12.974691779934014],[107.88170642902965,12.975426108341656],[107.8812105190186,12.976206214993763],[107.88016529082908,12.977666289918588],[107.87909717627106,12.979481132166446],[107.87648029412516,12.982873352528703],[107.87578601944568,12.983484657307194],[107.87531299686705,12.983734519914956],[107.87455005658784,12.983924301591426],[107.87223072068547,12.984025391818925],[107.87122364112457,12.984326752456342],[107.86983509096187,12.984546097193725],[107.86927051570937,12.984533699807587],[107.86874408798717,12.984366806677096],[107.86798114828805,12.983835609876346],[107.86766834257506,12.983785065204252],[107.8636934290974,12.984367760443218],[107.86108417597907,12.984382066179577],[107.86050434157205,12.98427430076511],[107.85874958055727,12.983514222099096],[107.85846729289025,12.983442696878141],[107.85761280063205,12.983344467710046],[107.85629291573234,12.983514222486534],[107.8548433306845,12.98432770647834],[107.85364551602706,12.984766397008794],[107.85311145738413,12.985195550525518],[107.85298175908967,12.985418710157042],[107.853431892267,12.986652764263065],[107.85338611712409,12.987028512632364],[107.85275287636716,12.988950166526227],[107.85237140690805,12.989427003157342],[107.85133380944208,12.990229997762919],[107.8499147421503,12.991722497913642],[107.84732837664552,12.993542109314935],[107.84564991085846,12.994783793416651],[107.84542102866915,12.995109949134147],[107.84538288166348,12.995511446205574],[107.84586353426921,12.996263894773296],[107.84597797495607,12.996527108769207],[107.84605426878235,12.997417841496892],[107.84601612226476,12.998822603377986],[107.84423847278377,12.99888173130401],[107.8427736292433,12.998676691183029],[107.83989734710693,12.996549044611934],[107.83774585763338,12.995381746844542],[107.83655567165302,12.994953547376612],[107.83567066311976,12.99513665246325],[107.83463306428673,12.99551049233253],[107.82949085294216,12.996465120499032],[107.82187671665054,12.996714029833976],[107.81873340687407,12.99780312677232],[107.81514759033344,12.99989072003086],[107.81286640194433,13.000504887001403],[107.81224079182363,13.000231181648173],[107.81190509865003,13.000269328408175],[107.81127948743618,13.000527774944858],[107.81072254132603,13.000671779658745],[107.81026477823511,13.000738536979412],[107.80317706991826,13.00046578615045],[107.7956926343357,12.99935857018538],[107.79312152809037,12.998731053591015],[107.78806323975748,12.996466076334395],[107.78149433040973,12.994624531689173],[107.76933307553092,12.991709150374719],[107.76818866673536,12.993937886278458],[107.76634235268695,12.995183385177214],[107.7659990304094,12.997226156077007],[107.76129932340302,13.003464140023103],[107.76034564875499,13.003391661138297],[107.7600328432872,13.003453650560914],[107.75922412803104,13.004023947686026],[107.75829334128095,13.00428334646502],[107.75806445975734,13.004645742944076],[107.75768299103889,13.005008139824833],[107.75678272161294,13.005195059354172],[107.75653095135155,13.005391516152073],[107.75598163584303,13.006034292770144],[107.7553483956849,13.007091917996219],[107.75540180134851,13.00725785777553],[107.75569171877902,13.007526793552323],[107.75569171905839,13.007682242598838],[107.7556383127422,13.007744230784303],[107.75500507301587,13.007899679692306],[107.75444812665737,13.008138098963826],[107.75364704102992,13.008625427159963],[107.74946613239682,13.012077727632358],[107.74247760662539,13.018824973669151],[107.73846454557838,13.020884911253011],[107.73691577897777,13.020809571172444],[107.73651142083128,13.020915428067212],[107.73543567580174,13.021677414324905],[107.73499317054045,13.021889130103359],[107.73420734439645,13.022088448204972],[107.7338487618903,13.022250573039422],[107.73359699171,13.02244988982574],[107.73301715762439,13.02332250188056],[107.7326433181107,13.023746888559794],[107.7307970039115,13.0254291696729],[107.72946185969394,13.02629892081996],[107.72912616746862,13.026650826220013],[107.72888965635487,13.027049462479512],[107.72866077377313,13.02766076788008],[107.7285844804853,13.028426567833392],[107.7285234451831,13.028580109751978],[107.72832508156282,13.028797547767212],[107.7249376288275,13.031864564089698],[107.72483081780597,13.032069604284313],[107.72479267087043,13.032811562816052],[107.72466297175862,13.033795754923528],[107.72446460692501,13.034562509517215],[107.72422809674407,13.03500215293518],[107.72340412184843,13.035995880782107],[107.72108478510809,13.038520257018922],[107.72102375021812,13.038763444844406],[107.72098560327068,13.039798181161565],[107.72081775614568,13.040122430642633],[107.71847553276433,13.043534678094485],[107.68852252994438,13.06806222980389],[107.68750019121845,13.068546695921324],[107.68696613383864,13.068905278354434],[107.68676776991477,13.069219990622216],[107.68659229318406,13.069815082867777],[107.68611164236573,13.07031099425703],[107.68587513049579,13.070640965335238],[107.68574543106027,13.071037694655292],[107.67941303331379,13.071154042263894],[107.67826099479663,13.071483059840633],[107.6641847620018,13.06951658463502],[107.65448017183301,13.06992666440156],[107.65053577429443,13.070573255758058],[107.64717121147774,13.071738645727066],[107.64455432927129,13.071649001586913],[107.64199085233984,13.071866439771522],[107.63706226386903,13.073143408859734],[107.63504810335218,13.075115608186945],[107.62625141126586,13.073786185852512],[107.61907215130063,13.073997902181906],[107.61376209162705,13.075782226414482],[107.60571308142582,13.07757227386262],[107.60031909857003,13.077928948371454],[107.59004230449905,13.08024923942983],[107.58689899417847,13.080203462313632],[107.5861284251243,13.08091967262825],[107.58176441128236,13.08140699898444],[107.58019275530333,13.083047319310182],[107.57701892788101,13.08374445542231],[107.57501239682058,13.084970881238048],[107.56404895658527,13.086613107966903],[107.55801410596344,13.088600566597986],[107.5482942575748,13.08888762319362],[107.51941699800473,13.08384268750036],[107.51251239515916,13.086131505781955],[107.55963917167897,13.195588523719398],[107.60657521339066,13.30430358341216],[107.60905476718834,13.305530008346198],[107.61251851164025,13.306976732180837],[107.61469288894368,13.307633814200905],[107.61497517746042,13.310163912159709],[107.61533375959543,13.311250147051775],[107.6156313051795,13.311665949701643],[107.61614247431403,13.311990198781015],[107.61763783665695,13.312539514962221],[107.61882802146157,13.31269019508051],[107.61984273137499,13.312632975003151],[107.62127705769092,13.313040193987643],[107.62422963355223,13.315096316151982],[107.62483235536708,13.315262255212662],[107.6254655941891,13.315262255531128],[107.62596913442978,13.31512778666527],[107.62711354414311,13.314534600971827],[107.62780018929135,13.314254220897903],[107.62824269450283,13.314202722547684],[107.62873097530898,13.314275202316031],[107.62913533392673,13.31453460087185],[107.62953206293449,13.31489890489905],[107.62973805603033,13.31528323591943],[107.6299593086936,13.316208300383307],[107.62989064424183,13.318901475770426],[107.62990590247254,13.319858011152128],[107.63000508517484,13.320200380284053],[107.6304399611748,13.320803102785145],[107.63096638932397,13.321229395258351],[107.63194295091861,13.32168715886093],[107.63275929693656,13.32189505996249],[107.63344594164118,13.321905550425976],[107.63830586649645,13.321687158407254],[107.63871022456125,13.321759637467908],[107.63919087662043,13.322134431731662],[107.63945027626053,13.322591241847995],[107.63955708713998,13.323235925363283],[107.63961812215224,13.326958117052518],[107.63977071057549,13.328153070640214],[107.6400758862773,13.328776774434948],[107.64034291531452,13.328984675311418],[107.64078542093209,13.328984675315633],[107.64112874236997,13.328880723985137],[107.64487477547647,13.326157030040097],[107.64550038592846,13.325762208269191],[107.64662190663852,13.325502809470176],[107.64725514634964,13.325418885111253],[107.64827748565708,13.32547133716291],[107.64891835473068,13.32567923873364],[107.64942952479642,13.326219972396903],[107.64976521766854,13.326759751780914],[107.64991780582349,13.327779229806563],[107.64970418274366,13.329067643393508],[107.64974233007825,13.330097612639976],[107.6501390580405,13.332945283998008],[107.65020009424812,13.334234652086664],[107.64985677128409,13.33628219002986],[107.64923116002446,13.340825494994068],[107.64925404972129,13.341595110521398],[107.64945241350681,13.34211486301772],[107.64981862448697,13.342550692081243],[107.65025349921346,13.342811044976148],[107.65081044568599,13.342925486460587],[107.65393086741558,13.342613633552867],[107.6546404013067,13.342738565639582],[107.65508290617142,13.342956957376874],[107.65605183992884,13.344391283175552],[107.65690633205853,13.346105990183322],[107.6574632778967,13.346688684864294],[107.66005727174161,13.348455842903162],[107.66140004569118,13.349516329052069],[107.66287251921663,13.35037940354279],[107.66375752869484,13.350649294305633],[107.66438313900171,13.35079520571768],[107.66586324243396,13.350763734914919],[107.66722127437775,13.350492890488383],[107.66900655221217,13.349630769160045],[107.66955586781161,13.34948485719831],[107.67037984330332,13.349442895640228],[107.67081471932161,13.349599298381362],[107.67165395260973,13.35024398177235],[107.67221852714204,13.35111659381443],[107.67261525637714,13.352240022241963],[107.6730577610553,13.354329522402635],[107.67393514138057,13.356595452386694],[107.67433186918491,13.357259210515949],[107.6749269628297,13.357708390936885],[107.67836781926918,13.35925525072409],[107.68099996062215,13.360718186451964],[107.68207570585913,13.361122544544086],[107.68305989763353,13.361878808123903],[107.6839983132823,13.36344378859615],[107.68447133616073,13.363789018690102],[107.68497487570818,13.36393493070521],[107.68540212162335,13.363924440722071],[107.68581410931404,13.36371653901422],[107.68650075494483,13.363228257832567],[107.68756124103787,13.362042840280166],[107.68836232713613,13.361876901127214],[107.68894216111654,13.362042840150252],[107.68928548414101,13.362323220025596],[107.6894304424063,13.362791474108265],[107.6895143664953,13.365005906056195],[107.68974324678265,13.365795549168366],[107.69111653803589,13.368209298661194],[107.69197866045661,13.369430955098856],[107.69301625833883,13.370671685068201],[107.69390126730528,13.371437486626782],[107.69583150474438,13.372748788298386],[107.69732686704668,13.373336251645226],[107.70158406863011,13.374475892433392],[107.70389577519138,13.374933656346647],[107.70436879817414,13.37489169403175],[107.70609304124096,13.373999054984434],[107.70663472775128,13.373579437655748],[107.70722982115618,13.373046333727546],[107.7080003887344,13.372012551097665],[107.70880910522179,13.370453293382583],[107.70909139326844,13.370078499698138],[107.70961019198958,13.369745667241016],[107.71007558476497,13.36966269790228],[107.71056386623236,13.369798119712307],[107.71115895860557,13.370130952033652],[107.7117387924679,13.370952065552762],[107.71192189794688,13.371627267059834],[107.7120821158423,13.37268775250792],[107.71233388630804,13.373114045027629],[107.71308156652486,13.373644288050471],[107.71450826269857,13.374060089920974],[107.71604940161076,13.37427848172865],[107.71714803384664,13.374195511957499],[107.71781179088677,13.373862679174128],[107.71872731834145,13.373072083796194],[107.71926137628091,13.37228244077791],[107.71992513263233,13.37046283001009],[107.72024556760115,13.36971514911465],[107.72067281381962,13.369433815354084],[107.7214128653273,13.369288857242298],[107.72286244971002,13.369319373976873],[107.72463247006297,13.369516785250791],[107.72502919805285,13.3693718259404],[107.7255708855282,13.368862564125308],[107.72588368976515,13.368269378510124],[107.72623464194673,13.367885047842146],[107.72705861665527,13.36730330646184],[107.7287065659783,13.366461211693156],[107.729629723313,13.36613886958358],[107.7301256339647,13.366159850299555],[107.73463460652773,13.36732333371266],[107.73577901513305,13.36745875531905],[107.7369310542212,13.367303306102409],[107.73757192286617,13.367146903574174],[107.73810597982498,13.36685603269461],[107.73871633257518,13.366253309958564],[107.73976918857915,13.364839011294986],[107.74019643410762,13.364412719409586],[107.74054738751468,13.364246779355502],[107.74095174405426,13.364228659941762],[107.74265309906181,13.36435931318023],[107.74448415438196,13.364733153188022],[107.74517080025701,13.364723617310451],[107.74602529254219,13.36442320908831],[107.74737569490435,13.363685064489314],[107.74817678173902,13.363404685034098],[107.74867269248662,13.363386565106676],[107.74922963832408,13.363469535055904],[107.74980947274763,13.363713675593637],[107.75082418181145,13.364368849245947],[107.75113698618772,13.364665441322515],[107.75145742149294,13.365117483225537],[107.75158712053414,13.365554266718096],[107.75165578545965,13.366530828492884],[107.75165578569988,13.367217474433787],[107.75146505035849,13.368864469615666],[107.75152608555123,13.369203024876759],[107.75172445074712,13.369582586497232],[107.75200673809563,13.369770460879238],[107.75238057758754,13.369788580818838],[107.75265523644761,13.369756156081106],[107.75499746098,13.368719511693719],[107.75582143437396,13.368636541614693],[107.75930806922491,13.369613104933315],[107.76029226124359,13.370122366783452],[107.76117726987927,13.370938711831572],[107.76203176255156,13.371920996610633],[107.7624132320436,13.372089796033421],[107.76283284895969,13.37207263081141],[107.76322957783096,13.371926718615269],[107.7634737175412,13.371672087785011],[107.76352712360108,13.371307782974924],[107.7623140494075,13.36883681290997],[107.76210042721324,13.368058615391728],[107.76209279816493,13.367551260077091],[107.7622835329713,13.366884642636215],[107.76242849077036,13.36661952043074],[107.76354238232885,13.365580014729575],[107.76432058028153,13.364920072967173],[107.76462575711992,13.364846640194179],[107.76496144933327,13.364888601497118],[107.7652208483126,13.365024022683341],[107.76624318769521,13.365849904997686],[107.76667806385316,13.366623335436453],[107.76721975052689,13.368130139879653],[107.76757833234917,13.368728093852363],[107.76813527763558,13.36930125250992],[107.76857015391404,13.369541578055998],[107.76896688194671,13.369667462735448],[107.76959249284066,13.369710379498196],[107.77014943841436,13.3696445746068],[107.77092000730592,13.369392805367363],[107.77240011045131,13.36948149679621],[107.77404043041172,13.36988490105198],[107.77424642309082,13.369993619455682],[107.77447530546404,13.37018530791584],[107.77470418677254,13.370460920228428],[107.77500173345379,13.371101788745474],[107.77531453776804,13.37211268360609],[107.7754289789437,13.372358731917945],[107.77563497289232,13.372516087897484],[107.77583333713201,13.372599058131724],[107.7771379644749,13.372807913287966],[107.77799245672702,13.37304060837907],[107.77940389455468,13.373315267735949],[107.77980062281117,13.373538427102224],[107.77999898732166,13.373841695741138],[107.78007528099708,13.374357633438374],[107.7802507571864,13.374781064808476],[107.78055593256629,13.37500994657747],[107.78121969009078,13.37515013639133],[107.78173085972522,13.375164442059502],[107.78345510238111,13.37503855705104],[107.7842638186749,13.37515871930702],[107.78471395321232,13.375281743951376],[107.78514882824626,13.375511578700223],[107.7858278448394,13.37556021614681],[107.78616353729826,13.375691823520336],[107.7863390146869,13.375886372197787],[107.78717824733233,13.377583913931568],[107.78793591646696,13.378392938204874],[107.78826162161545,13.37874072059316],[107.78903981979789,13.37912505045967],[107.78999349455603,13.379760198543128],[107.79156514982728,13.381461553558879],[107.79221364831938,13.38185065245422],[107.79245016020703,13.381905011306994],[107.79383870949393,13.381747655901977],[107.79441854272001,13.381830624115604],[107.79492208337625,13.382053784353866],[107.79540273548028,13.382331304533556],[107.79578420516228,13.382417134158775],[107.7962114513123,13.382268361354487],[107.79729482462622,13.381025723122482],[107.79816457629983,13.380612782427617],[107.7991106206846,13.380686214863427],[107.79957601426418,13.380882672361],[107.79993459630153,13.381200246038196],[107.80006429494306,13.381638936370855],[107.80001089031049,13.38195937156909],[107.79943105613567,13.383299282870965],[107.79918691497343,13.384041242451497],[107.79784414168262,13.386282376183797],[107.7976534075317,13.386812619153007],[107.79760000105482,13.387459210990693],[107.79771444213446,13.388146809884951],[107.79785940061673,13.388547353738838],[107.79822561156539,13.388845853372352],[107.79923269168512,13.389289311928735],[107.8002702895325,13.390014104229403],[107.80081197665328,13.390566281471662],[107.80126974081145,13.39141982091879],[107.80151388081647,13.392008237732014],[107.80159017502997,13.392788342892556],[107.80159017431733,13.393211774458386],[107.80142232890269,13.39378588699988],[107.8031694595252,13.393392972804614],[107.80364248179552,13.393206052614863],[107.8041307633984,13.393142156200419],[107.80441305122989,13.393189839737133],[107.80499288523059,13.393944196777177],[107.80547353728169,13.394266538283436],[107.8060457422612,13.394296101631927],[107.80661794601215,13.394152097179706],[107.80737325562437,13.394085339062073],[107.80786153820563,13.394261769373662],[107.80829641324588,13.394639423981657],[107.80869314184169,13.394874982374644],[107.80897542916452,13.394872121420677],[107.80934163979411,13.394700459090263],[107.80983755062515,13.39433138711977],[107.81009695004008,13.394296101704034],[107.81100484835922,13.394445828027852],[107.81156942319308,13.394439153050334],[107.81260702098086,13.393988065025802],[107.81407949396005,13.393887929003494],[107.81478139800367,13.393465451358368],[107.81550619099507,13.39321081960361],[107.81571981384694,13.393027715287165],[107.81618520710491,13.392761640183533],[107.81685659438806,13.39283984138921],[107.81930562945732,13.393337658903368],[107.83145162537845,13.39629690981895],[107.83922597917382,13.400506427995712],[107.84562704024555,13.394861628777228],[107.85166952113185,13.389293124268306],[107.85346242951827,13.389529634820715],[107.85652181650565,13.390282084007236],[107.87215444595964,13.393206049925372],[107.87651846060952,13.393607546337599],[107.87844869729261,13.392779756037942],[107.8802873814819,13.391385483771256],[107.88101980344764,13.391132760687732],[107.881813260334,13.391319681029696],[107.88228628250448,13.391179491206017],[107.88304159260694,13.39042036616997],[107.88381979028853,13.38791506371577],[107.88479635316205,13.387952257081675],[107.88625356724357,13.38629763152386],[107.88656637295445,13.384854723014486],[107.88950368946459,13.385554719385864],[107.89228078897064,13.385760712283956],[107.8936083044285,13.38608782328937],[107.8969118313518,13.386602806894707],[107.89944479039936,13.387534547098472],[107.9001543245021,13.38796179350193],[107.90052053520952,13.388287949198164],[107.90412923993938,13.388245988105666],[107.90583822335446,13.388504433232882],[107.90718862640136,13.388878273694978],[107.90837881128371,13.388618873384269],[107.90896627578871,13.388298439697296],[107.90979787959883,13.387439178360712],[107.91029378942396,13.386450218609308],[107.91099569490277,13.386072563492625],[107.91185781597363,13.385366844136],[107.91226980366493,13.385284828799731],[107.91359731724255,13.385287689093285],[107.91570303072015,13.384859488968502],[107.91664907581867,13.384275840209138],[107.91793081327832,13.383056091210765],[107.91837331906069,13.382720397681524],[107.91983053312165,13.3812526928686],[107.92015096787138,13.380876945206511],[107.92070028497106,13.379818366531579],[107.92093679576229,13.379528450318638],[107.9220812047754,13.379259513864872],[107.92318746662329,13.379148886471915],[107.92511007460362,13.37841265077185],[107.92692587020565,13.37782995582282],[107.93323537995688,13.375656531454808],[107.93376180783135,13.375824377994615],[107.93408224238415,13.375813886944442],[107.93502065805492,13.375623151839466],[107.93574545103615,13.375525878006302],[107.93832418523401,13.375850126604849],[107.93914053036634,13.375596449329212],[107.93964407088887,13.375295088281732],[107.94033071673189,13.374359533429928],[107.940696928003,13.373965666193856],[107.94251272364528,13.373389646293703],[107.9430010047798,13.373460218245238],[107.94332143853805,13.3737386920099],[107.94378683153418,13.3744806505855],[107.94396993736372,13.375217840515418],[107.94405386098005,13.375910207869094],[107.94377157395081,13.379208014023698],[107.94380209140863,13.379641936061915],[107.94403860308488,13.3801168657381],[107.9444582186456,13.380434439149242],[107.94493124241426,13.380546019175764],[107.94566366424614,13.380550787761884],[107.94657919142203,13.380318090814084],[107.94795248179965,13.379894659598579],[107.9485552041947,13.379853651820083],[107.9488603799429,13.37998048978616],[107.94915029743626,13.380187437858593],[107.9494936197993,13.380631849388],[107.94969198442763,13.381061002849636],[107.94969961343507,13.381596014459863],[107.9495775437013,13.38318197508842],[107.94934103192469,13.38505022258366],[107.94938680853464,13.385237142810228],[107.94957754291522,13.385408805037198],[107.95004293674367,13.385549947977339],[107.95092031607717,13.385621473566172],[107.9524156783718,13.385600492592827],[107.95446798515579,13.384823248288296],[107.954971525398,13.384504720715825],[107.95560476526332,13.383560583657752],[107.95673391545508,13.382947370614929],[107.95719930829978,13.38284914203402],[107.95760366666278,13.382453367409724],[107.956001492923,13.381628438994689],[107.95494100738553,13.380624218991704],[107.95523855381137,13.37730257230992],[107.9556505412232,13.376136227861165],[107.95738241369051,13.374474926924526],[107.95825216533238,13.373127386300004],[107.95833608766698,13.371420308677207],[107.95948049637268,13.369486256423963],[107.96005270208005,13.36904089065279],[107.96130392215122,13.368559285945357],[107.96669790356519,13.36759607458568],[107.96853658800877,13.366252347291766],[107.96877310001996,13.365986271313242],[107.96891042884549,13.365597171951599],[107.96916219915971,13.365176601837499],[107.96992513820479,13.364103717689563],[107.9703371249142,13.363963528175583],[107.9707491127358,13.363905353744935],[107.97101614209491,13.363671703996147],[107.97102377109009,13.363252086814029],[107.97089407102283,13.362656993744492],[107.97099325289896,13.362423343898309],[107.9717104161447,13.361933156098662],[107.97186300391184,13.36164133109925],[107.97172567491694,13.360684795778273],[107.97212240395807,13.360101146982835],[107.97353384148121,13.359750194845699],[107.97379324086397,13.359511775390247],[107.97390768128696,13.359200878787918],[107.9746858798428,13.359128398803435],[107.97484609792028,13.358860416813977],[107.97477743222503,13.358255786295851],[107.97437307496111,13.357257289398776],[107.97407552879993,13.356185359737486],[107.97409841624061,13.355869693794416],[107.97422048621807,13.355654163503342],[107.97454855008496,13.355512065377063],[107.97474691482881,13.355107707285388],[107.97482320841398,13.354615612093738],[107.97479269172347,13.35285799005557],[107.97420522747836,13.351053638001533],[107.97406789820732,13.349916858049474],[107.97316763029397,13.34837572055155],[107.97310659494057,13.346739214883392],[107.9728700833821,13.345858973768664],[107.97406026850624,13.343808573663182],[107.97657796887697,13.335926455403188],[107.9777071193809,13.332986277817508],[107.9780046652044,13.330180567655201],[107.97923299694219,13.326111238999589],[107.98024007796414,13.323570650833883],[107.97969076072597,13.320945184689412],[107.97951528513713,13.3192571821935],[107.97975942568782,13.318283479695705],[107.98009511847124,13.31776468099756],[107.9823305318557,13.315798204180691],[107.9834291636109,13.314241807611642],[107.98362752837834,13.311798494729418],[107.98332998164624,13.310714166451447],[107.98284932942974,13.309672754355724],[107.98345968175317,13.308551232971569],[107.98376485748801,13.30775396095317],[107.98387929858131,13.307254236292644],[107.984291285553,13.306901375862802],[107.98477956657857,13.306933801436799],[107.98542043555143,13.307147423730532],[107.98596975274687,13.307152191783846],[107.9863283336327,13.306915680822774],[107.9865953628707,13.306260507220571],[107.98669454423822,13.305850426954072],[107.98647329196034,13.305416505057362],[107.98604604630044,13.304810921690903],[107.9856111701092,13.30439798117737],[107.9852068122144,13.304343621671318],[107.98438283832043,13.304315965227795],[107.98402425652732,13.304123322824115],[107.98389455723164,13.303704659884913],[107.98394033291743,13.303245941947322],[107.98410818001065,13.302932183784334],[107.98481008390391,13.302570740825887],[107.98534414094115,13.30194417722596],[107.9855806534977,13.300657669998158],[107.98580190478594,13.300368706674275],[107.98669454425779,13.300272385955475],[107.98770162411735,13.300355355402937],[107.98826620005377,13.300231377736035],[107.98883840444336,13.300038735968943],[107.98915120919527,13.299387375161167],[107.98939534992773,13.298254410320089],[107.98979970807423,13.297699372714371],[107.98999807230663,13.296927849625318],[107.99047872395967,13.29656640743396],[107.99095937613977,13.296735207289503],[107.99199697402351,13.296807686487586],[107.99274465436933,13.296590248226794],[107.99438497408073,13.294829766307993],[107.99546834819418,13.294130722254923],[107.99949666844854,13.293913285187678],[108.0008699593602,13.293657700130641],[108.00141164648065,13.291327873287893],[108.00179311583686,13.290994087948203],[108.00179311569441,13.284091392188932],[108.0003664182231,13.279188552342639],[107.99798604722076,13.277483382093658],[107.99772664839762,13.277207771523896],[107.99764272388704,13.276927389899967],[107.99734517819299,13.274712004692319],[107.9973146610047,13.26880208463631],[107.99787160549133,13.267691054736872],[107.99825307538585,13.26352731230533],[108.0008165525046,13.261185086960293],[108.00099965734417,13.260498442564511],[108.00058767096536,13.259778418326817],[108.00009938913298,13.259337820581823],[107.99976369515909,13.257249274007386],[107.99868795159139,13.256015219421037],[107.99844381042954,13.255372442698265],[107.99849721637253,13.254854597351674],[108.00008413023994,13.251167692313999],[107.99990102433708,13.249736227395942],[107.99912282562032,13.24820558013817],[107.99820729860517,13.247311032637022],[107.99682637794282,13.247139371835695],[107.99584218628748,13.246457494862954],[107.99303456878367,13.24295274219994],[107.99192067742192,13.242024817041214],[107.98800679687662,13.237713255011428],[107.98597737836046,13.235993779656928],[107.98498555715443,13.23585263709383],[107.98323842611454,13.23604909342324],[107.98226949273435,13.23601380782676],[107.98183461721298,13.235854544124503],[107.97756978522179,13.232918181195345],[107.97811910156148,13.232676901574624],[107.98078938999855,13.231705107099941],[107.98285695605753,13.22810784673817],[107.98452779283491,13.224655545922896],[107.9866182462077,13.223431981853555],[107.98748799791792,13.221352971278886],[107.98889180655063,13.220055974314029],[107.98792287295622,13.218538677828796],[107.98690816362185,13.214636243388274],[107.98697682841636,13.21429482792098],[107.9880144263962,13.211790478592063],[107.98803731417605,13.21026173852061],[107.9866411350782,13.204260265645543],[107.98663350491469,13.202814495555],[107.98717519191747,13.200809872640763],[107.98770161899519,13.196384823145042],[107.98715230326019,13.195283329383159],[107.9872285973079,13.194032108236003],[107.98831960053376,13.192652142406395],[107.989418232907,13.192200099565017],[107.98994466121623,13.190026675853828],[107.99102040619412,13.187755977453556],[107.99218007350578,13.184491550541397],[107.99219533282819,13.183189784716182],[107.99242421495384,13.182575618384629],[107.99259969042203,13.181797420272805],[107.99217244468903,13.180932436978772],[107.99035664862498,13.179767047648575],[107.98954030221975,13.179682170798884],[107.98831197026246,13.180261050499459],[107.98818990098442,13.178721820084549],[107.98683186741266,13.176575099298677],[107.98490163154865,13.17550412325348],[107.98314687004469,13.174208079857417],[107.98007222373154,13.170717631260409],[107.97715016625897,13.1690239064669],[107.97637196759293,13.16799870611521],[107.97427388399761,13.166295444843623],[107.97489949349284,13.16572419330263],[107.97625752641375,13.164734279607757],[107.98104115622095,13.159317409381147],[107.98211690141034,13.1572031127871],[107.98226948965942,13.15315667261959],[107.98215504846907,13.150651369245994],[107.98292561600853,13.149288569265611],[107.98378773784634,13.14802590480002],[107.98389455034913,13.14702740697824],[107.98526021054664,13.144160661949428],[107.98546620440268,13.142746363382093],[107.98551198047753,13.141873751343516],[107.98470326412075,13.136949929553225],[107.98471089458202,13.135362061568753],[107.98482533510476,13.132377061230912],[107.98509236296498,13.12875119159114],[107.98506184651052,13.127758416788414],[107.9851381397559,13.126688394303388],[107.98520680382674,13.126235397962299],[107.98529835702485,13.126033219167656],[107.98664113091351,13.12422791387083],[107.98674794159083,13.123814019047185],[107.98661824205205,13.123014840559987],[107.986099443674,13.122369203435301],[107.98557301447825,13.121431741595597],[107.98435994148458,13.120615396611367],[107.98368092422326,13.12007943104859],[107.98372670148123,13.119529160311936],[107.98430653565924,13.118006142734414],[107.9846880054313,13.117606553268507],[107.98483296325125,13.116740616985231],[107.98529835640078,13.116440208782905],[107.98571797314338,13.116390617712364],[107.98598500268169,13.116440209099698],[107.98613759074094,13.11662331534923],[107.98636647115069,13.116640481378933],[107.9865038001888,13.116473588257294],[107.98633595416739,13.116190346805533],[107.98633595424678,13.115941437961554],[107.98648091225235,13.115674408491126],[107.98719807582656,13.115508469643169],[107.98739644046064,13.115258606859621],[107.98732014605385,13.113975914716272],[107.98736592234941,13.113310249622545],[107.98763295188955,13.113043220658824],[107.98808308576697,13.113009842584987],[107.98860188439278,13.11306038802607],[107.98873158463769,13.113009842443795],[107.98876210177573,13.112860115299602],[107.98838063197435,13.112244041328722],[107.98835011473932,13.111927422910403],[107.98853321894119,13.111744316972132],[107.98892994822424,13.111661346209665],[107.99029561007055,13.111894043656438],[107.9909669966156,13.112360390878527],[107.99131031963306,13.112677010632467],[107.99166127107819,13.112759979155909],[107.99206562914,13.11274376740696],[107.99233265813866,13.11256066192014],[107.99247761672102,13.112260254420399],[107.99233265872326,13.111228378623903],[107.99259968768963,13.110661895970587],[107.99317952143385,13.110029610427354],[107.99444600036526,13.109729202109198],[107.99574299695867,13.109063538044037],[107.99644490237884,13.10911312890297],[107.99712391841051,13.10888043205655],[107.99890919675036,13.108713539193463],[107.9996721356503,13.108780296175176],[108.00033589315684,13.108680159789351],[108.00173970107332,13.107997330111692],[108.00205250773344,13.107714087523693],[108.00217457706866,13.107164771509833],[108.00233479484282,13.106831940128805],[108.00263997008781,13.1065324861452],[108.00317402842988,13.106415183556432],[108.00388356189134,13.106665046985258],[108.00410481440103,13.107064636063665],[108.00448628336974,13.107247742025477],[108.00492115943159,13.107198150689467],[108.00541707080993,13.106865318029158],[108.00598164542497,13.105666549471879],[108.00650044450207,13.105399520885342],[108.007065019276,13.105283172159607],[108.00878163281678,13.10524979363654],[108.00911732631441,13.105049521307093],[108.00923176712132,13.104649932809084],[108.00939961307454,13.103368193942481],[108.00938435522721,13.102618606632571],[108.00955220177835,13.10235252995992],[108.01016255344544,13.102335364296827],[108.01124592718278,13.102884681699619],[108.01209279032497,13.10285225664474]]]]}}]}