{"type":"FeatureCollection","name":"gis.vn","features":[{"type":"Feature","properties":{"ma_huyen":"655","ten_huyen":"Krông A Na","loai":"Huyện","cap":2,"stt":13,"ma_tinh":"66","ten_tinh":"Đắk Lắk"},"geometry":{"type":"MultiPolygon","coordinates":[[[[108.07434098965251,12.430331587495896],[108.07328050380914,12.428923963926389],[108.07283799875549,12.428520560281932],[108.07169358984355,12.42760407898418],[108.07088487346755,12.426885008462781],[108.0700685284231,12.426432967631774],[108.06944291744348,12.42580640313502],[108.06894700701822,12.425433516230294],[108.0686036839336,12.425073027414307],[108.06834428521456,12.424931883668648],[108.06803910951237,12.424910902391277],[108.06768052764723,12.425014853528078],[108.06743638754062,12.425292372132828],[108.06706254666523,12.425626158300727],[108.06662004127631,12.425934194912827],[108.06609361352173,12.426781057974148],[108.06578843772455,12.426986098562878],[108.06465165871664,12.427367567578585],[108.06422441278296,12.427804350523127],[108.06403367757449,12.428082823362425],[108.06385057142028,12.428595900477879],[108.06371324198471,12.42880094088435],[108.06354539574305,12.428920149351663],[108.06335466159872,12.428947806426361],[108.06298845070503,12.4288686517853],[108.06266038652153,12.428538679373506],[108.06192796396427,12.428098082810482],[108.06107347212284,12.42736470699298],[108.06079118463781,12.427224516260083],[108.06032579086725,12.427163481888629],[108.05989091507843,12.427263617566217],[108.05931871105481,12.427618384457714],[108.05912034751388,12.427901625416428],[108.05895250007856,12.428285956925723],[108.05883805955933,12.428927779426607],[108.05867021272763,12.4292682405359],[108.05849473636525,12.429381728902342],[108.05824296646139,12.429317831526316],[108.05806749047782,12.42913568073753],[108.05796830867585,12.428498625592827],[108.05778520355233,12.428017973626725],[108.05751817400137,12.427576422830489],[108.05731981027017,12.427417159030712],[108.05709092801112,12.427334190091635],[108.05633561860701,12.427338005231288],[108.05573289513576,12.42705953201262],[108.05540483146913,12.426770568254799],[108.05509202589052,12.426696182240928],[108.05426805220972,12.426760077488481],[108.05361192424246,12.42675531038371],[108.05326860075874,12.426695228397543],[108.05297105529239,12.426476836858951],[108.05277268964737,12.426271796967805],[108.0527040259471,12.42601430509236],[108.05281846726946,12.425618530210466],[108.05307023718122,12.42523896726301],[108.0531694188422,12.425000548948214],[108.0531236428495,12.42480790720834],[108.05302445992005,12.424636245257803],[108.05220811515065,12.423861861558935],[108.052025010185,12.423484206897637],[108.05199449181386,12.422960639159442],[108.05205552682051,12.422313094540696],[108.05194871604105,12.422037483074606],[108.05186479219407,12.421877264703364],[108.05102555902587,12.421006560418451],[108.05050675994256,12.420070053015548],[108.05050675984252,12.419647574948625],[108.05068223580521,12.419309019816275],[108.05085008272125,12.419218421088713],[108.05114762827331,12.419205069361318],[108.05153672760706,12.419079184723927],[108.05165116872558,12.418925643168794],[108.0516511684542,12.418612837823447],[108.05150621058824,12.418342947567696],[108.05120866375192,12.418028236077623],[108.05076615937887,12.41716134553398],[108.05032365419282,12.416795134481667],[108.04999559037763,12.416702628855306],[108.04869096316851,12.416761755996287],[108.0480958716381,12.416632056562603],[108.04722612060294,12.416681648195345],[108.04605119352078,12.416389823325988],[108.04438035571665,12.415455223120203],[108.04389970471667,12.415256857904335],[108.04321305820943,12.415117622353392],[108.0426027059163,12.415054678549515],[108.04234330683042,12.415113806895592],[108.04212205533582,12.415233015971227],[108.04106156918719,12.416137100032477],[108.0405198826014,12.416445136580363],[108.03991716007688,12.416739822118377],[108.03927629028705,12.416872383573054],[108.03892533793307,12.416798950610355],[108.038421798663,12.416355491291158],[108.0380326992672,12.416157126951903],[108.0375673062485,12.416017890221488],[108.03702561911197,12.415977835870345],[108.0366136323486,12.415851951173371],[108.03614823936488,12.415513397232074],[108.03588121042428,12.415225387278367],[108.03562181041988,12.41504514329105],[108.03544633452108,12.414981246328358],[108.03527085815219,12.41500604264661],[108.03504960616345,12.415108085761975],[108.03479783624415,12.415317893379363],[108.03455369488064,12.415825248586147],[108.03443162476991,12.416283966117122],[108.0342561492009,12.417633415464994],[108.03384416226959,12.418315292392448],[108.03297441113958,12.419424415308285],[108.0326082003469,12.419565559626689],[108.0322725062908,12.419541717543243],[108.03205125413737,12.419454933208309],[108.03191392557031,12.419329048689622],[108.03143327341363,12.418585182542445],[108.03102891473243,12.418058753914606],[108.03041856290844,12.41771733850744],[108.02995317032617,12.417668701851392],[108.02949540717715,12.41771733840584],[108.02896134927072,12.417980552789592],[108.02840440348817,12.418400170006992],[108.02782456908717,12.418649078449185],[108.02749650506446,12.418649078711905],[108.02725236492685,12.418468833549836],[108.02680986026444,12.417258621688713],[108.02664201282091,12.416556716343225],[108.0264207609641,12.41627824361984],[108.02620713822357,12.416122796116168],[108.02584855562357,12.416063667696912],[108.02539842206224,12.416069389607712],[108.02430741841609,12.416395545746528],[108.02331559677766,12.416346908664332],[108.02260606265409,12.416249633981728],[108.02156083619502,12.41595685557518],[108.02091233824501,12.415995957382147],[108.02059190306625,12.416186692222974],[108.02043931448549,12.415841461814953],[108.02031724513539,12.415150048198617],[108.02020280371454,12.414845826303075],[108.02017991602374,12.414346100044016],[108.02024857979615,12.413364769358314],[108.02033250348296,12.41309774052903],[108.020553755404,12.412931800933194],[108.02132432460276,12.412783982035494],[108.02161424197325,12.41260850549774],[108.02177445902782,12.412331939501481],[108.02177445846448,12.412092567574911],[108.0215226885586,12.411744476680644],[108.02143113628928,12.411030175103388],[108.02132432482615,12.410784126808045],[108.02106492550413,12.410587669467727],[108.02079789683297,12.410498023379592],[108.02016465678643,12.410392166724636],[108.01873795938121,12.410324455552663],[108.01750962706656,12.410033584862376],[108.01482408045014,12.409575820911849],[108.0138322593052,12.409262063298483],[108.01368730070229,12.408137681292748],[108.01311509579192,12.406409623050708],[108.01282517946443,12.405155540642781],[108.01280228996093,12.404427887275997],[108.01271073818944,12.404259086940671],[108.0123521560127,12.40407788916359],[108.0095521684323,12.40416181177421],[108.00846879420577,12.404466033973437],[108.00702683907288,12.404372573864462],[108.00637833967099,12.40421426396497],[108.00513474916853,12.404069305833687],[108.00305192422314,12.404160859179939],[108.00178544507969,12.40360295945919],[108.00113694583227,12.403268219260923],[108.00067918304525,12.402835250942285],[108.00036637681931,12.402402283190883],[107.99949662595665,12.40241468169285],[107.99802415287309,12.402522446736777],[107.99665849183677,12.402471901399595],[107.9963838323941,12.402507187725078],[107.99625413329049,12.40247571662482],[107.99595658625232,12.402149559737786],[107.9943544139631,12.401135804849327],[107.99385087321117,12.40055787792661],[107.99366776878156,12.400068642484085],[107.99352280930631,12.399389626530713],[107.99337785189655,12.399331452270857],[107.99275224132063,12.399775864417999],[107.99234788320796,12.399887444520859],[107.99208085476712,12.399842621826757],[107.99059312213565,12.398998620621285],[107.9891969430992,12.398499849045768],[107.98802201672156,12.398584726238093],[107.98715989438213,12.398199440781449],[107.98639695517325,12.397538545204888],[107.98555772256766,12.39758336829746],[107.98244492932776,12.398311020759095],[107.98091141992002,12.39800489182086],[107.98029343925879,12.397519472068675],[107.97901170139104,12.395542504646079],[107.97686784143698,12.396503809433383],[107.97605149593609,12.397126558143903],[107.97461717028231,12.399237993200094],[107.9722596873184,12.398379686152163],[107.97187821727174,12.398319604265167],[107.97055070317957,12.398310068427344],[107.97007767956872,12.398267152905264],[107.96968858101225,12.39831960457372],[107.96929185167083,12.398599031781716],[107.96884171826544,12.398770692299511],[107.96681229848126,12.398506525461151],[107.9658738838239,12.398456934858753],[107.96547715526773,12.3983539382095],[107.96494309773126,12.398131732105416],[107.96459977483535,12.397920970184154],[107.96440903943993,12.397851350509924],[107.96369950576529,12.398002031782147],[107.96146409365942,12.398935679342202],[107.9592515685011,12.399234178747275],[107.95857255253154,12.399397257078402],[107.95789353662724,12.399416330825778],[107.95714585530669,12.399305705024826],[107.95693223246927,12.399229410901931],[107.9566499458084,12.399016741285658],[107.95632951110456,12.399020556105562],[107.95567338263561,12.399389628479648],[107.95434586906686,12.399953250099125],[107.95380418148144,12.400277499204394],[107.95356766966941,12.400336627541328],[107.95268266056513,12.400358561594285],[107.95246903664695,12.40028894386952],[107.95207230881174,12.400018099233922],[107.95153825029297,12.399808291240696],[107.95137040469123,12.399858836144112],[107.95127885196715,12.399978999308104],[107.95117966999484,12.400254611213692],[107.95108811623889,12.400614146156446],[107.95092789979822,12.402075175248525],[107.95051591220646,12.403836611482756],[107.95020310690728,12.404641512803279],[107.94998185516171,12.404871348777256],[107.94910447361772,12.405047778442317],[107.9482423532214,12.405104999160338],[107.94774644159928,12.405182246502527],[107.94748704258235,12.405292872821265],[107.94714371935966,12.405523661790873],[107.9467317330781,12.406161669904396],[107.94623582183935,12.407601719042429],[107.94607560453741,12.408392314829419],[107.94587724104099,12.4086812781326],[107.94552628755,12.40890062339305],[107.94461838975296,12.409070376955528],[107.94406907374282,12.40903413692849],[107.94374863945136,12.408835773221119],[107.94294755270924,12.408558254305879],[107.94225327784736,12.40846956204304],[107.94133012119623,12.408646946468313],[107.94061295784574,12.408643131385402],[107.94026200598495,12.408707027578957],[107.93979661262848,12.410038356812485],[107.93977372486425,12.410350208174695],[107.94004838322446,12.413503055712992],[107.93975083681485,12.41628778483272],[107.94004838305133,12.417683963752953],[107.93720261934186,12.41725004245606],[107.9363481268926,12.417285328901983],[107.93499772404347,12.417063122333442],[107.93264787016521,12.41774690741156],[107.93099992137472,12.417167073630386],[107.92915360790167,12.417029744565362],[107.92356126229696,12.417134648805153],[107.92366807315861,12.41747129537821],[107.92405717205476,12.419338589397793],[107.92420976029135,12.420660382946982],[107.92421739042936,12.421141034815806],[107.92375199600038,12.422336941479383],[107.92325608569199,12.423211462063117],[107.9217836127922,12.42505491357341],[107.92132584947682,12.425844557290334],[107.92124955497216,12.42617452829048],[107.9212724435866,12.426607495626648],[107.92140977232543,12.427115804244568],[107.92162339556543,12.427468664234068],[107.9220430124545,12.427798634888747],[107.92272202872597,12.428141958344979],[107.92334763932774,12.42822683495412],[107.92396561946,12.42821825197995],[107.9248124823725,12.42803037771514],[107.92577378622474,12.4276422324163],[107.9265977618025,12.426990872761378],[107.9272615186388,12.426321393673375],[107.92810075148569,12.424612408351825],[107.92842118632471,12.423862820640538],[107.92866532726914,12.423653966999698],[107.92900102067802,12.423501378452459],[107.92933671353194,12.423514729573318],[107.92988603048411,12.42369783524435],[107.93042008724258,12.423979169235015],[107.93121354424716,12.42461240859101],[107.93200700149346,12.425665265833983],[107.9322358832196,12.42652547924613],[107.93223588374843,12.427182561575748],[107.93203751988179,12.427816754989005],[107.93154923824353,12.42848623342012],[107.93051164064549,12.429396040112367],[107.92977158960008,12.430172331183769],[107.92940537888342,12.430880910810437],[107.92932145441183,12.431464558633877],[107.92948167309001,12.43184126095013],[107.92987077132544,12.432047253498181],[107.93036668253754,12.432115918947089],[107.93122117427316,12.431909924675889],[107.93442551984067,12.430926686290634],[107.93515794157467,12.430812245634712],[107.93585984655064,12.430892354128742],[107.93640916317959,12.431189900901177],[107.93716447243007,12.432287579271852],[107.93761460676588,12.432664281466973],[107.93979661400856,12.434093838726243],[107.94238297899265,12.436209088172852],[107.94315354857866,12.436551457745407],[107.94374864107215,12.436940556844599],[107.9439698935802,12.437443143091384],[107.94429795702438,12.439375287792446],[107.94456498661626,12.44006097918012],[107.94487016209985,12.440484410647933],[107.94529740823397,12.440678960466077],[107.94580857757816,12.440656071829753],[107.94664018187812,12.440312749381235],[107.94789140205634,12.440083867064457],[107.94860093556653,12.440129642947706],[107.94981400909943,12.440404301543216],[107.951156783218,12.440975552028064],[107.95327775441115,12.44169652977756],[107.95409409993414,12.441778546542286],[107.95497910925991,12.441547757043207],[107.95537583893716,12.441147214191536],[107.95565049703443,12.440736180313616],[107.9558107139939,12.440564518725692],[107.95865647765363,12.439283733555744],[107.96011369252193,12.438300496149271],[107.9620668173092,12.43720376976908],[107.96392076060131,12.436540012507685],[107.96564500368221,12.436356907208864],[107.96630876099121,12.436448459227138],[107.966934371045,12.43671167331523],[107.9688722375394,12.437843684903838],[107.97006242322676,12.438887005299234],[107.97233598310015,12.440330866952278],[107.9734040980391,12.44070184747874],[107.97387712063454,12.44098699521449],[107.97530381717122,12.442553882034536],[107.97616593957245,12.443411234791576],[107.97688310196374,12.443902378283859],[107.98146836811854,12.44524038263628],[107.9836503757341,12.445685748878557],[107.98425309746898,12.445868854370048],[107.98482530301406,12.446326618305319],[107.98529832473655,12.447000865893518],[107.98573320033343,12.448201541780554],[107.98589341780819,12.449093227337928],[107.98596971134793,12.450338725779494],[107.98591630624541,12.451367740495215],[107.9860307473517,12.453276996565858],[107.98629014557962,12.454111461083366],[107.98655717502635,12.454785708925352],[107.98704545649277,12.455392245776991],[107.98759477287318,12.455666904292494],[107.98844163629558,12.455861454464792],[107.9905778658165,12.455747012664107],[107.99110429433361,12.455906275684761],[107.99195115709506,12.4563525956279],[107.99250047404936,12.456969623251574],[107.99271409773968,12.457656268982317],[107.9927217259202,12.458223704835461],[107.9926378035991,12.45869577389406],[107.9920045637558,12.459776286790559],[107.99099748304263,12.46120870627489],[107.99102800025122,12.461665516562977],[107.99139421139505,12.462286358177396],[107.99215715170794,12.463135128036084],[107.99253099203219,12.463801746365304],[107.99286668552476,12.464753512941371],[107.99465196358696,12.46633279807225],[107.99488847517792,12.466733341430654],[107.99494950975783,12.467235927268488],[107.99483506930852,12.46903074277621],[107.99486558717562,12.469968204885616],[107.99498002797506,12.470367794435305],[107.99565141470057,12.47117174131179],[107.99630754209205,12.471672420061312],[107.99868791429301,12.472621326425282],[107.99908464206725,12.472826366703606],[107.9998399521938,12.473542575586704],[108.00112931990154,12.475151424366416],[108.0014497545012,12.475868587819766],[108.00154130710847,12.476365451864373],[108.00144975413029,12.476807956357842],[108.00120561462194,12.477267627128949],[108.00075547937159,12.477844600814768],[107.99900071979931,12.479609851384208],[107.99809282131424,12.480722789508912],[107.99774186970843,12.481202488612926],[107.99750535796824,12.481629735074295],[107.99718492367418,12.482606296568921],[107.99714677643013,12.483318691821614],[107.99739854704913,12.484318142934113],[107.99761216932802,12.484987622263548],[107.99771898076658,12.485489255393409],[107.99760454074719,12.486050968583555],[107.99736802855934,12.486363774357589],[107.99699418842329,12.486482982992827],[107.99590318545589,12.486499196080837],[107.99555223317296,12.486422901752986],[107.9949189935737,12.486132031183006],[107.99382036037423,12.4854787645295],[107.99343889073859,12.485079174937967],[107.99301164463938,12.484868413052451],[107.99244706970337,12.484841709787263],[107.99199693583974,12.484938985435178],[107.99146287765302,12.485181218602595],[107.99098222561459,12.485640889398898],[107.99048631440196,12.486282711944328],[107.99029558102906,12.486779576301172],[107.99015825050881,12.487414723817388],[107.99013536300679,12.488386517575329],[107.9902803217182,12.48941553252381],[107.99064653311616,12.49028432945679],[107.99132554874924,12.491369610144929],[107.99153917197609,12.492033368909588],[107.99149339467438,12.492501622462308],[107.99118821990925,12.493005162948162],[107.99080675007775,12.493244534381079],[107.99041002062958,12.4933132000615],[107.98851030170599,12.493317013565816],[107.98791520915869,12.493381863746414],[107.98755662830483,12.493560201011793],[107.98715989885578,12.493894940949872],[107.98601549019801,12.495158559519913],[107.9832994263356,12.49493158504337],[107.98223893983533,12.49505079416181],[107.98126237654421,12.495293027979397],[107.98042314350131,12.495643979774455],[107.97987382796462,12.495990164045516],[107.97949998647309,12.496351606212002],[107.97933214054478,12.496823674976653],[107.97945421123804,12.497623808217442],[107.9793473991491,12.499711400996834],[107.97911851785008,12.500924474788217],[107.97876756498519,12.501946813727686],[107.9759523190862,12.506112463676065],[107.9751054563416,12.507213957702815],[107.97370164735726,12.508514768848201],[107.9710313597189,12.509822257026492],[107.9677736083487,12.511182196252332],[107.96727769740927,12.511451133441645],[107.96405046347205,12.514136679401634],[107.95967882087722,12.517047293745119],[107.95868699963982,12.517968544121402],[107.9539033697756,12.52092684239908],[107.95310991256187,12.521159538284989],[107.95216386708584,12.521077522510488],[107.95027940654386,12.52041948776118],[107.949333361326,12.520201095415336],[107.94815080500912,12.520351776425757],[107.9475786016895,12.520843872706136],[107.94667833215341,12.521751770651065],[107.94657915069384,12.522021660989928],[107.94647996854235,12.522596725908986],[107.94470231925155,12.52582777469998],[107.94395463891908,12.526742348869883],[107.94273393603545,12.527349839547846],[107.940925769185,12.527542481460499],[107.9399263187607,12.52743090144587],[107.93347185028503,12.52507628065017],[107.93289964508145,12.524913201451149],[107.93241136470034,12.524995217462822],[107.93158738993094,12.525416741823872],[107.92979448233605,12.526697526368618],[107.92798631485755,12.528186211628494],[107.92742174001688,12.528453240867055],[107.926864793872,12.52856386715731],[107.9261247437178,12.528482804704268],[107.92321794399729,12.528334032523507],[107.92295854430186,12.528273951122703],[107.92254655691698,12.528023134596012],[107.9222108644037,12.528042208139448],[107.92171495332975,12.528229128492907],[107.9200975210843,12.528970133774376],[107.91972368127256,12.529067408286036],[107.91844194300053,12.52902353945838],[107.91699235768786,12.528927217213749],[107.9150087151967,12.528627764285964],[107.91439836438835,12.528391252907628],[107.91305558985107,12.527690302801435],[107.91291826105476,12.527411829435351],[107.91297166688106,12.527130495385578],[107.91326921291527,12.526429544459333],[107.91329210206982,12.52622259741509],[107.91320817810829,12.526011835749873],[107.91292589122004,12.525893579927258],[107.91192643976242,12.525682817896874],[107.91063707220589,12.525533091610479],[107.9101716784404,12.525663744695944],[107.90924852201135,12.526316057805866],[107.90811174308516,12.527550113070607],[107.90716569815605,12.527972589908682],[107.90576188907339,12.528147113355372],[107.90487687844849,12.528476130028537],[107.9041826035238,12.52892626481028],[107.90363328755778,12.529463182729682],[107.90294664307137,12.53049792009518],[107.90230577289856,12.531656634578706],[107.90121477023527,12.532966983592974],[107.89650743432539,12.537107837555862],[107.89474504331957,12.53850020182121],[107.89344041745905,12.539133442395682],[107.89284532426682,12.539166820595],[107.89156358648478,12.538896930642407],[107.89090745847972,12.538576495769604],[107.88989274873687,12.53824747935166],[107.88932054437039,12.538272273923782],[107.88874833881054,12.538491619097462],[107.88775651823224,12.539065731422447],[107.88743608262398,12.539420498289081],[107.88726823680173,12.539893520090198],[107.88721483074067,12.540779484089796],[107.88617723348507,12.544581783648859],[107.88613908638321,12.545006168790056],[107.88623063941722,12.54552115311893],[107.88660447970706,12.546447170328083],[107.88711564909906,12.547194851171776],[107.88750474870797,12.547541035457433],[107.88788621856702,12.547796619494056],[107.88957231465768,12.549799335451674],[107.89103715832356,12.550794018543668],[107.8915864749683,12.551319492943755],[107.8924028196249,12.551662815837288],[107.8936998164302,12.55200613812361],[107.89485185558794,12.552488697796825],[107.89546983690978,12.55286730602783],[107.89575212460153,12.553217304673703],[107.89591997058368,12.553735149898927],[107.89595048924762,12.554849041106108],[107.89579790056952,12.555962933967926],[107.8955385011261,12.556837452167379],[107.8954011717224,12.55716170136331],[107.90203111592098,12.556707752569777],[107.90474718090046,12.556460750785773],[107.9077836797579,12.555383098546155],[107.90867631924061,12.55536497878436],[107.91065233192452,12.555539500791161],[107.91255968165154,12.555829417460536],[107.91557329259909,12.556849849841525],[107.91727464654838,12.55730570608403],[107.91807573328556,12.557329547961343],[107.9192659183313,12.557071101389527],[107.9207536500887,12.556818377462196],[107.92104356773523,12.557059657309225],[107.92225664165102,12.55866373781067],[107.92260759361837,12.558856379235069],[107.92280595833813,12.55887068564342],[107.9232255746284,12.558735263814967],[107.9235994160854,12.558175456103388],[107.92434709556545,12.556484590949905],[107.92469804775396,12.555884729863143],[107.92492692940627,12.555670154336754],[107.92547624674629,12.555631053193517],[107.92655962031476,12.555831325144178],[107.92935960776697,12.555834185788996],[107.93172472030635,12.555522333554222],[107.93331163468818,12.55481852147551],[107.93465440811049,12.554036508772533],[107.93502061900554,12.554048907092339],[107.93608873392671,12.554592501289369],[107.93716447856308,12.554784189417068],[107.93892686852172,12.554666887700561],[107.94080369957884,12.555201899046915],[107.9412538350985,12.555572878751388],[107.94209306845676,12.55712355279587],[107.94229906240861,12.557300936263513],[107.94287889612453,12.557408701089157],[107.94488542604299,12.55678404394797],[107.94722764998274,12.556544672202651],[107.94892137610272,12.556501757319692],[107.94937150984313,12.556692491463],[107.95224016322459,12.56246794344037],[107.95611589594796,12.569319139267494],[107.9561921903191,12.570134530976816],[107.95546739840677,12.571474443278198],[107.95538347432115,12.572830568347511],[107.95552080285377,12.574749361815671],[107.95477312318985,12.57588423373638],[107.95453661142582,12.576637637021925],[107.95407884861024,12.577622782687245],[107.96558397653229,12.592821489675714],[107.96623247385493,12.593622576801923],[107.96683519629859,12.593573939231746],[107.96724718406091,12.593617807851484],[107.96788805360856,12.593291652049887],[107.96858995699125,12.59343660957653],[107.96873491621804,12.593432795005711],[107.96881121078319,12.593352686935386],[107.96880358000105,12.593216310614649],[107.9686357334535,12.592915903991807],[107.9686662510701,12.592668901766247],[107.96875017435116,12.59262026495643],[107.96927660368532,12.592791925385779],[107.96936815525889,12.592769991372935],[107.96942156138023,12.592694651645704],[107.96945207971338,12.59253634191085],[107.96943682066205,12.591974626729163],[107.96948259667705,12.591833483479451],[107.96955888994766,12.591749559298123],[107.9696504433624,12.591710459505466],[107.96973436662729,12.591727626075732],[107.97016924242963,12.592105281007816],[107.97037523521203,12.59217394464469],[107.97048967603453,12.592162500370824],[107.97074907589487,12.591868769412091],[107.97095506937558,12.591745745924904],[107.97167223253025,12.591888796523227],[107.97293871193352,12.591369997945831],[107.9732667763759,12.591113459582742],[107.97373216962787,12.590241800187117],[107.97423570928255,12.590009104631289],[107.97479265540288,12.589622865992036],[107.9748918375138,12.589469324177085],[107.9749757603307,12.588875185694029],[107.97509020157564,12.588757883660588],[107.9753496016485,12.588647256969566],[107.97574632969315,12.58863295252961],[107.97604387622928,12.58850420614291],[107.9762880166733,12.588343035267188],[107.97663133912015,12.588278184819947],[107.97717302583318,12.588361153956575],[107.97722643188858,12.58829630533355],[107.97722643191435,12.58792437232381],[107.97696703221625,12.587302576100413],[107.97679155579371,12.58704889904052],[107.97654741661742,12.586831460755608],[107.97650926906492,12.586727510479726],[107.97657030407227,12.586494813912031],[107.97689836857386,12.585962664425972],[107.97708910299366,12.585783372753198],[107.97711199074344,12.585447679061575],[107.97689073810587,12.585318933077607],[107.97687548023556,12.585218798024481],[107.97689836833585,12.585022341186503],[107.97702043795135,12.584893594984536],[107.97708147336566,12.584535967006245],[107.97718065478622,12.58430422401564],[107.97746294338688,12.583912264122521],[107.97774523139574,12.583661447079015],[107.97788255983316,12.583340059221914],[107.97811144132096,12.58314741704478],[107.97853105816033,12.582934747800223],[107.97868364618832,12.582812676989425],[107.97883623367673,12.582113634224593],[107.97901171029454,12.581897150030203],[107.97956102613101,12.58177507973858],[107.98005693739239,12.581454644335386],[107.98060625345559,12.581306825940093],[107.98091142858307,12.581281075508437],[107.98114794057189,12.580968270755827],[107.98127763985889,12.580912004018895],[107.98159044541437,12.580908189922598],[107.98172014545918,12.580851922984431],[107.98181169822827,12.580738435290687],[107.98186510433978,12.57990206232486],[107.98184221469263,12.57947195561609],[107.9815980753212,12.578600297399644],[107.98159044487835,12.578353295746501],[107.98197191455789,12.577590356482288],[107.98213976198826,12.57738150161655],[107.98213213180613,12.577217469719855],[107.98217790927465,12.577103982536707],[107.98248308460755,12.576826463740945],[107.98281114910657,12.576753030016551],[107.98297899494203,12.576766381803937],[107.98332231750555,12.576681504169652],[107.98400896330187,12.577967057614744],[107.98555010064344,12.577885995609796],[107.98767107259285,12.578209290205868],[107.9889604413672,12.578269372679634],[107.98940294504507,12.578109155030141],[107.99037187785942,12.577589401795313],[107.9932863068095,12.5763791894023],[107.99449175199459,12.575627693790432],[107.99498766225474,12.575436004944175],[107.9953233560529,12.575432190819388],[107.9960481484659,12.575609573691395],[107.99645250585186,12.575593362032413],[107.99752062094079,12.575109848802112],[108.00003832121503,12.573586830941117],[108.00102251346699,12.573377022687371],[108.00180834107454,12.573328384386198],[108.0029985262794,12.572947868834387],[108.0041963409225,12.572760948407934],[108.00550859682511,12.572747597241987],[108.00585954938646,12.572522529375064],[108.00618761291977,12.572098144271338],[108.00647753055075,12.571929343765815],[108.00671404204705,12.571932204823622],[108.0072938765521,12.572166809182175],[108.00801866769342,12.572204002207682],[108.00852220801137,12.572066673024608],[108.00913256004227,12.571987518319224],[108.01192491847429,12.572447188560245],[108.01574724524511,12.568604835058554],[108.01592272102157,12.568536170404702],[108.01743334128672,12.567366011076755],[108.01801317528707,12.567115195790969],[108.01842516236862,12.56709135351195],[108.02072160981864,12.567488081946616],[108.02174394891473,12.56727064433783],[108.02247637094204,12.566793807697215],[108.02271288184718,12.566681273402601],[108.02294176377634,12.566712745128823],[108.02397936112847,12.567638762398511],[108.02415483697031,12.567640670459326],[108.02453630728971,12.567445165926667],[108.02553575804846,12.566626914098006],[108.02609270393447,12.566490537811378],[108.02684801467554,12.566470511443402],[108.02862566355199,12.566661246252304],[108.0302278360327,12.566456205941527],[108.03165453236865,12.566957838806385],[108.03188341394306,12.56687486904103],[108.03224199627246,12.566449529683805],[108.03265398351175,12.566082366057831],[108.03314989477354,12.56600225682981],[108.0360032878457,12.566005117782803],[108.03614824641225,12.565921194937637],[108.03630083454468,12.565721876566451],[108.03633135180768,12.565408117700535],[108.03663652733958,12.564124471826837],[108.0373842081245,12.562474615263866],[108.03797167156063,12.562023527537413],[108.03911608059619,12.561749822638083],[108.04225939142471,12.561727888109715],[108.04405229858253,12.560460454795104],[108.04521959673629,12.560073262691915],[108.04612749431304,12.559968359232538],[108.04760759643338,12.560184843002633],[108.04830950169936,12.560192471708863],[108.04880541149107,12.559883482045846],[108.05049150698912,12.557929402513151],[108.05116289460109,12.55736482799851],[108.05189531592433,12.557258969407656],[108.0536424475164,12.557334309303133],[108.05455034503754,12.557230359531898],[108.055099662106,12.557293300936053],[108.05625933086083,12.557678586612257],[108.05742662749645,12.557662373192374],[108.0584489661274,12.557530766084751],[108.05897539429803,12.557364826968756],[108.0591661292545,12.555736904948208],[108.05957811597482,12.555140857997607],[108.06342333105417,12.553181057730757],[108.0637742836178,12.553070430744112],[108.0661622847158,12.55321157440106],[108.06855028463328,12.553122883009781],[108.06959551182423,12.553277378212224],[108.0708772507681,12.55317724209221],[108.07198351259787,12.553189640012283],[108.07282274552884,12.55385625808712],[108.0733491738945,12.55397642114634],[108.07448595414537,12.553960209101646],[108.07585161592168,12.553775196636085],[108.07687395490878,12.553928736967391],[108.07747667703349,12.554335956329506],[108.078178580776,12.554572467331782],[108.07881945015396,12.554636364564919],[108.08226030686403,12.554348353945377],[108.08510607103496,12.5524028573943],[108.08519762355736,12.55216730085285],[108.085144218147,12.551381472675446],[108.08469408349252,12.550292376773497],[108.08452623687268,12.549517040076143],[108.08595293385234,12.547213915865761],[108.08683794376437,12.546321276201347],[108.08814256916496,12.54558217979932],[108.08892839781349,12.54539716589792],[108.09202593127108,12.546953562525806],[108.09365862249554,12.546686534616827],[108.09635942797712,12.546528223719985],[108.09700792718337,12.546458605107292],[108.09773271841615,12.545860651533765],[108.09883135138307,12.545829180155748],[108.10197466287826,12.546357515889296],[108.1041719283269,12.547692659897963],[108.10572832482467,12.548224809989897],[108.10822313721629,12.548252466936754],[108.10916918177253,12.548004510769616],[108.11132830000419,12.546952608078405],[108.11341112505728,12.548436525421566],[108.11418932286895,12.54928815638106],[108.11476152828436,12.54925096312828],[108.11834734349773,12.546321275248294],[108.11856859605982,12.54391515510303],[108.11847704320202,12.538280846631388],[108.11753099758037,12.530919434179369],[108.1172639680473,12.526181579990979],[108.1200105498094,12.52449834507681],[108.12081926665498,12.524507881928674],[108.12171190513304,12.52498853272342],[108.12207048747466,12.525257470012974],[108.12228410994693,12.525230767155534],[108.12261980311749,12.52440869867365],[108.1228639443053,12.52414643907737],[108.12431352971923,12.523393989941853],[108.12567156133409,12.522877099004225],[108.12645738900656,12.522650123658924],[108.1272966224908,12.522658706343995],[108.13240831616459,12.524511695191546],[108.1330415565543,12.52451837132694],[108.13555162722231,12.524220825007438],[108.13864916187762,12.524135948288281],[108.1427995529386,12.522879004962991],[108.14414995604238,12.523255705489959],[108.14504259512235,12.523406387026155],[108.14560716960453,12.523124098477906],[108.14686602006259,12.522803664636033],[108.14762132938631,12.522992491464068],[108.14803331646289,12.523331046652988],[108.1481477579407,12.523595213618803],[108.14809435254033,12.524141670158611],[108.14820116393845,12.524348617043731],[108.14833849276053,12.524386764181328],[108.14855974581782,12.524292350031574],[108.14875048071468,12.524047255679104],[108.14897936181364,12.523896574535906],[108.14958208483301,12.523952842019973],[108.15004747764053,12.523667693299858],[108.15065782870145,12.52299630690432],[108.15264147220844,12.522958159605468],[108.15462511438669,12.523312926043086],[108.15462491974544,12.523315038816197],[108.15956896252601,12.5242046113529],[108.16484850278272,12.524614691320842],[108.16571825445192,12.52462327378759],[108.16596239496205,12.524537444170328],[108.16656511758643,12.523984311972459],[108.16718309775293,12.522812247170648],[108.16722124482195,12.521870016094741],[108.16598528259948,12.519794820333312],[108.16558855369203,12.517286657585444],[108.1655961842147,12.516313909735674],[108.16579454751484,12.515325902583216],[108.16644304593007,12.513067602109636],[108.16674059292407,12.512430547237452],[108.16707628588043,12.512046216629921],[108.16677110926219,12.509960531540882],[108.16710680358962,12.507507680424204],[108.16740434959492,12.506433843577446],[108.16831224759518,12.504742025114513],[108.16905229806837,12.50284230629992],[108.16963213201412,12.502183316574481],[108.16952532162493,12.501328823947729],[108.169685538181,12.501030323622217],[108.17017381901339,12.500358937582936],[108.1701738195695,12.500071881416416],[108.16967027867408,12.498658535377947],[108.16943376772043,12.498287556816477],[108.16908281626561,12.498083471088822],[108.16866319936172,12.498010991102445],[108.16857927640282,12.497691511047263],[108.16881578689515,12.49733006789762],[108.16873186353841,12.496968625014594],[108.16831987675106,12.497038243538533],[108.16812151220124,12.497010586254849],[108.16803758876357,12.496885655349123],[108.16802995990723,12.496634839028209],[108.16809862400281,12.496357319869498],[108.16828935891539,12.496245739506653],[108.16849535268484,12.496302006266648],[108.1698228669145,12.496857045064695],[108.16996019573419,12.497065899745483],[108.17021196609804,12.497093556208007],[108.17040270098349,12.497010586448908],[108.17052477221196,12.496801731996886],[108.17063921211071,12.49677407585767],[108.1707765421717,12.496843693531007],[108.17099779364874,12.496843693591622],[108.17108171665488,12.496746418794565],[108.17102831165272,12.496010182879488],[108.17119615773619,12.495634434100833],[108.17143266995073,12.495467541338622],[108.17169206938568,12.495397923099262],[108.17180650975325,12.495425579226504],[108.172012502553,12.495551464174932],[108.17216509141284,12.495537159347629],[108.1722795318482,12.49545419000776],[108.17222612659846,12.49489819735079],[108.17231767870047,12.494744656781283],[108.17248552581142,12.494675991389773],[108.17269914862021,12.494675991238543],[108.17301958425868,12.4948457453618],[108.17314165374309,12.494864819617256],[108.17349260583327,12.494802830095963],[108.17361467597,12.49470174104939],[108.1750642606429,12.49478757163076],[108.17528551418445,12.494661686727378],[108.17546098964749,12.493733761614358],[108.17544573096296,12.493569729234583],[108.17537706589167,12.49344289045155],[108.17519396066871,12.493489619974776],[108.17459123929666,12.49406373246681],[108.17426317498162,12.49403226161641],[108.17401903429919,12.49385201703238],[108.17392748181184,12.493685124641395],[108.17398851672277,12.49345814922247],[108.17425554522787,12.493041394211753],[108.17426317523422,12.492888806365562],[108.17414110470354,12.492679951332333],[108.17414873430214,12.49257218604047],[108.1742250280827,12.4924758654747],[108.17485063750591,12.49258553707299],[108.17505663158263,12.492554066284441],[108.1751405548895,12.492467282501542],[108.17520922017994,12.492270824891119],[108.17498033755243,12.491802570762998],[108.17506426078593,12.491500256592568],[108.17571275984022,12.490933773161462],[108.17604082382358,12.490835544790302],[108.17615526510791,12.49028050586203],[108.17641466385157,12.489701626116517],[108.17679613349513,12.489018794809374],[108.17693346234108,12.488292095027868],[108.1769334625171,12.487748500969975],[108.17684190977617,12.48725068304889],[108.17620104045493,12.485368129570887],[108.17607134099973,12.484537480251268],[108.17621629907995,12.484178897869363],[108.17771929048185,12.483675357503321],[108.17847460092082,12.483302470566535],[108.17875688775007,12.483085033235584],[108.17884081171998,12.482837077524062],[108.1788255527648,12.482592937598794],[108.17861955887138,12.482205745663189],[108.17814653664941,12.481516238811714],[108.17768114381923,12.480265971237701],[108.17758959020324,12.479821559663849],[108.17763536627427,12.478797313886563],[108.1775361841155,12.477742549852467],[108.1774141145467,12.477298137128624],[108.1772538975787,12.476918575657391],[108.1767045805803,12.47607075822185],[108.17509477820744,12.474155780859286],[108.1745759793124,12.473189708768803],[108.1744996847994,12.47290551380845],[108.17453020282296,12.472648975401507],[108.17466753238506,12.472424861187687],[108.17497270812058,12.472213145518142],[108.17638414551487,12.471616145241017],[108.17769640077398,12.470867511172886],[108.17847460014363,12.470315334205383],[108.17855852280354,12.470136043181878],[108.17860429864406,12.469879504105046],[108.17858904049254,12.469617243662784],[108.1784974877528,12.469343539463958],[108.17812364827158,12.468785639950202],[108.17776506582284,12.468366976625603],[108.17756670133718,12.46821057381382],[108.17712419668217,12.467998859066864],[108.17639940394542,12.467803354802625],[108.17604845200106,12.467797633167693],[108.17382066855684,12.468081828562143],[108.17321031630831,12.468048450578905],[108.17266100068196,12.467864391116096],[108.17212694270594,12.467512484825923],[108.17123430351785,12.46678101765601],[108.16905992641753,12.4647887910113],[108.16793077568238,12.463515636526576],[108.16778581743752,12.46321999719527],[108.16773241172066,12.462566730172005],[108.16780107617289,12.461690303584918],[108.16820543400165,12.45999371626748],[108.16924303140364,12.457626696811344],[108.16995256474566,12.45673882623368],[108.17028825825538,12.456130381713931],[108.17041795836047,12.455723162497991],[108.17042558688256,12.4553931918119],[108.17029588807485,12.454997416551057],[108.16977708885375,12.453830118955615],[108.16877763789786,12.451936121596896],[108.16776292897235,12.450140353134968],[108.1662294200483,12.448549624976325],[108.1643144411405,12.446869250682743],[108.16387193723948,12.446450587814368],[108.16364305586559,12.446143503649147],[108.16355913098575,12.44590317746294],[108.16355150243513,12.445540781812486],[108.16390245413282,12.443557139390178],[108.16407793011815,12.442131396197327],[108.16403978327446,12.441450472461433],[108.16383378970139,12.440605517642362],[108.16352098423108,12.44010293063421],[108.16283433892127,12.439578409357136],[108.16246049912858,12.43940007275081],[108.16206377005143,12.439321871782644],[108.16168993049627,12.439294214869788],[108.16111772509505,12.439339037841158],[108.16025560375739,12.439533588062647],[108.1597520627112,12.439533587444584],[108.15937822273355,12.439277048438994],[108.15897386509891,12.438640948528363],[108.15848558393694,12.437521334577804],[108.15834062527946,12.436290140698206],[108.15845506624419,12.435562487776721],[108.15895860609727,12.434984560392147],[108.16049974365916,12.433577891303292],[108.16078966062938,12.433203096927546],[108.1609346195943,12.432829256138787],[108.16098802515788,12.432416315638298],[108.16087358380513,12.43189370206172],[108.1604387089331,12.431377764560748],[108.1598130982234,12.430954333381308],[108.15875261245773,12.4305690482817],[108.15699022230596,12.429513331621319],[108.15606706559672,12.42923962671743],[108.15496080323678,12.428843850998616],[108.15309160147436,12.42843091034054],[108.15234392056679,12.428358431232894],[108.15154283456872,12.428509112733899],[108.15097062945622,12.428943987417115],[108.15061204791704,12.429479952727249],[108.15016191434567,12.430434580281862],[108.14974992677479,12.430853243395436],[108.14905565113145,12.431244250569405],[108.14792650106016,12.431484575941436],[108.14730089093322,12.431702013536636],[108.14597337656406,12.432578441322894],[108.14566057158731,12.432695742615428],[108.14534013592541,12.432711954778481],[108.14456193807669,12.432478304658188],[108.14402788063055,12.432210323238433],[108.14381425760976,12.432171222211508],[108.14361589287918,12.432277080007317],[108.1432954579237,12.43279015731507],[108.14302843067372,12.43306958353113],[108.14280717688047,12.433130618224286],[108.14259355450598,12.433069582800067],[108.14243333767205,12.432879802568452],[108.14225023145815,12.432220812998857],[108.14192979718767,12.429988261047207],[108.14170854373629,12.429016466687072],[108.14135759231006,12.428246851837322],[108.14071672289762,12.427554485179087],[108.13998430074268,12.427409525981838],[108.13976304870036,12.427486773921775],[108.1395952017438,12.427632686078182],[108.1394197264599,12.42799508175516],[108.13942735469416,12.428218241728356],[108.13953416682064,12.428441402362322],[108.13975541937566,12.428558703932353],[108.1404496941643,12.428709383897813],[108.14082353538016,12.430205699321927],[108.14083116416055,12.430847522438468],[108.1405336182227,12.431534167878144],[108.13988511958506,12.432171222150437],[108.13888566808986,12.432572719659873],[108.13723009024365,12.433136340664907],[108.13509385886714,12.434007045125442],[108.13439195482994,12.434035655694045],[108.1337434571862,12.433806773364434],[108.13346879842294,12.433533069675981],[108.13311021712829,12.432868358340313],[108.13295762881695,12.432259914377719],[108.133026292628,12.431746837311865],[108.13365953320903,12.43086468809178],[108.13557451098737,12.429010745453454],[108.13632219194787,12.428196307031387],[108.13642900290743,12.427961704239465],[108.13643663325212,12.427754755775888],[108.13629167385905,12.427593585197803],[108.13607805091969,12.427531595962156],[108.1347657944711,12.427715655884285],[108.13260667692431,12.427744266250105],[108.1324083121668,12.427793857742522],[108.13223283581705,12.427867290629308],[108.13204973074005,12.428123828120723],[108.13156145000912,12.429362651502776],[108.13079088049707,12.430373546301642],[108.13039415201148,12.43075310854435],[108.12972276580736,12.431266185727214],[108.12930314939341,12.431484576588085],[108.12890642030136,12.431578990699125],[108.12840288010852,12.431584712909125],[108.12773149427751,12.4315179560837],[108.12735002393389,12.431338665035474],[108.1269838128949,12.430987713217718],[108.12673204278832,12.430608150873798],[108.12636583182352,12.429826137619417],[108.12628190880841,12.429049846682252],[108.12643449701956,12.428681728667652],[108.12656419569453,12.42851960381964],[108.1268541124308,12.428542491495225],[108.12771623496945,12.428737994704399],[108.12821977495499,12.42861783191778],[108.12839525091458,12.428408023928109],[108.12845628588653,12.427914973522409],[108.12938707196125,12.425874110429648],[108.12969987668018,12.425013896233835],[108.1299058709437,12.424087878363743],[108.12999742344104,12.423417445185041],[108.12976854113607,12.422189112990118],[108.12928788927158,12.421558734025185],[108.1289293088344,12.421447153979704],[108.12854020866119,12.421519634696757],[108.12815110933153,12.421742793011832],[108.12792222756553,12.422010776553435],[108.12751787052403,12.422941562659778],[108.12717454752988,12.424109813227698],[108.12686174264748,12.42499196227402],[108.12609117333123,12.426560756413128],[108.12552659898786,12.427224514005577],[108.12485521161139,12.42759358553697],[108.1243211536861,12.42762696460422],[108.12404649533013,12.42754876375774],[108.12384050147053,12.427353259913396],[108.12381761341624,12.427096721882476],[108.12390916654383,12.426901218472278],[108.12515275757389,12.425917980042287],[108.12567918651476,12.42536580253509],[108.12600724912134,12.424745914383042],[108.12601487951989,12.424159404955208],[108.12558000329552,12.423484203676471],[108.12514512809976,12.422273036568244],[108.1249925407359,12.42146432019662],[108.1251146105445,12.420918819810062],[108.12562577999087,12.420093890383775],[108.12579362585764,12.419583675511763],[108.1257554796463,12.419381496743757],[108.12560289233039,12.419068691552141],[108.12533586287675,12.418795940787804],[108.12478654629763,12.418371555182528],[108.12306230353354,12.417511340184232],[108.12229936407176,12.417305347662277],[108.121803453279,12.417237636226522],[108.12061326765496,12.41733872568612],[108.11944597042722,12.417756435750245],[108.11875932523937,12.417797443943433],[108.11820237866685,12.417550441520714],[108.11611192463839,12.416069385412737],[108.11524980318748,12.415581104234914],[108.11336534238048,12.414623615849663],[108.11267106769587,12.414319393133809],[108.11232011602554,12.414199230147961],[108.1117784283234,12.414199230162678],[108.11148088193274,12.414347049737021],[108.11120622413482,12.414656039601178],[108.11048906062501,12.415660259986394],[108.1098253034447,12.417009709243478],[108.10943620462211,12.418669102374924],[108.10932176366376,12.419416782916503],[108.10889451804593,12.420482991531623],[108.10857408258026,12.420704243509036],[108.10823839002916,12.420774815136163],[108.10787980826801,12.420714732947385],[108.10758989075576,12.420497296511591],[108.10742967357774,12.420164463460464],[108.10744493260508,12.417832730031797],[108.10737626799569,12.417404529865308],[108.10726182682203,12.417222378386892],[108.10709397982271,12.417151806242492],[108.10686509853137,12.417137501202822],[108.1066438453314,12.417197583132406],[108.10637681671523,12.417405484117872],[108.10451524463268,12.419482586753826],[108.10423295716372,12.419759152029895],[108.10396592913766,12.419940350320271],[108.10370652907027,12.420012829654826],[108.10347001804061,12.420020459316154],[108.10314958240187,12.419955609028266],[108.10166185186608,12.419085858099988],[108.10113542294562,12.418874142395742],[108.10087602348685,12.418896076744018],[108.10067765968051,12.41896092673787],[108.10047929485255,12.419097302679873],[108.10033433646207,12.419426319891135],[108.09990709042314,12.42083394317358],[108.09935777405362,12.422339794868133],[108.09915178135455,12.423478482888335],[108.0991212627973,12.42447316464265],[108.09932725672569,12.426096318517807],[108.09921281578498,12.42639386495854],[108.09897630472358,12.42674481682006],[108.0986634986992,12.427036640669183],[108.09812944253935,12.427281735501943],[108.09668748638038,12.427446720610893],[108.09609239432578,12.4276098002059],[108.09550493002114,12.427999853009148],[108.0948106549244,12.42880952252652],[108.09376542814948,12.430137037485828],[108.09330003495224,12.430629133701798],[108.09293382407411,12.430913328322523],[108.0924455430561,12.431019185503713],[108.09217088498883,12.431019184996877],[108.09175889681711,12.430931447568897],[108.09106462284991,12.430450795169037],[108.09063737627355,12.429501890770858],[108.09008043063871,12.428897260019848],[108.0894929672556,12.428612111764508],[108.08912675551824,12.428531049829287],[108.0886766222422,12.42852055967346],[108.08628099223249,12.42906415333473],[108.08492296028005,12.429484723599291],[108.08425157258078,12.429804204656337],[108.08367173866561,12.430349706776457],[108.08352678066828,12.430544256701774],[108.08316056963754,12.431692479968975],[108.08289354058054,12.432036756486738],[108.08264177074169,12.432205557166833],[108.08237474196223,12.432263730463205],[108.08204667825541,12.432187437316324],[108.08169572637232,12.432044385950794],[108.0813524032985,12.431655286938902],[108.08111589167906,12.431021093469361],[108.08119218627223,12.430221914640843],[108.08109300348544,12.429583906515088],[108.08094041543366,12.429415105779158],[108.08071153373213,12.429305433500941],[108.08033769374863,12.429224370832449],[108.08002488844099,12.429238675468387],[108.0797807477875,12.429381727931805],[108.07964341875461,12.42956578666748],[108.0792161727949,12.430496573094588],[108.07896440325925,12.430713056995742],[108.07866685581361,12.430816053617706],[108.07827012817722,12.430778859971454],[108.07762925890808,12.430631994698022],[108.07646959097833,12.43089234811713],[108.07611863906526,12.43085610830191],[108.07539384612619,12.430651067858946],[108.07490556443456,12.430578589079254],[108.0746232768678,12.43051183172694],[108.07434098965251,12.430331587495896]]]]}}]}