{"type":"FeatureCollection","name":"gis.vn","features":[{"type":"Feature","properties":{"ma_huyen":"650","ten_huyen":"Krông Năng","loai":"Huyện","cap":2,"stt":8,"ma_tinh":"66","ten_tinh":"Đắk Lắk"},"geometry":{"type":"MultiPolygon","coordinates":[[[[108.31434651156259,12.92467058606914],[108.31370564233056,12.9230550618486],[108.31008930908668,12.917453179184434],[108.30815144322082,12.917124162459277],[108.30471058608583,12.916912446200222],[108.30383320504342,12.916985879743676],[108.30327625862581,12.91760004554175],[108.3029176777416,12.918115029396954],[108.30258198477338,12.919079194588264],[108.30221577417711,12.919377694486434],[108.30183430424673,12.919799218387537],[108.3016206812507,12.9204744192728],[108.30170460365764,12.92087305599538],[108.30117054739573,12.922408472069984],[108.3006136010477,12.92959822326731],[108.30059071383701,12.930639635472552],[108.30030079649728,12.932666192885842],[108.30014057821359,12.933246981634138],[108.29993458600826,12.933761011188036],[108.29964466889665,12.934279810058904],[108.29811116024193,12.937907587975454],[108.29772969059479,12.938911806311088],[108.29676838726311,12.942337404472568],[108.2952272486103,12.942354570616224],[108.29471607970605,12.94243944831556],[108.2944795686633,12.942697893845775],[108.29405232191499,12.943410289361973],[108.29369374062108,12.943776500003747],[108.29348774722838,12.943909059976985],[108.29278584300275,12.94419230167894],[108.29235096727983,12.944322954869087],[108.2906267243467,12.944556604791691],[108.28523274163355,12.945537936515704],[108.28470631399499,12.948481929697111],[108.28417988575053,12.94838656158519],[108.28345509306618,12.948188197935902],[108.28292103580515,12.95003165117395],[108.28329487584996,12.950417888748134],[108.28449269091176,12.95107306315662],[108.28578968780141,12.95155276089307],[108.2867662513909,12.952080142941112],[108.28747578389093,12.952732455883547],[108.28793354852479,12.953647029734393],[108.28964253220173,12.95618284999721],[108.29006214938617,12.957157504641788],[108.29018421995627,12.95865954194959],[108.29035969597645,12.959659945770962],[108.29089375404037,12.960674656350296],[108.29097004739558,12.96117533471712],[108.29087849504324,12.961838138586312],[108.2900926682027,12.96367872990575],[108.28964253314578,12.964580906569791],[108.28958912796571,12.965201747759894],[108.2896501633395,12.965643299375966],[108.29003163218184,12.966111552825133],[108.29084797758141,12.966736209951561],[108.29124470557083,12.966871631919421],[108.29187794616116,12.966843974861996],[108.2936098186858,12.96660078801894],[108.29431172289873,12.966857326863439],[108.294456680886,12.967229260256294],[108.29425831737528,12.9678710822617],[108.29431935228504,12.96807707637008],[108.29444142335079,12.968161953504794],[108.29481526324058,12.968251597822425],[108.29534932006115,12.968682659260525],[108.29601307830316,12.96876658343311],[108.29635640133505,12.968923939411447],[108.29687519906528,12.9692634466931],[108.29693623542765,12.969869984403083],[108.29292317318756,12.976522816106941],[108.29276295618534,12.976672543747094],[108.29258748031857,12.977268589523357],[108.29216786370209,12.977748287574403],[108.28973408683802,12.979675663623627],[108.2886049364595,12.9806875115025],[108.28796406793359,12.981528652939645],[108.2855760666683,12.983975781738032],[108.28527852069445,12.984137906041349],[108.28487416296531,12.98424662524934],[108.28040333792895,12.9846805475497],[108.27916737591687,12.98513544927515],[108.27777882530835,12.985710515469393],[108.2759019944387,12.987852469076282],[108.27598591802172,12.988133802527104],[108.27666493381392,12.989284886789171],[108.27666493408654,12.989619627175498],[108.27632924037476,12.991533650529933],[108.27641316416445,12.99190844466803],[108.27730580298697,12.993005170613241],[108.27742787382446,12.993982687329073],[108.27760334995529,12.994223967092458],[108.277870379402,12.99434794380448],[108.27903004685068,12.994574918618962],[108.27944966310599,12.994816197690387],[108.27953358678936,12.995069876234945],[108.27990742664544,12.995021237964137],[108.28060170212703,12.994777098175497],[108.28395863523708,12.995204344076821],[108.28472157504744,12.99585093435313],[108.28638478296112,12.997111692386467],[108.2865755181309,12.998394383309677],[108.2861940486199,13.002004995082666],[108.28557606818372,13.009612455191684],[108.2851411926598,13.013804808427947],[108.28641530075203,13.014442816343028],[108.28710194688824,13.01486052520099],[108.28762837555519,13.015532866482054],[108.28787251673255,13.017067328172788],[108.28799458678827,13.018309012084368],[108.2883455388491,13.019163504702227],[108.28871937931011,13.019558325256078],[108.28923054852153,13.019976988919565],[108.29039784538966,13.021437063684969],[108.2916948433391,13.022863760687452],[108.29343434476624,13.025322332242203],[108.29525777100912,13.026934996193964],[108.29586812217353,13.02720202563747],[108.29660054390334,13.02742041677088],[108.29693623836316,13.02835787885026],[108.29776021197179,13.029338255681441],[108.2983247868938,13.030111685981442],[108.29872914498159,13.03129233424363],[108.2994310501046,13.033958807851468],[108.29949208540626,13.035468474910159],[108.29943105009329,13.036644355164928],[108.29914876290817,13.038380041514719],[108.29934712687454,13.039609327658706],[108.29948445579568,13.040992156205872],[108.29947682655721,13.041962997196602],[108.29924794434415,13.044084921901158],[108.29909535707577,13.044810668166631],[108.29876729242378,13.04532565247779],[108.2967302452849,13.046280279984918],[108.2961351516149,13.047006026033184],[108.29579182879087,13.049258605234247],[108.29514333062849,13.050670997150057],[108.29430409675835,13.051396743488679],[108.29306050557663,13.051737205682848],[108.29147359237851,13.053830521121148],[108.29050465902722,13.054683105714906],[108.28975697828643,13.055080788427231],[108.28952046756157,13.055258170954371],[108.2890398151061,13.05604018418519],[108.2880479941212,13.056845085261159],[108.28781148319537,13.057324783757382],[108.28704854349873,13.058331863834809],[108.28642293294908,13.058694260138727],[108.28510304801937,13.058939353989613],[108.28392049107907,13.059684174570457],[108.28144093847946,13.060728447764346],[108.28128835051453,13.060966866349743],[108.28121968649728,13.061667816451756],[108.28105946947052,13.062173265129626],[108.28092213947585,13.062304871662743],[108.27954121897038,13.062881845101344],[108.27594777422358,13.065024751298067],[108.27546712225863,13.065601723939466],[108.2754366054864,13.066284555366138],[108.27536031132797,13.066746133007266],[108.27481099433496,13.067210572478865],[108.27457448312403,13.067513840851749],[108.27455159528392,13.068030732648632],[108.27487203017171,13.069641487987347],[108.27485677176321,13.071812051645777],[108.2749483243774,13.072201150829901],[108.27513142945088,13.072350877220336],[108.27568074594966,13.072652238005533],[108.2759554047156,13.073191063999467],[108.27623006304218,13.073988336482907],[108.27647420285746,13.076650995217447],[108.27632161576072,13.079366105846841],[108.27637502108794,13.07953299888365],[108.27660390260615,13.079738038672483],[108.27701588975951,13.079890626513816],[108.27726003066486,13.080041307772706],[108.27755757716936,13.08039512052246],[108.27786275310838,13.081968684027625],[108.27813741127352,13.084446329113542],[108.27834340524805,13.0853189404564],[108.27834340534054,13.087021250181479],[108.27849599336928,13.087807078184742],[108.27912923382227,13.088751215264532],[108.27857228722051,13.089487452173708],[108.27800008240862,13.089992899450685],[108.27770253690235,13.090398211067281],[108.27751943012262,13.090907472970144],[108.27766438934373,13.091574091235637],[108.27794667762838,13.092280763837948],[108.27799245382866,13.092996973242254],[108.27761861320745,13.093300241877001],[108.27717610864639,13.093346018451433],[108.27668019792735,13.093341249753058],[108.27616139897573,13.093758005573138],[108.2758943693991,13.094174761626315],[108.2757265240832,13.094264407707346],[108.274971213864,13.094113725897037],[108.27439137943722,13.094579118942331],[108.27392598673008,13.095468897789532],[108.27409383304571,13.095961947754038],[108.27552053004719,13.09726562043984],[108.27735921402994,13.098040957331794],[108.27831288825278,13.098822970059304],[108.27888509317167,13.099083323157462],[108.27986165614588,13.099647898097029],[108.28121205832714,13.100082774511439],[108.28248616699669,13.100877184367384],[108.28289815524721,13.102574724319116],[108.28310414817784,13.103779215032148],[108.28315755460073,13.104545969225134],[108.28298207862527,13.105025667319042],[108.28272267974266,13.105385203661335],[108.28305074364722,13.10581244977645],[108.28305837242887,13.106217760208732],[108.28295156006948,13.106918711340127],[108.28298207819161,13.107312578970962],[108.2838594580853,13.108922381143323],[108.28405782339888,13.110608477457916],[108.28424092814781,13.11098041074884],[108.28415700610228,13.112565417739164],[108.28385182971425,13.11348475954085],[108.28360005987207,13.113850016810712],[108.2806093371054,13.116614718964728],[108.27941152168208,13.118081470087144],[108.279113975573,13.118853946421144],[108.27878591196817,13.121770282240005],[108.27851125441506,13.122929950110148],[108.2781526716957,13.123537441182881],[108.27868672967797,13.123989482118642],[108.27950307547471,13.124164958839952],[108.28003713344074,13.124110599525606],[108.28041097271658,13.12421931850755],[108.28075429594762,13.124398609442297],[108.28102132557652,13.12439097964646],[108.2812425773567,13.124204059286155],[108.28173848796317,13.12422790116863],[108.2826463862883,13.124749561009436],[108.2837526486037,13.125537296379962],[108.2847673571668,13.12605990911765],[108.28524800934115,13.12660541091225],[108.28555318531724,13.127409357964561],[108.28668996568803,13.128944774502413],[108.28820821462617,13.129771610525815],[108.28993245743683,13.130255123176186],[108.29110738445424,13.130488773354205],[108.29184743534171,13.130270381026222],[108.29319783863214,13.130021472188176],[108.2943575070538,13.13000526001515],[108.29570790930268,13.129537958742763],[108.29659291976871,13.129163164539246],[108.29660054833033,13.129548449981742],[108.29653951337365,13.129687685454368],[108.29659291967963,13.129799265581388],[108.29692098358093,13.129892726271128],[108.29807302175547,13.130957027311094],[108.29859945102748,13.131566425326199],[108.29972097158283,13.132325548995327],[108.30061361067374,13.132679362755455],[108.30130788637506,13.133245845207592],[108.30464193125604,13.133567232494858],[108.3062288452167,13.13418712193528],[108.30811330591295,13.134765047336527],[108.30934926731787,13.135214228835641],[108.31033345954887,13.13589896653695],[108.31114980541973,13.137760538435096],[108.31149312775979,13.139306444913876],[108.3115770512804,13.139851946430015],[108.3117448971668,13.140034098638818],[108.31415578681433,13.140729327640795],[108.31494924412428,13.14133872493257],[108.31533071408518,13.141991991417157],[108.31544515509135,13.143093485482721],[108.31506368499217,13.144280810564823],[108.31428548677043,13.145190615572355],[108.3133547008408,13.146003147207775],[108.31259176058678,13.146880527167166],[108.31222555008802,13.147725481882711],[108.31205007433708,13.148239513007848],[108.31231710324464,13.148396869214853],[108.31272146123028,13.148558039880438],[108.31300374781706,13.148499866332072],[108.31322500117227,13.148499865533678],[108.31330892413868,13.148763080243352],[108.31428548691456,13.149626154606016],[108.314567773741,13.149728197815628],[108.31475850938872,13.149610896137325],[108.31472799232144,13.149347681743324],[108.31450673893956,13.149055858356455],[108.31452199843248,13.148938556112151],[108.31466695631036,13.148850818330967],[108.31542989577218,13.148982425051376],[108.31605550623017,13.149582286308034],[108.31629201696056,13.149567026462973],[108.31633779430268,13.149319071500202],[108.31620809361904,13.148938555566502],[108.31626150002252,13.14864577755677],[108.3167497812026,13.148368258831958],[108.31696340359014,13.147812266440566],[108.31716939844608,13.147519488781302],[108.31737539143778,13.147519488960985],[108.31764242017648,13.14782657163377],[108.31841298904389,13.147826571747256],[108.3203432262334,13.147066492313842],[108.32116720088457,13.146115679357575],[108.32167837047406,13.145866770267109],[108.32243368035186,13.14595450873214],[108.32303640218238,13.146071810504477],[108.32344839030088,13.146100420372973],[108.32381460052689,13.145866770033809],[108.32428762313957,13.145827669730073],[108.32514974478637,13.145862955560549],[108.32556173244313,13.146225352031076],[108.32579824354688,13.146292109729696],[108.32605764225302,13.14619197347476],[108.32616445402675,13.145885843949511],[108.32653829427323,13.14525069659296],[108.32659169968096,13.145122904685225],[108.32659932881295,13.144765276080884],[108.32667562283707,13.144536394329945],[108.32701894621036,13.14443721207698],[108.32733175066879,13.14449157226145],[108.32772084965909,13.144470591136052],[108.32828542599287,13.144356149869802],[108.32856008427082,13.144396204091775],[108.32925435947313,13.144255060090602],[108.3296053107571,13.144138711955225],[108.3296129401749,13.143892663738209],[108.32951375798672,13.14354457273179],[108.3298036753512,13.143037217730756],[108.33022329199352,13.142892260052982],[108.33068868497514,13.142979043758547],[108.33102437779108,13.142993349194242],[108.3311083024859,13.142791169977478],[108.3311845963696,13.142443079050977],[108.33100912022577,13.142138857039898],[108.33073446104189,13.141819375905595],[108.33029958573773,13.14148558956535],[108.33026906837493,13.14128341098006],[108.33033010292131,13.141022104952329],[108.33049795031593,13.140949624797132],[108.33080312563091,13.140963929506238],[108.33118459633401,13.141138452866006],[108.33142873617328,13.141167062776033],[108.33194753505131,13.141022104540346],[108.33219930531959,13.141094584087002],[108.33238241110882,13.14142836941807],[108.33244344624374,13.142008203783579],[108.3321077517297,13.142529863497474],[108.3321840464233,13.142791169498864],[108.33244344618679,13.14284839051467],[108.33271810410612,13.142834086291705],[108.33308431557211,13.142616647634648],[108.33318349736408,13.142399210162603],[108.33318349677742,13.142123598254267],[108.33335897348873,13.141935724610738],[108.33361837251853,13.141819375654773],[108.3338319962968,13.141847986493552],[108.33434316508078,13.142485994559118],[108.33498403395629,13.14289225984613],[108.33542653915282,13.14300860774725],[108.33561727452947,13.142863650066168],[108.33563253349493,13.142051119110869],[108.33577749148822,13.141935724689072],[108.33716604106948,13.14197863945582],[108.33764669277689,13.142211335667621],[108.33837148501843,13.142008203767196],[108.33867666117891,13.142036813852517],[108.33922597700467,13.142616647740596],[108.33957692982315,13.142848390745163],[108.33985158834894,13.14274730074729],[108.34012624604426,13.142747300125507],[108.34021779902012,13.142848390668947],[108.34012624600626,13.143226045450936],[108.34020254071022,13.143530267415658],[108.34152242519536,13.144647020601758],[108.34195730125798,13.145255464964404],[108.34288045790042,13.145879168005644],[108.3434297747826,13.146096605312676],[108.34415456661439,13.145980256413107],[108.34468099520919,13.145327943110814],[108.34468099551574,13.14509620066054],[108.3444444830441,13.144921678524486],[108.34440633611975,13.144675630572157],[108.34452077773842,13.144516366529391],[108.34481069448965,13.14435614923162],[108.34539052827998,13.144255059482234],[108.3456957047183,13.144081491170624],[108.34584066241486,13.143747705265177],[108.34645101473984,13.143486397976572],[108.34674093178701,13.143602746392556],[108.34703084866143,13.143820184454857],[108.34738943078116,13.143776315623224],[108.34806844613615,13.14334143887259],[108.34856435670558,13.143167871501197],[108.3486253918005,13.142920869501486],[108.34838888010114,13.142602342430996],[108.3482744391172,13.142283815180598],[108.34806844640369,13.142196076966881],[108.3477708997273,13.142211335064198],[108.34756490658732,13.142022508219654],[108.34695455388817,13.140601532918708],[108.34688589007871,13.139797585975277],[108.34759542297984,13.139294045846018],[108.34790822873263,13.139155762966984],[108.3497774305922,13.139116661890794],[108.35018941731673,13.138782875673238],[108.3512880501937,13.138270753202324],[108.35245534827436,13.137563126409255],[108.35327932258261,13.137503998451045],[108.3542635141342,13.136519806510751],[108.35526296487073,13.135320084401414],[108.35585805791716,13.1350053714837],[108.35617086343862,13.13469065922414],[108.35668203200656,13.134690659543054],[108.35685750857473,13.134553330226746],[108.35688039637083,13.134218590130674],[108.35672017927817,13.134002106296549],[108.35648366802423,13.133825676484703],[108.3564836680781,13.133550064493566],[108.35669729143063,13.133333580569428],[108.35768148299532,13.13315619764304],[108.35780355279768,13.132841484158677],[108.35776540637454,13.132448570162886],[108.35764333648827,13.132212059145408],[108.35733053095063,13.131897346892671],[108.35725423713066,13.131720917499814],[108.3572923841542,13.13160266173356],[108.35744497234086,13.131484406002855],[108.35845205207104,13.13136615055319],[108.35933706101166,13.131189720238167],[108.35994741333256,13.130854980875885],[108.36035940041086,13.130107300061564],[108.36080953492193,13.129831688056807],[108.36195394412704,13.129596130823979],[108.36276265993862,13.12867106555374],[108.36285421205669,13.128002540880212],[108.3631365000716,13.12737311549188],[108.3636629283995,13.126704589475192],[108.36457082599519,13.125976936705177],[108.3649828134788,13.12591780863976],[108.36549398321485,13.126055137352688],[108.36614248093488,13.126468078296915],[108.3668520148365,13.12721575904606],[108.36707326752094,13.127519028077888],[108.36718770793517,13.127833740108272],[108.36709615587527,13.128369704699207],[108.36712667357297,13.129477875108714],[108.36647817526773,13.131976502347054],[108.36649343346704,13.1326249998992],[108.36608144660546,13.133372680680456],[108.36580678886719,13.134455100799837],[108.36580678887661,13.135379212239203],[108.36631795735777,13.136205093772215],[108.36759969640367,13.136756317445245],[108.3688356582544,13.13752307120915],[108.36948415683298,13.139195816405353],[108.37070485990901,13.141615288433147],[108.37212392757445,13.143975632624313],[108.37361928928016,13.14472331321573],[108.37438222841068,13.145923035437399],[108.3748552514732,13.14619864733219],[108.37518331541804,13.146186248729258],[108.3753893089574,13.146119492323514],[108.37558004325426,13.14591349823651],[108.37597677203159,13.145332710474717],[108.37619802390454,13.144565956503596],[108.376449794417,13.14397563222111],[108.37708303366101,13.143129722669126],[108.37763235106931,13.142283813515979],[108.37783071469724,13.141693488605044],[108.37774679066054,13.141497031997998],[108.37739583896561,13.14118231942434],[108.37722036277205,13.140612023152425],[108.3772356219986,13.139588729481508],[108.3776476092084,13.138979332174069],[108.3781816664295,13.137956039750042],[108.37930318818262,13.138359443313739],[108.37977620966744,13.138587371477405],[108.38030263893914,13.138553992296801],[108.38101980240718,13.138285056168336],[108.38133260690728,13.13822020671765],[108.38164541241689,13.138223067402384],[108.38245412757361,13.13848342126074],[108.38355276083215,13.139240638957096],[108.3850938977346,13.140114204420641],[108.38550588653575,13.14039935263076],[108.38720724147929,13.141753570303782],[108.38808462172953,13.142284766072805],[108.38903829489843,13.142769233309302],[108.38987752974776,13.143261329624982],[108.39039632872718,13.143624679273827],[108.39170095432513,13.144264594731363],[108.39206716580327,13.14436568397974],[108.39237234162718,13.144387618481334],[108.39309713379808,13.14429892693952],[108.39389822034805,13.144282714106755],[108.39495870546324,13.144419089319403],[108.39586660374414,13.144409553589506],[108.39646932632986,13.144333259023597],[108.39676687250139,13.144227401074465],[108.39768239940275,13.143705740673559],[108.39806386959998,13.143423453418093],[108.39827749258134,13.143338576080074],[108.39888021436592,13.143287077932682],[108.39966604253357,13.143101111969155],[108.4000246232026,13.142919913392735],[108.40042898139798,13.142604247253757],[108.40090200488233,13.142582313323576],[108.40121480947164,13.142637625696864],[108.403396816342,13.143595115087887],[108.40487691908467,13.144181624716772],[108.40589925770078,13.144454375096982],[108.40818807663155,13.144200697364296],[108.4091264914876,13.14426173230158],[108.41062948269334,13.14448489297595],[108.41146108667985,13.144544973460064],[108.41292593097792,13.144577398874326],[108.41504690205159,13.144806280429123],[108.41618368175402,13.144853010690314],[108.41756460218778,13.144797697058827],[108.41827413564148,13.144579305852824],[108.41883871138896,13.144341840782293],[108.4199831206498,13.144050969927994],[108.42122671218607,13.143647565739121],[108.42259237286575,13.143158331381171],[108.4238741119149,13.142633810212876],[108.42469045717705,13.142399206219112],[108.42520925597972,13.142266645887464],[108.42965719346014,13.14156950932876],[108.4306642728005,13.141742124476272],[108.43169424109901,13.141803159798496],[108.43231985183169,13.142227544179901],[108.43235799835702,13.142982854752468],[108.43246481003384,13.143413915213738],[108.43308279175979,13.14378584860461],[108.43314382607768,13.144550695482943],[108.43366262537226,13.145089521940932],[108.43426534774188,13.145206822831408],[108.43441793542472,13.145461454760248],[108.43460104073115,13.145667447398809],[108.43479940521387,13.145657910855137],[108.43548605036007,13.145392789557306],[108.43602010867177,13.145305051668794],[108.43669912471638,13.145765676657975],[108.43710348212319,13.145931615043095],[108.43727895821638,13.146382703693751],[108.43726369936347,13.1468433286866],[108.43717977674365,13.147342099072295],[108.43689748823496,13.147508992243386],[108.43664571839678,13.147754087301193],[108.43667623627512,13.148253812580302],[108.43682882504896,13.148400678628631],[108.43698904160578,13.148430242151372],[108.43741628723176,13.14835204100059],[108.43770620440641,13.148391141665329],[108.4380876750601,13.148664846680598],[108.43832418531167,13.148783101848869],[108.43871328430428,13.148900403961788],[108.43930074862969,13.14879263813934],[108.4397966584374,13.148850812456063],[108.43994924662465,13.14874304745937],[108.44048330477672,13.14803828218561],[108.44066640972532,13.147979154725006],[108.4410021024672,13.14801825428759],[108.44119283760027,13.147891416681587],[108.44129201984678,13.147557630421591],[108.44131490848166,13.147185696934526],[108.44139883133356,13.147156133478061],[108.44152853136677,13.147244824238305],[108.44169637781027,13.14763678506947],[108.4417955609885,13.148277654798623],[108.44203207165855,13.148787870471716],[108.44238302395802,13.149003400235788],[108.44309255763937,13.149238004541534],[108.44409200811238,13.149316205067],[108.44530508184224,13.149081601519688],[108.44714376613064,13.148572339102296],[108.44767782423436,13.148669614519306],[108.44806692267149,13.148866070777819],[108.44824239848859,13.14913977516586],[108.44844076310234,13.149336231702891],[108.44916555553353,13.149414434467086],[108.45027944673294,13.149414433767337],[108.45065328783903,13.149806394151518],[108.45122549190279,13.149982822902869],[108.45176717917042,13.14998282320696],[108.45330068676824,13.148964299007673],[108.45471212478095,13.1478666195687],[108.45568868826852,13.147631062391687],[108.45603201097532,13.147589101111842],[108.45720693657599,13.145746601767268],[108.46050283601414,13.145658863388478],[108.46427175744874,13.147012126938343],[108.46448537998137,13.142631901080932],[108.46434042053171,13.14165724568272],[108.46437093913433,13.141362560002598],[108.4645311561123,13.141098392615332],[108.46479818532515,13.140894306245931],[108.46562216014678,13.140549075676493],[108.46736929130529,13.140064609630752],[108.46791097782892,13.140069377816065],[108.46833059499912,13.140162837591044],[108.46881124688935,13.140432728209365],[108.46940633883466,13.140969645491086],[108.46958944518714,13.141060246225333],[108.46980306807598,13.141062152652184],[108.4699251378886,13.141003978575915],[108.46995565627437,13.140857112957619],[108.46989462098797,13.140561473479229],[108.46963522093633,13.139791858714469],[108.4690706454794,13.13872374314729],[108.46811697193918,13.136694324688603],[108.46727773758998,13.135712039826693],[108.46595785256454,13.13534487486743],[108.46256277136398,13.134750736258736],[108.46069357051287,13.134378802649485],[108.4602968410819,13.134137524329972],[108.46022054789374,13.133901965622595],[108.4601366248924,13.133221995866297],[108.46017477122984,13.132013690852888],[108.46013662432934,13.131437671433458],[108.45984670772255,13.130755795035462],[108.4590685092444,13.129794491209028],[108.45850393414003,13.129385364437294],[108.45748922396145,13.128313434749689],[108.45722219553612,13.127956759622483],[108.45701620211196,13.127571475879616],[108.45698568375818,13.127099406446732],[108.45702383088133,13.126775157780916],[108.45720693590934,13.1264222981333],[108.4577867703626,13.125809085759677],[108.4586336328299,13.125197780330588],[108.4594118312007,13.124571216981016],[108.46012136467564,13.122661006160193],[108.46083089926972,13.121044528309273],[108.46089956269252,13.120691668655207],[108.4611131856652,13.120103251232496],[108.46138784453649,13.11975229942365],[108.46374532814438,13.117459666466068],[108.46447774859257,13.116965662993616],[108.46486684847686,13.1168807858142],[108.46528646479779,13.116855036634275],[108.46636983879948,13.11716116622964],[108.4670946317343,13.117315660929872],[108.46889516881096,13.117864024141396],[108.47018453676961,13.118172060404435],[108.47180959784933,13.118364702764337],[108.47259542472909,13.118314158071964],[108.47345754701281,13.117835414061071],[108.47437307404442,13.116958986802695],[108.47507497835934,13.1160520423026],[108.47622701659513,13.115060221043137],[108.47707387994156,13.114537606962463],[108.47862264687028,13.113903414331602],[108.47888967633591,13.11372889151022],[108.47943899233184,13.113527666515918],[108.47995016172001,13.113415132538536],[108.48052236623977,13.11336172698876],[108.48299429017659,13.112943063672404],[108.48491689696064,13.112533936574449],[108.4858782007462,13.112219224995009],[108.48664114141953,13.111812959426423],[108.48736593296215,13.111318956014847],[108.49001333267259,13.108954797520108],[108.49076864271873,13.10843122954122],[108.49223348720054,13.10694063737825],[108.49250814468539,13.106560120211505],[108.4928285802163,13.105958352636627],[108.49289724427521,13.105516801187758],[108.49284383767159,13.104512581864267],[108.49255392071319,13.10356558323325],[108.4916917996102,13.102465997143577],[108.49124166506218,13.102077850948193],[108.49049398500208,13.101569543121352],[108.48944875727489,13.100733170340227],[108.48891469941768,13.100078950452794],[108.48852560021943,13.099249253155238],[108.48844167753634,13.098982224382913],[108.48844167785823,13.098687538784374],[108.48868581703069,13.098335633447208],[108.49098989410335,13.097561250095534],[108.49379751256383,13.096290955031503],[108.49479696262318,13.0957988587315],[108.49559041915951,13.095334419761045],[108.49668142383057,13.09425390626342],[108.49765798552784,13.09275854521692],[108.49870321242214,13.09085119608733],[108.49960348117457,13.089605697237797],[108.49988576812756,13.089136490173535],[108.5000383560875,13.08863676388544],[108.50004598576535,13.088076004394997],[108.49992391518306,13.08780897489669],[108.499336452067,13.08685911524865],[108.49916097565334,13.086208710203968],[108.49916097567925,13.085795768876599],[108.49941274565678,13.085208305153806],[108.49990102724989,13.084415801862901],[108.50048086122459,13.084118254739288],[108.50178548816652,13.083957083797449],[108.50244924499135,13.08383310674832],[108.50325033109577,13.083654769742655],[108.50361654188907,13.083508857769326],[108.50386831250805,13.083343871790971],[108.504059047202,13.083084471943085],[108.50431081660143,13.082564719631034],[108.5047151753794,13.081934340568592],[108.50498983304381,13.08169496896194],[108.50521871513993,13.081566223118234],[108.5072405050831,13.081082709333227],[108.5079652968849,13.080847152409193],[108.50862142533887,13.080518134281316],[108.50977346412382,13.079634078445665],[108.51026174518897,13.079054244145983],[108.51080343221676,13.07825697272078],[108.51120779020323,13.077515013410963],[108.51152059529254,13.077051528393673],[108.51190206458493,13.076626189172254],[108.51282522183098,13.076037771792675],[108.5131227675479,13.075732596046509],[108.5133211321565,13.075305349637794],[108.51357290167128,13.074487098286296],[108.51455709361339,13.072205909139766],[108.51473257020106,13.071876890834668],[108.51488515793643,13.071747190477144],[108.51507589259126,13.07167471211354],[108.51525136866,13.071676619282437],[108.51536580998477,13.071695693145323],[108.51548025090788,13.071827299983509],[108.51554891494786,13.071996099566695],[108.51564046747984,13.072519667284169],[108.51575490898387,13.072744734566085],[108.51601430847712,13.073064215320855],[108.51643392521319,13.073292143948633],[108.51725026978804,13.073337919708013],[108.51747915160702,13.073246366448846],[108.51767751691396,13.073098548213702],[108.51789113979557,13.072746641825848],[108.5182573511737,13.072283155558823],[108.51889059018018,13.071692832082634],[108.51915761897534,13.071321851797837],[108.51921865365797,13.070968038735357],[108.51918050697874,13.070743926056968],[108.51799032168178,13.068343527425204],[108.51781484547176,13.067716963452181],[108.51783773377,13.06745660982612],[108.51793691545512,13.06723345040879],[108.51810476277883,13.06702936333385],[108.52060720349347,13.064739590862501],[108.52113363131019,13.064156896591655],[108.52129384919735,13.063934690224073],[108.52134725432873,13.063730604159982],[108.52135488457265,13.063338644531326],[108.52103444933616,13.062868482179164],[108.52026388053605,13.062133199529187],[108.51869222527438,13.060999281308954],[108.51831838519512,13.06079996282712],[108.51706716406734,13.060545332179368],[108.51682302285607,13.060393697324239],[108.51668569433093,13.060243017243184],[108.51657888350961,13.060017950662605],[108.51651021807373,13.058879263598687],[108.51612874797735,13.057420140926514],[108.51490041579518,13.05512273980288],[108.51465627517167,13.054271108262707],[108.51450368716851,13.053181058940211],[108.51425191681109,13.052345639921363],[108.51281759093374,13.048991566904185],[108.51221486834673,13.047875768180432],[108.51113149442976,13.046176320716777],[108.51110097646327,13.045989400882693],[108.51110854403375,13.04592387065403],[108.51118490063676,13.04526270122355],[108.51321431935459,13.041699773398625],[108.51367208188634,13.04078043042783],[108.51373311828236,13.040520077146068],[108.51371785942287,13.040015584123818],[108.51366445301115,13.039847737757439],[108.51317617179019,13.03937662261176],[108.51230642140776,13.0387338456268],[108.51126119408525,13.038145428670639],[108.51102468171212,13.037947064756652],[108.51084157684413,13.037721043847812],[108.51072713638032,13.037495976335615],[108.51075002417183,13.03714216348314],[108.51088735328106,13.036938077571959],[108.51240560335324,13.03519857525153],[108.5131303950405,13.034426098909865],[108.51184865669768,13.033771878742021],[108.51039144276332,13.033712750598399],[108.50539418897073,13.033708935409198],[108.4972994016169,13.0341075716398],[108.49642202019083,13.034034138915864],[108.49617788051208,13.033945448288904],[108.495964257558,13.033556349260946],[108.49602529210016,13.032134420252262],[108.495987145588,13.031078703003672],[108.49594899803937,13.030712491807469],[108.4957353749894,13.030085928337035],[108.49451467194648,13.02886713228132],[108.49333974485597,13.027972584755204],[108.49294301620775,13.027732258742846],[108.4923326656117,13.027122862138748],[108.49222585284637,13.026885397196468],[108.49223348301462,13.026260740252255],[108.49231740595266,13.02562559299001],[108.49235555270853,13.024290448937789],[108.49218770626916,13.023104077725215],[108.4922334830348,13.022587186844431],[108.49250814099574,13.022138005455938],[108.49283620458786,13.021774655650221],[108.49307271573993,13.021399861285195],[108.49311849271352,13.021034604912494],[108.4930803458678,13.020925885230309],[108.49295064594816,13.020796185691431],[108.49275228182518,13.020750409396816],[108.49086019180619,13.020775204427505],[108.48949453022674,13.020913487465851],[108.4754717026241,13.020388967213698],[108.47547170230648,13.020087606352591],[108.4755479964225,13.019463903015986],[108.47563954931822,13.019098646675916],[108.47581502566194,13.018863087908944],[108.4764635232254,13.01824415413167],[108.47717305751266,13.017712957402303],[108.47837087282576,13.016668684346389],[108.4787370832533,13.016273862698991],[108.47891255976624,13.015974409350624],[108.47907277678851,13.015028364276036],[108.47941609966284,13.013760931261508],[108.47948476315457,13.012824423060337],[108.47937032302536,13.010927564208703],[108.47940084057697,13.010065442655382],[108.47962972175864,13.009055501735798],[108.4799043798095,13.008283024462672],[108.48094197807015,13.004598981436908],[108.48160573449866,13.001847630540944],[108.48169728745805,13.001245862588503],[108.48163625297043,12.99896562648747],[108.48153707059475,12.997727757551688],[108.48143788690241,12.992212659190114],[108.4814302578425,12.987293605572974],[108.48152943969005,12.986682300886088],[108.4819414275971,12.985797290601095],[108.48204060980439,12.985370044941543],[108.48189565050308,12.983117466073603],[108.48190328052935,12.982167606504472],[108.48145314536839,12.979927425594521],[108.48149892297833,12.979070071981816],[108.48159047455097,12.978642826503483],[108.4820634980222,12.978248958004508],[108.48351308222917,12.977404956001386],[108.48761006788702,12.975898150804618],[108.49843617840587,12.971724871497559],[108.49839040160057,12.968554858383058],[108.4979936736234,12.968029382881696],[108.49752828076245,12.967749957029918],[108.49690266913358,12.967499139733018],[108.49652882922179,12.967189195695315],[108.49613210029845,12.966511134392066],[108.49604054839263,12.965744380389454],[108.49617787723835,12.96504152241903],[108.4967195645897,12.963729266249421],[108.4968950399484,12.96316469107144],[108.49696370387872,12.959489230195167],[108.49707814477406,12.957591417695662],[108.49691792782473,12.956467035901552],[108.4969942216697,12.955089929969288],[108.49725362092104,12.9542049198559],[108.49789449046874,12.95277250174343],[108.49824544322587,12.952225091313649],[108.49827595964206,12.95185792760093],[108.49803944920369,12.950662019721722],[108.49801656098303,12.949560524927723],[108.49827595934019,12.948521974554001],[108.49886342337894,12.946730019730538],[108.49946614520468,12.945227983257247],[108.49981709748091,12.94472635029741],[108.50045796627235,12.944180849292056],[108.50078603048668,12.943818452105395],[108.50104542903173,12.943225266978452],[108.50125142318797,12.942254426942398],[108.50143452934954,12.939935090816236],[108.50144215840494,12.939213158320426],[108.50135060489531,12.938866974951205],[108.50119038823746,12.938552262782855],[108.5003358957252,12.937226655942375],[108.5001222728603,12.93637693174934],[108.500221454985,12.934925438517105],[108.50028249033652,12.934518219354638],[108.50041981935536,12.93426835794154],[108.50064107189871,12.934019448936292],[108.50103017101743,12.933771492670223],[108.50283833717425,12.933155419031337],[108.50392171094626,12.932622314905991],[108.50640126375183,12.930497528848504],[108.5071260567814,12.929727912871634],[108.50742360318552,12.929291131300396],[108.50785084879927,12.92885530098582],[108.50917073507017,12.92824685724648],[108.51135274134919,12.927030921351149],[108.51156636467154,12.926982284549908],[108.51186391136613,12.92683637237303],[108.51223775084068,12.926373840990562],[108.51276417862428,12.925814033808173],[108.51309224326816,12.925715805656779],[108.51356526595569,12.925748229974076],[108.51525899077086,12.92483651737742],[108.51634999500538,12.924122215698954],[108.51843282003819,12.922994018577395],[108.51923390624027,12.922613502312798],[108.51968404013667,12.92209947240606],[108.51979848045205,12.92184197929914],[108.51985951573839,12.9209874873107],[108.51980611075228,12.920521140814998],[108.51960774544017,12.919586540212764],[108.5185854064142,12.917439819005848],[108.51785298570846,12.916242003714705],[108.51717396873721,12.915536284776822],[108.5167162056155,12.915233969707687],[108.5161363715956,12.914684654132138],[108.51551839055827,12.913486838751167],[108.51520558565069,12.913251280874354],[108.51422902217469,12.912956596115185],[108.51274892039065,12.912632347056185],[108.511566363978,12.912516952338153],[108.51025410847937,12.912588477785391],[108.51011677935969,12.91264951301954],[108.50999470822256,12.912642837311546],[108.5091173286029,12.91231000481311],[108.50749226719478,12.911148429453458],[108.50687428581561,12.91097200062704],[108.50572224706754,12.911080718184442],[108.50520344810482,12.910972000411828],[108.50471516740038,12.91093194541149],[108.50447865641114,12.910863281276107],[108.50405903892552,12.910476088978436],[108.50379200955082,12.91034066733857],[108.50336476433377,12.910288215363154],[108.50294514776704,12.910259605282594],[108.50264760125127,12.910286308448773],[108.502357683698,12.910388351117252],[108.5021364317675,12.910523773272377],[108.501823627115,12.910551429236424],[108.49959584262905,12.910299659566874],[108.4988557916366,12.910109878202253],[108.49848195147902,12.909731269960142],[108.49787159960326,12.908474327133835],[108.4976503479136,12.90810525566591],[108.49743672495747,12.908059478269768],[108.4971620668926,12.908074737838804],[108.49672719113605,12.9082845452937],[108.49564381628532,12.908633590391917],[108.49510975882475,12.908628822363543],[108.49411793753647,12.908382774268764],[108.49365254457724,12.908305526670093],[108.49315663378496,12.908135773030134],[108.49266835232065,12.907684684315955],[108.49246998898296,12.907576920027513],[108.49216481222184,12.90753019003019],[108.49204274257089,12.907453895751269],[108.49161549690442,12.906889320598959],[108.49140187311751,12.906755805420207],[108.49099751571278,12.906719566946125],[108.49043294090099,12.906504035599248],[108.49020405858104,12.906335235540865],[108.49007435813184,12.906294228200789],[108.48976918252207,12.906398178879925],[108.48919697839679,12.906682373683685],[108.48874684351934,12.907368064572369],[108.4882967092836,12.908460022320543],[108.48789998146306,12.909266831145507],[108.48750325268257,12.909743667660216],[108.48735066505121,12.909999253472542],[108.48726674144844,12.910029770034058],[108.48718281876477,12.909999253239723],[108.48636647221743,12.909174324313199],[108.48525258124661,12.908538223864184],[108.48506184682016,12.908499122879247],[108.4848787407408,12.908566834376959],[108.48403950716886,12.909442307352021],[108.48378010874603,12.909505249319444],[108.48316975633567,12.909224869069188],[108.48294087430973,12.909202934940803],[108.48275776982197,12.909285904418251],[108.4826738455172,12.909348847244956],[108.48194905322713,12.910354019998682],[108.48117848439665,12.911176087444948],[108.48074360913549,12.91139352529159],[108.48042317476896,12.911692978474123],[108.47997304017447,12.911867501626128],[108.47836323883958,12.912259461313537],[108.47817250324222,12.912491204548246],[108.47737141681648,12.914425255580756],[108.47708912975348,12.91468179514003],[108.4767915823206,12.914716126576442],[108.47563954493445,12.914372803989085],[108.47447224659834,12.913777711168349],[108.47407551879225,12.913695695109194],[108.47354146065892,12.913787248225061],[108.47321339653755,12.914062859730617],[108.47245045766324,12.915199640370536],[108.4721223935579,12.916268709242747],[108.47197743460742,12.917061212491962],[108.47166462999223,12.917845131760407],[108.47158833596514,12.918996217411866],[108.47126027133305,12.919256570462347],[108.47058125600104,12.919464470885096],[108.4700929749524,12.91948449935717],[108.46924611149042,12.91892850637886],[108.4686128714123,12.917738321201698],[108.46845265490865,12.916413667062814],[108.46821614319127,12.914899232005636],[108.46795674354476,12.914053322759175],[108.46767445631151,12.913308504176042],[108.46707936298077,12.912171724284105],[108.46696492222293,12.9120076923637],[108.46681996415724,12.911998154692967],[108.46646901088056,12.912133577513954],[108.46620198357832,12.91253030517271],[108.46554585554053,12.913990381502796],[108.46528645575795,12.914986969954896],[108.46539326713938,12.91586244345415],[108.46532460283444,12.916287782356848],[108.46511097957963,12.91656339407089],[108.46462269841803,12.916694047772394],[108.4643632993323,12.9166749740497],[108.4641420464647,12.916553857236066],[108.46400471759155,12.91640413032717],[108.46385975810793,12.9159148967502],[108.46340962430892,12.91527688706019],[108.46319600172991,12.915054681055834],[108.46307393143049,12.915025117080793],[108.46293660274841,12.915073755692692],[108.46281453173968,12.91526735142117],[108.46259327945592,12.916065576682355],[108.46274586782458,12.917579057217495],[108.46239491501996,12.918459299829326],[108.46176167559156,12.919363382587441],[108.46015187329522,12.920668962807307],[108.45934315745299,12.921588304972786],[108.45911427554192,12.92220247066223],[108.45906849920017,12.922593478047316],[108.45910664671852,12.92296636425888],[108.45942708029932,12.923720720650566],[108.45951100433354,12.923739794026556],[108.45962544571752,12.923715951658963],[108.46062489597115,12.923053148970508],[108.46133442948305,12.92226064467744],[108.46185322854222,12.921994570016405],[108.46231862197091,12.921917323012995],[108.46244832199136,12.921979311424302],[108.46264668563899,12.922231081977369],[108.46289082562846,12.92287481212832],[108.46295186161248,12.923493745650001],[108.46273823899469,12.92453801968559],[108.46260090918912,12.92596471670016],[108.4622881042282,12.926985148338252],[108.46176930493897,12.928344134175502],[108.46143361230841,12.92867315240627],[108.46015187395257,12.928485278045311],[108.4580537900278,12.927994135392035],[108.45726796236382,12.927009944463475],[108.45687886368597,12.926162127498998],[108.4561845890224,12.925039652469273],[108.45572682485403,12.924522760915018],[108.45544453698054,12.924610499330575],[108.45494862649868,12.924876574526646],[108.45401784031834,12.925561311975882],[108.45343037623728,12.925887469335228],[108.45306416542157,12.925974253627048],[108.45235463218236,12.925846461615235],[108.44986744964558,12.92480791064642],[108.4496385670265,12.924773576925903],[108.44645711054228,12.922942523311123],[108.44600697538965,12.922425631534136],[108.44582387023543,12.922062281045852],[108.44575520544969,12.920839671360639],[108.44660969745274,12.918856981818122],[108.44744893084476,12.91795957383981],[108.44493123088392,12.915329341023599],[108.44511433589287,12.910786989834943],[108.44557972898315,12.910488489547056],[108.44637318611741,12.910118464180414],[108.44643422072038,12.910107974063934],[108.44661732653995,12.910179498674468],[108.4468156908041,12.910107974264879],[108.44709797857402,12.91008031646876],[108.44731160170471,12.909859064452547],[108.44729634245434,12.909621599998873],[108.44773121752418,12.909057978020758],[108.44777699492069,12.908931139852571],[108.4477235886144,12.908677461415214],[108.44776936439611,12.908577326145496],[108.44823475789227,12.908622148546973],[108.44841786410393,12.90848958767648],[108.44847889837084,12.908345583790412],[108.44824238787768,12.90814721883502],[108.44820424083633,12.907959344465002],[108.44792195306569,12.90772664911845],[108.44796010002428,12.907500627310094],[108.44808217073317,12.907384280086118],[108.44821949926695,12.907362344276986],[108.44832631081319,12.907296541226119],[108.44833394049962,12.907196405262498],[108.44797535835944,12.906666162211902],[108.44796772936452,12.90647828865674],[108.44808217061028,12.906313303462259],[108.44835682861984,12.906141641515724],[108.4484560108472,12.905843141464967],[108.4487764460104,12.90566098926342],[108.44880696246128,12.905589464645526],[108.44869252143704,12.905556085930078],[108.44854756376357,12.905600908380805],[108.44843312274494,12.90556752954584],[108.44840260438077,12.905500772378128],[108.44842549239542,12.905417803010844],[108.44859333990799,12.90529096492791],[108.44860859828164,12.905130746421174],[108.44853993378474,12.905064943145918],[108.44829579356684,12.905025842282388],[108.44823475742974,12.904705408688368],[108.4480974285393,12.904329660393154],[108.44792195243274,12.902843835322459],[108.44789143514252,12.902297380757052],[108.4482729046471,12.90124261671269],[108.44858571053314,12.90097749543593],[108.44898243854479,12.900479677075875],[108.44908162075075,12.900204065409241],[108.44922657908079,12.900126817442452],[108.44924946729425,12.900065782605068],[108.44921894976434,12.89996660052196],[108.44888325655006,12.899667146208012],[108.44839497482575,12.89842260135737],[108.44754811240742,12.897276284876604],[108.447517594497,12.89684713091357],[108.4442369548099,12.88965738126529],[108.44231434623585,12.88623845787964],[108.44160481353214,12.884838464297616],[108.44103260862619,12.88353669937152],[108.4406740275571,12.882420900004016],[108.43963642884974,12.879712465126449],[108.4378664085335,12.876455667090795],[108.43726368672057,12.874835373762403],[108.43699665795003,12.87460172402244],[108.43676777648936,12.874464394740023],[108.43661518915766,12.87391317035888],[108.4364473415172,12.873637558902749],[108.43626423585229,12.873403908724509],[108.43598957743338,12.873161675808824],[108.43456288051843,12.871123673733731],[108.4339067536858,12.87078798074521],[108.43365498384534,12.870618226627183],[108.43330403083588,12.870269181858427],[108.43301411315645,12.870101334922227],[108.43201466357935,12.86984861086339],[108.43177815138041,12.869753243975202],[108.43127461191915,12.86953866710209],[108.43054981966527,12.869068505869853],[108.42968006799344,12.868702294904564],[108.42910786366433,12.868663193451749],[108.4287187648143,12.868502976698599],[108.42762013141594,12.868444802781156],[108.42733784477298,12.868371369804777],[108.42716999763323,12.86837136996439],[108.42708607393841,12.868420006885017],[108.42702503978133,12.868549706634562],[108.42649098094938,12.868740441989317],[108.42592640620074,12.868752839787337],[108.42537708893586,12.86889970467886],[108.42478199744623,12.868974091952548],[108.42388172870031,12.86895501877279],[108.42334767168207,12.868881586022257],[108.4225160668725,12.869029405572736],[108.42096729907182,12.868789079639505],[108.42005177184835,12.868545891940695],[108.41812153516545,12.86823022619914],[108.41722889632341,12.868138673711224],[108.41642781051313,12.867949846530387],[108.4160310806605,12.867735269094263],[108.41554280046469,12.867308977224747],[108.41451283193501,12.866214159377177],[108.41359730435101,12.865451219072217],[108.41292591799946,12.865083101537506],[108.41059132276791,12.864548090669885],[108.40985127175337,12.864420297922955],[108.40876789793613,12.86442029734527],[108.40853901526026,12.862755182208446],[108.40639515516266,12.86125409890344],[108.40544911063775,12.860639932110209],[108.40391560210115,12.857860925580503],[108.4028169696169,12.856858614261725],[108.40257282872457,12.858057382517845],[108.40177937108156,12.858887079623381],[108.40061970333463,12.859421136885784],[108.39870472491222,12.860194566805738],[108.39639301885937,12.859914187179605],[108.39511891049959,12.859543208339165],[108.39488239896077,12.85934675054892],[108.39445515235948,12.858728769969703],[108.39408131172853,12.858632449101911],[108.39383717109413,12.858494165915177],[108.39299793850614,12.858448390037378],[108.39215107506232,12.858568552692153],[108.39118214226735,12.858568553136607],[108.39053364415035,12.858650568715984],[108.38847370692527,12.858688716626316],[108.38675709270422,12.858371141867265],[108.3848650040617,12.857386950572188],[108.38433094604154,12.856974963219642],[108.38162251103806,12.853632334475042],[108.37608356928564,12.846351031012494],[108.37180347874813,12.839738253273552],[108.37158985567707,12.840229394966107],[108.37155170857537,12.840504053999652],[108.37183399654509,12.840708140482255],[108.3718339966065,12.840851191105653],[108.37171955605996,12.840958955889498],[108.37146778566589,12.841031436575648],[108.37146778587409,12.841150644854249],[108.37190266048214,12.841246966625368],[108.37184162621261,12.841534022437363],[108.37163563185098,12.841678027600476],[108.37141437987965,12.84212053219445],[108.37146015565335,12.842312220291626],[108.3717577032247,12.842348459997048],[108.3717500724467,12.84245622562724],[108.37150593305306,12.842539195499567],[108.3711626103207,12.842874888305262],[108.37114735045411,12.843006495760482],[108.37143726779946,12.84323442333923],[108.37180347858607,12.843401316436603],[108.3719026609621,12.843545321707367],[108.37186451423005,12.843653085987906],[108.3714220089333,12.843952540214524],[108.37131519781067,12.84410798950971],[108.37141437974599,12.844311122681384],[108.37168903775103,12.84441888745338],[108.37169666835415,12.844562892337102],[108.37160511484272,12.844766024015282],[108.37131519845279,12.844873789583463],[108.3713533446497,12.845054034058977],[108.37129993864455,12.845244769109232],[108.37074299280987,12.845377329355856],[108.37064381061062,12.845580462101664],[108.37020130557389,12.845795992122941],[108.37019367735044,12.84593999780571],[108.37033100582411,12.846059207773786],[108.37060566438974,12.846059207153278],[108.37082691727184,12.846106890605338],[108.37080402811648,12.846203211251261],[108.37051411091747,12.846418742550284],[108.37057514693792,12.846658114847815],[108.37078877025006,12.846742037646534],[108.37152882132919,12.846765879347585],[108.37207813737878,12.847052935274085],[108.37240620072747,12.847100619198441],[108.37244434787058,12.84723222664735],[108.37220020804655,12.8475679193491],[108.37219257833426,12.847867373912992],[108.37239094262362,12.848202113376018],[108.37236042476245,12.848441485859064],[108.37217731916301,12.84848916985067],[108.37188740200692,12.848430041151834],[108.37173481480238,12.848489169921033],[108.37171955616303,12.848621729285108],[108.37179585060825,12.84875333769557],[108.3719942138227,12.8488963884371],[108.37196369599138,12.849219683810185],[108.37168903856961,12.849782351426274],[108.37156696793,12.850381259623683],[108.37173481507966,12.85060823378669],[108.37204761989736,12.850692156214935],[108.37211628464789,12.850812320000069],[108.3720933961731,12.850907687885886],[108.37190266149359,12.851015452904115],[108.37181873799388,12.851267223028545],[108.37158222769217,12.851338748429134],[108.37150593327037,12.851482752906719],[108.37156696818866,12.851806048291992],[108.37191029114463,12.852476481625338],[108.37185688521937,12.852847461110464],[108.37149830369562,12.85333765003496],[108.37148304507456,12.853685740786426],[108.37184162635991,12.854380016180928],[108.37210865555133,12.854546909169226],[108.37213154355963,12.854811076701528],[108.37199421416938,12.854977969751689],[108.37216206159856,12.855564478374971],[108.37249775456912,12.855971697752615],[108.37249775417014,12.856318835499032],[108.37216206156168,12.856570605659424],[108.37191029152484,12.85688150398166],[108.37209339670174,12.857277279114518],[108.37202473262191,12.857551937307807],[108.37169666891619,12.857743624523666],[108.37163563233055,12.858030680800503],[108.3717805914174,12.858234768332943],[108.37196369654319,12.858210925690182],[108.37213154335674,12.857995394927643],[108.3722765024539,12.857922915842815],[108.37239094277928,12.857922915597552],[108.37240620199059,12.858103160587243],[108.37199421487573,12.859108333231205],[108.37168903894711,12.860006693726266],[108.37171955692446,12.860412960208116],[108.37053700115173,12.862331752271036],[108.3695375497073,12.868287449177283],[108.3694612559757,12.873725299350983],[108.36839314186732,12.8792594729055],[108.36828632974071,12.87941587473787],[108.366241651713,12.88447893224954],[108.36494465492773,12.889328366430453],[108.36364002885968,12.896947271080247],[108.363083083582,12.896970158545715],[108.36298390135678,12.897258168577027],[108.36294575432863,12.897527105391362],[108.3631441179203,12.897805578421657],[108.3630220481654,12.898603802944695],[108.3627245024927,12.899256116960228],[108.36261006160554,12.899673825714789],[108.36255665506083,12.900224095928964],[108.36254902606983,12.900931721800408],[108.36247273255445,12.901232130229516],[108.36090107651478,12.903470403223704],[108.35973377967169,12.905241377849956],[108.35935993987238,12.90549886906987],[108.35836811788663,12.906013853552798],[108.35787983639425,12.906454450561222],[108.35662861590812,12.906650907959513],[108.35482807813253,12.907184011726383],[108.35102101015909,12.90897978092132],[108.34985371372363,12.91088140772477],[108.3476945944378,12.91142309500831],[108.34568806416621,12.912293799024377],[108.34321614107274,12.913526900211787],[108.34141560319716,12.91445196501453],[108.3357088164408,12.918136962666285],[108.33540364050205,12.919625648179734],[108.33547230446302,12.92104566937144],[108.33517475904544,12.922282584985181],[108.33457203666896,12.922986397311607],[108.33428212014472,12.923541435664072],[108.33436604335368,12.924644836210213],[108.33428212026737,12.925125488592126],[108.31434651156259,12.92467058606914]]]]}}]}