{"type":"FeatureCollection","name":"gis.vn","features":[{"type":"Feature","properties":{"ma_huyen":"654","ten_huyen":"Krông Pắc","loai":"Huyện","cap":2,"stt":12,"ma_tinh":"66","ten_tinh":"Đắk Lắk"},"geometry":{"type":"MultiPolygon","coordinates":[[[[108.34547442790888,12.625328416693813],[108.34434527658684,12.622602815813964],[108.34219378785703,12.621737833540827],[108.34087390242239,12.621775027626702],[108.33242816271954,12.621607180541472],[108.32405871637877,12.623251314801937],[108.32267016605628,12.623764391887748],[108.3223268443969,12.6237453189787],[108.32199878081265,12.623816843745274],[108.3218474827364,12.623857578156645],[108.32120532369855,12.624030466956961],[108.31732196102733,12.624917384803178],[108.30853289816655,12.627089854602367],[108.29480761665344,12.623905537795503],[108.29338092061838,12.623891232104427],[108.29037493866595,12.625358937412996],[108.28752154585452,12.626201986091168],[108.28681201172924,12.626314518582918],[108.28606433054446,12.626147625698321],[108.28503436251688,12.62554395028327],[108.28103655994592,12.630230306105098],[108.27948016359626,12.632372259522885],[108.28208178712923,12.63694131243888],[108.27835101277287,12.639159559344066],[108.27764910968145,12.640969633195157],[108.27462786948362,12.643262267487954],[108.27339190747234,12.643555997830696],[108.27008075027423,12.646646857554964],[108.26615161231646,12.645414709251522],[108.2650911259533,12.646467566350033],[108.26452655133119,12.646802306351761],[108.26178759840427,12.647545218464321],[108.26047534182729,12.64739549150255],[108.25749224876999,12.64574754262576],[108.25648516915454,12.644758583355134],[108.25613421654707,12.644189238573203],[108.25588244716135,12.643164992700402],[108.25396746833677,12.641818404961427],[108.25279254211468,12.641479850025805],[108.25072497544049,12.639762283437161],[108.24929064958715,12.639065147381991],[108.24526995869991,12.638633132044507],[108.24391955532612,12.63886296846437],[108.24333209196561,12.638661743604867],[108.24031085119141,12.63697278523314],[108.23753375246834,12.636359573378844],[108.22815722606265,12.630026222937227],[108.21837634133604,12.63019311633375],[108.21865099971032,12.630663277393197],[108.2186509990906,12.631160140880732],[108.21881884658177,12.631509186465944],[108.21907824575173,12.631627442106192],[108.21936816221374,12.631627442334748],[108.21946734441241,12.63171327300656],[108.21943682771276,12.631822945318191],[108.21964282150901,12.632168175448362],[108.21963519147475,12.632418991843096],[108.21943682717071,12.632903458054512],[108.21904009895356,12.633566261926058],[108.21884936456068,12.634067894312508],[108.2189866933055,12.635933281044558],[108.21947497439682,12.63659131741902],[108.21961230396046,12.637198807591973],[108.2202531725044,12.637785317326099],[108.22042864899707,12.63838231745658],[108.22013110316438,12.63954961448222],[108.22007006786355,12.640179993270936],[108.22019213792707,12.640951516245899],[108.22043627901468,12.64126622867955],[108.22075671330072,12.641456963313649],[108.22081774809644,12.641704918784749],[108.22047442649608,12.642143609472226],[108.21996325649695,12.643031479443952],[108.2193223875601,12.643597008327582],[108.21890277042567,12.643697144266536],[108.21801013123145,12.643207909241447],[108.21783465487664,12.643282296476752],[108.21790332054076,12.643697145076167],[108.21736163282979,12.645431878417378],[108.21707171576814,12.64660299056291],[108.21633929424264,12.647976281997813],[108.21618670621037,12.648658159185961],[108.21572894197685,12.648934723772227],[108.21566790706729,12.649211290388394],[108.21575183042764,12.649370554438914],[108.21588915966288,12.650112511713914],[108.21611041269462,12.653419855506868],[108.21553820754475,12.65541971050241],[108.2156068727256,12.657020929659984],[108.21524829053688,12.658437135609748],[108.21427172894198,12.659694078865632],[108.21144885298331,12.66151845731023],[108.20905322260646,12.662143114624236],[108.20734423874573,12.662395837875797],[108.20511645440142,12.662371996444461],[108.20419329853195,12.662430170899636],[108.2039110106612,12.662487391509949],[108.20380419982608,12.662606599643594],[108.20368212879565,12.6630557814709],[108.2034837646146,12.66413724853018],[108.20334643613829,12.664225939314965],[108.20295733671452,12.66426694715952],[108.19385546864176,12.663470629234727],[108.1790697013006,12.663264637018127],[108.17898577794226,12.664862995424887],[108.17422503635169,12.663030986432156],[108.17439288285831,12.662537937495172],[108.16169756932925,12.653945331611622],[108.16090411225046,12.653331165874468],[108.15976733209901,12.652605419867903],[108.15804308879473,12.651610736329145],[108.15688342142927,12.650880223098952],[108.15672320378944,12.651351337860765],[108.15686816205942,12.655000095831502],[108.15423602109264,12.654730205641176],[108.15396899236453,12.65594232619948],[108.15271777236015,12.655900365056516],[108.15029162432035,12.655698186269722],[108.14790362371238,12.655778294147467],[108.14655322080569,12.655712490941964],[108.14592761125742,12.655779248734552],[108.14603442189141,12.65703905235383],[108.14615649242636,12.65791166425267],[108.14614886345345,12.658233052453962],[108.14627856371563,12.658666020510045],[108.14669817898411,12.659439450759189],[108.14679736209276,12.65958726939685],[108.14697283813855,12.659653073348617],[108.14714831394454,12.65978086559601],[108.14707202038822,12.659853345888093],[108.14707202026113,12.659987813733068],[108.14733904968263,12.660158520748398],[108.14744585994782,12.660381680919842],[108.14773577750917,12.66126382916239],[108.14772814867804,12.661476498858379],[108.1480256949139,12.662198430700494],[108.14808672921107,12.663008099550348],[108.14472216670596,12.662562734146489],[108.14108294509846,12.662180311097748],[108.13990038916334,12.662127859079298],[108.13883990300748,12.662166959859608],[108.13799304041639,12.662152653732218],[108.13790911723845,12.662594206473845],[108.13713854825762,12.665118582153147],[108.13698596073357,12.666402227082678],[108.13677996767035,12.668746359004981],[108.13655871435061,12.669396764398293],[108.13641375687561,12.670030004014565],[108.13590258677864,12.67277372574226],[108.13572711046123,12.673526174804005],[108.13523119983115,12.674675352782199],[108.1350328356106,12.67592180442695],[108.13488024811751,12.676515944196339],[108.1348497306266,12.67679918591094],[108.13488787815,12.677193052384576],[108.1351015009385,12.67790926224136],[108.13508624225035,12.67879999391298],[108.1350023187141,12.679212934665665],[108.13445300178375,12.680083640047416],[108.13428515618108,12.680226690959842],[108.13376635694085,12.680591948010049],[108.13364428571516,12.68074358306097],[108.13317889314835,12.680989630457917],[108.13236254773521,12.681298621525418],[108.13111895702919,12.681942351480805],[108.13098162787666,12.68213403987769],[108.13085955695776,12.682230361415943],[108.13074511588654,12.682488807244283],[108.13050860509505,12.682630904565046],[108.13028735349073,12.68302381828301],[108.13027972279626,12.683745749361156],[108.13018054077791,12.684230216617665],[108.13034838812202,12.68445146861787],[108.13054675237797,12.685190566064357],[108.13065356426449,12.685332663653183],[108.13066882299066,12.685461408960823],[108.13076037523966,12.685490972956885],[108.13089770457488,12.685608275452246],[108.13111895689376,12.685608275332562],[108.13136309712947,12.685720809607828],[108.13165301423106,12.68651808071728],[108.13168444823377,12.686865427074265],[108.13164538560909,12.687188514051748],[108.1316530143079,12.687237151362536],[108.1316682735591,12.687334425964925],[108.13179797315934,12.687647231555113],[108.13214129627917,12.688031562505397],[108.13244647142939,12.688503630637932],[108.13251513632771,12.688678153202329],[108.13246173089816,12.6898731078362],[108.1327058712729,12.690092452216977],[108.13283557124963,12.69030130723746],[108.13299578820302,12.690652259226486],[108.13308734148269,12.691152938097543],[108.13321704071932,12.691402800431394],[108.13354510433864,12.69188249961384],[108.13364428625178,12.691945441465448],[108.1336824331268,12.6920665581683],[108.13373583964045,12.692101844260382],[108.13398760976239,12.692111380294255],[108.1340791622157,12.692070372365592],[108.13426226765166,12.69207037256805],[108.1344835210605,12.692368872354715],[108.13475054996383,12.692601569897459],[108.135132018431,12.692765601500337],[108.1354295660405,12.692949660675895],[108.13565844750423,12.69323480917268],[108.13577288802604,12.693275817817],[108.13587207064535,12.69342268338336],[108.1361314699613,12.693535216236507],[108.1365129395224,12.693901427858853],[108.13658923395552,12.69392717623061],[108.13676470929647,12.693847068037773],[108.13690203903268,12.693832763862918],[108.13703936735055,12.693851836014513],[108.13743609604694,12.694012053606079],[108.13763446109783,12.694021590211877],[108.13784808390062,12.69397009280807],[108.13846606508234,12.693997748247495],[108.13861102312912,12.69405020039702],[108.13879412913668,12.69422949129538],[108.13896960463705,12.694578536272783],[108.13901538075736,12.694860823537606],[108.13916796874112,12.695112593796768],[108.13931292825369,12.695171721763488],[108.13967150902695,12.695230849155754],[108.13997668532919,12.695358641394666],[108.14093035928435,12.695455916216597],[108.14115924099653,12.6956104114047],[108.14165515226279,12.695801145888558],[108.14233416766659,12.695570357367759],[108.1425020141177,12.69535673426285],[108.14278430210065,12.69521940491103],[108.14316577227316,12.69511259332673],[108.14360827663756,12.6950754004015],[108.14382952883547,12.694989568844811],[108.14408892881538,12.69496000582041],[108.14425677536282,12.694979078727282],[108.14458483863339,12.695277579461713],[108.14482897978058,12.695264227677766],[108.14496630853834,12.695310004392187],[108.1451265259762,12.695482618803373],[108.14550036571184,12.695572263834851],[108.14569873116777,12.695869810873136],[108.14579028312104,12.695917495334117],[108.14644641059978,12.695730573709426],[108.14691180375756,12.695824988427631],[108.14747638034108,12.695640929227316],[108.14818591306769,12.695557006172772],[108.14865130575922,12.695611365351516],[108.14910907047062,12.695597060382408],[108.14972705135659,12.695953733487537],[108.15053576678065,12.695968992906645],[108.15114611772461,12.696196920517405],[108.15148181177562,12.696207412186832],[108.1520082401143,12.696077711772336],[108.15224475085162,12.696899778850199],[108.153648560167,12.697456724746237],[108.15505999837013,12.699055082503676],[108.15579242079228,12.700645811795164],[108.15717334020883,12.701689132217147],[108.15824145597827,12.701700576137156],[108.15966052334997,12.701280959082094],[108.15994281020812,12.701322920576871],[108.16070575098192,12.702945120406133],[108.16002673495966,12.703271276715173],[108.15942401254787,12.70346296578131],[108.15857714947846,12.70361841504998],[108.1582414555867,12.703634626498912],[108.15748614605938,12.703613645623644],[108.15679187041314,12.703505880831809],[108.15616626099147,12.703336126511244],[108.15290850934672,12.702222234702946],[108.15093249512692,12.701500303848693],[108.15035266156673,12.701344855450612],[108.14992541530066,12.703178771108877],[108.14921588287181,12.705610640595928],[108.14919299367993,12.706117995509118],[108.14924639981159,12.706350692315784],[108.14926165844821,12.7066978293935],[108.14919299386338,12.70776594439969],[108.1490022599612,12.709576972435446],[108.14886492959687,12.710055716677388],[108.1488496718103,12.71034372700932],[108.15344256652435,12.711595900408213],[108.16041583433801,12.712918647249616],[108.16375750889296,12.713864691626286],[108.16382617367636,12.714735396340831],[108.16398639014885,12.714934714265235],[108.16530628256507,12.715319087819802],[108.16530627626169,12.715316183795725],[108.16539782797861,12.715345747710094],[108.16679400892286,12.716705686627545],[108.16880053827875,12.717992193812409],[108.17983264379473,12.72278822142143],[108.18476886209066,12.724265463888129],[108.1837236359652,12.733095533536263],[108.18421954685017,12.733248121938734],[108.18383044787997,12.73500002188457],[108.19292468617505,12.736633666025305],[108.19413775991725,12.737079984432807],[108.19499225232522,12.737115271070529],[108.19532794521278,12.736300832329812],[108.19606036706125,12.735762007530056],[108.19637317206163,12.73494756942161],[108.19645709582987,12.734321005290836],[108.19643420720101,12.732930547568486],[108.19638080209518,12.732529051177321],[108.19655627791255,12.732328779697324],[108.19739551129129,12.73187769161231],[108.19803637962235,12.731765157479147],[108.19865436075185,12.731452351947171],[108.19920367744596,12.73086298252154],[108.20014209257964,12.73148954611271],[108.20045631651317,12.73171707431314],[108.2024614290477,12.733168966361545],[108.20285052803614,12.73330629495294],[108.20300311638957,12.733488446999772],[108.20312518618123,12.734115011125096],[108.2029725994469,12.734740621365138],[108.20214862454812,12.735292799479453],[108.2021257357049,12.735718137297805],[108.20230121248903,12.736019499337543],[108.20265216420329,12.736044294308714],[108.20314807491292,12.73581827317519],[108.20375079747548,12.735743887450692],[108.20410174946747,12.735893614036156],[108.20427722535278,12.736470587112874],[108.20402545497832,12.73709715119973],[108.2033235510934,12.737297422171576],[108.20287341660467,12.737597830028378],[108.2027971223281,12.738173849120413],[108.20310229874056,12.738850957919412],[108.20314807506647,12.73977792926959],[108.20252246416763,12.741406805643221],[108.20285052805094,12.742459661365086],[108.20287341617616,12.743988401675093],[108.20300311669568,12.745341665845272],[108.2040254561374,12.746544248462897],[108.20453662439664,12.747611410885177],[108.20502490710935,12.748164541604455],[108.20577258671133,12.748909361865946],[108.20595569271441,12.74947393702239],[108.20867175698181,12.747253782756284],[108.20944232604816,12.747043974832769],[108.21471423753538,12.746735937173527],[108.2158204997949,12.744595891761325],[108.21639270394817,12.744369871409132],[108.22156543394757,12.743900662979156],[108.22328204833802,12.743705159960514],[108.2223283734478,12.745064145812567],[108.22142047504525,12.746846562591072],[108.22101611836885,12.747155553548135],[108.22077197665014,12.747506505815286],[108.2203828784817,12.749259358723625],[108.22044391325302,12.750063307254962],[108.22055835461374,12.750287420013997],[108.22089404730437,12.750492460403086],[108.2209474535372,12.750561125144058],[108.22089404759322,12.750683195417595],[108.22070331228015,12.750762349711781],[108.22015399582885,12.751202947014596],[108.21974963828737,12.751811392088635],[108.21962756818158,12.752495175934776],[108.219749638245,12.752920515462513],[108.2201234780429,12.753817921889475],[108.22017688417488,12.754075414083706],[108.22019977287266,12.754520780592474],[108.22032947222394,12.754798299920788],[108.22141284638849,12.75559175748361],[108.22274036110731,12.756242162017648],[108.22390765884845,12.75702417550835],[108.22760028584162,12.758354551345722],[108.23120898998017,12.758261090482902],[108.23854083805294,12.757957822455847],[108.2536088920566,12.757053737745602],[108.25443286762196,12.756939296421844],[108.25646991558605,12.757763271373426],[108.25680560857863,12.757821445863442],[108.25738544222611,12.757511501475856],[108.25739307212203,12.75733793258017],[108.25825519292876,12.757110958540435],[108.25935382649358,12.755934124809393],[108.26018543031141,12.754622821646029],[108.26075000534179,12.754256611850678],[108.2617113093077,12.753754978759622],[108.2625047663384,12.753542308560608],[108.27371234753828,12.75431955264373],[108.2764741878246,12.754230860299772],[108.27700824602948,12.755119685890127],[108.27809161948444,12.756574039098416],[108.2791139583761,12.756933573541868],[108.28019733303701,12.757571581562864],[108.28067798490106,12.758098011023893],[108.28123493142682,12.759136561988885],[108.2816469179608,12.759510401644283],[108.28209705186319,12.759524706991666],[108.28325671963302,12.759066943830348],[108.28437824072174,12.758540515925981],[108.28525562191321,12.758582476718958],[108.2871629699544,12.759261492480498],[108.2896043763974,12.75958002028511],[108.2913209903636,12.75928914898407],[108.29274768749839,12.759565714673352],[108.29409046025191,12.759662988823685],[108.29526538693456,12.759330157290139],[108.2982561101187,12.756864908948994],[108.29898090210436,12.756574038158957],[108.29975147107783,12.756504420130641],[108.30069751580689,12.755521181978384],[108.30120868536828,12.755119684887916],[108.30178851882616,12.754468324374407],[108.30226154221164,12.753983858407588],[108.30252094124987,12.753771188610573],[108.30316181047861,12.75391042565153],[108.30347461655948,12.753788354110627],[108.30394000877536,12.75338971969594],[108.30473346622834,12.753209474784382],[108.30506915875972,12.753008249493945],[108.30545062948522,12.752229097179848],[108.30602283313044,12.751639725864306],[108.30714435436757,12.75134504152343],[108.30793781083071,12.753281000013764],[108.30765552389651,12.755114915101323],[108.30769367116686,12.755585077122028],[108.30783862941891,12.756013277261701],[108.30818195262015,12.756444337786686],[108.30834979955219,12.756872536998689],[108.3082429871582,12.758142831310884],[108.30823535844344,12.759039285142192],[108.30857868192224,12.759298685681753],[108.30903644526562,12.76447332179818],[108.30934925027131,12.772405032359268],[108.3097764974844,12.777151469605418],[108.310150337161,12.778473261268493],[108.31048603052103,12.780265215598039],[108.31058521292877,12.781219843382898],[108.310569954686,12.782677058248222],[108.3107225413761,12.784162882617563],[108.31092853567158,12.784885768412236],[108.31435413428478,12.789393786423133],[108.31713886360866,12.792393092335944],[108.33416004340617,12.802791002869572],[108.33476276639684,12.803633097382376],[108.33503742457411,12.803852441852696],[108.33577747559177,12.804021242902426],[108.33695240201205,12.804100397945358],[108.34261341394674,12.805844668228493],[108.34367389889208,12.806858424418298],[108.34453602069321,12.811011675219307],[108.344154550739,12.812289599422648],[108.34415455112222,12.812880877596795],[108.34404773954267,12.813643816832712],[108.35288257890747,12.817720774375859],[108.3529207262312,12.818161372162793],[108.35281391412602,12.81848752835583],[108.35260792011888,12.818861369067884],[108.35227222702544,12.81921041436854],[108.35162372974345,12.819755914930015],[108.34993000347846,12.821693781761429],[108.34950275771267,12.822370890008266],[108.34824390755034,12.825170878398133],[108.34797687859876,12.826524143047369],[108.34790821354852,12.827577952323434],[108.34819813053929,12.829399470471376],[108.34861011916423,12.829756144912285],[108.35013599818888,12.83052671398077],[108.35186786971184,12.831550007023306],[108.35396595374368,12.832983378561599],[108.35451527026233,12.833187464382362],[108.36960621241377,12.837777499456028],[108.37030811785986,12.838074091904188],[108.37068195803606,12.838074091986712],[108.37076588090137,12.837954882338085],[108.37116261008362,12.837834718849477],[108.3713533448956,12.837559107425161],[108.37158222695972,12.837416055863038],[108.37185688447474,12.837571504815491],[108.37209339606179,12.837834719387143],[108.37221546577207,12.837834718758948],[108.37224598328939,12.83767927016036],[108.37215443088593,12.837116603437742],[108.3749086423963,12.834735277932525],[108.37940235592932,12.832984331669321],[108.38227100753237,12.831321123056469],[108.38381214566394,12.828794839166806],[108.38512440116114,12.825760248239577],[108.38584919368492,12.822718979974411],[108.38629169809565,12.821681382459916],[108.38822956561309,12.821280838609242],[108.39785785999165,12.82042825372953],[108.39981861579867,12.820172669295602],[108.40132923566871,12.819384933634824],[108.41059132054261,12.813111663067147],[108.41326160882308,12.81230199453865],[108.41342945510343,12.811907173329438],[108.41394825349961,12.811498045959375],[108.41425342906821,12.81131589511368],[108.41447468219711,12.810966849693404],[108.41461201119616,12.810936332074403],[108.4148103749752,12.810815215775985],[108.41516132773653,12.810784697962912],[108.41552753822015,12.81098210897001],[108.41611500210236,12.811073660639165],[108.41654224820222,12.810982108475695],[108.416992382456,12.810784697630611],[108.41813679129395,12.810678839554964],[108.41823597307405,12.810436607115502],[108.41812153235534,12.810133337651594],[108.41787739260522,12.809859633894337],[108.4177095456893,12.809435249158925],[108.41757221611678,12.808934569420451],[108.41764851068365,12.808767676785022],[108.4180757564604,12.808752418088254],[108.41819782590343,12.808661818761596],[108.4181215321179,12.808312773920726],[108.41823597369714,12.808312774031357],[108.41846485571432,12.808433890444302],[108.41949482359999,12.808419585480964],[108.41972370537478,12.808389067873614],[108.4198305169971,12.8082374333389],[108.41966266997638,12.807524084686115],[108.41951008259295,12.80731236965174],[108.41960163570869,12.807130217220916],[108.41981525799581,12.807023405962585],[108.41995258759697,12.806796431208248],[108.41996784617412,12.806675314631219],[108.41949482300441,12.806614279901677],[108.4193956408192,12.806508421887822],[108.41942615918586,12.806280493283476],[108.41960163500538,12.80596196678272],[108.419922069585,12.805764555365924],[108.42007465753147,12.805764555352349],[108.42033405721384,12.805931448141758],[108.42056293891105,12.806023001902641],[108.42075367360147,12.805977225181433],[108.42113514278715,12.8057044740483],[108.42113514347572,12.805491804670195],[108.42096729583768,12.80534017030546],[108.4206239739069,12.805294394162578],[108.42041035123223,12.80499112506077],[108.42062397430118,12.804581999063121],[108.42082996718001,12.804309248094203],[108.42122669604008,12.804232954287388],[108.4213945432426,12.804081320612823],[108.42137928383534,12.803839087035765],[108.42115040220523,12.803232550803383],[108.42110462623167,12.802694678530901],[108.42104358979348,12.802519202228414],[108.42076893232742,12.802295087956615],[108.42054004970673,12.802023290916596],[108.42054005037126,12.801578879706776],[108.42072315561767,12.801220297251435],[108.4210969957465,12.800852179068508],[108.42108173735969,12.80041825726128],[108.42135639588702,12.800016760522311],[108.42190571222719,12.799788832340207],[108.42217274069068,12.799603818937493],[108.42245502788896,12.799470305497643],[108.42301960357815,12.799159406863302],[108.42313404405924,12.798963903942921],[108.42314930313995,12.798769353683186],[108.42373676676549,12.797136663685077],[108.42543049161135,12.794802068540106],[108.42679615357471,12.792398809325277],[108.42709369953353,12.791586278393329],[108.42712421769836,12.791067479619008],[108.42697162996427,12.790497182201833],[108.42612476692588,12.78987443373197],[108.42533131001831,12.789373754541456],[108.42479725143836,12.788828252806436],[108.42497272864051,12.7879880654518],[108.4258272200856,12.786975263891707],[108.42821522003673,12.783471464035868],[108.42976398743417,12.781794904017383],[108.43019886321979,12.78144299767761],[108.43057270293811,12.781389592429392],[108.43075580902057,12.781277058980102],[108.4308168445208,12.78112065586844],[108.43083973260501,12.780807851126415],[108.4306566261289,12.780591366711207],[108.43034382100525,12.780360578416051],[108.43015308601206,12.780087827260122],[108.43019123355376,12.779547094384414],[108.43029041606282,12.779127477080017],[108.43053455597794,12.7788490041813],[108.43100757882868,12.77844846073291],[108.43116016710552,12.778236744725596],[108.4312059434879,12.777980206418407],[108.43133564268955,12.777735112639775],[108.43133564349937,12.777240155908594],[108.43144245440318,12.777027485604927],[108.43170185387137,12.776716587750327],[108.4317400012216,12.775904057336106],[108.43151874791265,12.77560269647445],[108.43105335498288,12.775256512478459],[108.43084736094066,12.77496945642327],[108.43085499142151,12.774697659320909],[108.43132038435391,12.772978184218458],[108.43129749634736,12.772535679188477],[108.43138904810203,12.771994946609025],[108.43227405791579,12.770767567698561],[108.43284626280106,12.769715664544105],[108.43363971936115,12.76922356796152],[108.43503589857369,12.76803338364431],[108.4359514258773,12.768006679823433],[108.43650837209358,12.767677662232758],[108.43704242985909,12.767103550066508],[108.43777485212689,12.764987346753601],[108.43853779082683,12.763972636603013],[108.43879718941959,12.763529179301802],[108.43887348347467,12.763179179784844],[108.43902607196866,12.763001796577433],[108.43942280064626,12.763015147615635],[108.43969745907263,12.762795802808377],[108.43987293458078,12.762384770109156],[108.44015522236543,12.762287495162509],[108.44062061601244,12.762249347557354],[108.4408571263816,12.76216637774328],[108.4411623026,12.761869785521887],[108.44216938247428,12.761455891004145],[108.44254322228055,12.761155483594163],[108.44297046894569,12.76056134323949],[108.44331379180183,12.759810802482207],[108.44318409180795,12.75893056037325],[108.44325275678342,12.75821244471352],[108.4439317720286,12.757441875849286],[108.44400043700126,12.75644909998539],[108.44369526111483,12.75639855495918],[108.44383259075028,12.755714770900006],[108.44417591301487,12.755714771682428],[108.444420053277,12.755276079892008],[108.4448701885859,12.75516068638115],[108.44500751766864,12.754902240282213],[108.44478626412032,12.754527446071965],[108.44447345967478,12.754441615341742],[108.44439716576558,12.753916140899916],[108.44465656390885,12.753714916499474],[108.44486255826808,12.753678675933614],[108.44501514651421,12.753771181966824],[108.4468690890826,12.752888079645105],[108.4481660859239,12.751987810565744],[108.44860096124503,12.751261111341012],[108.44868488546608,12.750067111141345],[108.4490663551428,12.749046679618788],[108.45010395249072,12.74852692676605],[108.45207996500395,12.748388643878632],[108.45320148582573,12.748475428441983],[108.45404834934544,12.74843060572737],[108.45513935360914,12.748163576241872],[108.45643635068737,12.74823319542543],[108.45687122489082,12.748094912819736],[108.45710010743194,12.747367257958146],[108.45614643297354,12.746675844684091],[108.45545215859042,12.747073527018157],[108.45510883495064,12.746848459039109],[108.45423908382445,12.746467943816677],[108.45368976839609,12.74646794310847],[108.45299549291576,12.746727343333632],[108.4524232882629,12.746519442592973],[108.45207996534529,12.746052141604181],[108.45183582542872,12.744910593889117],[108.45173664275747,12.74335324330738],[108.45185108347026,12.742106791273159],[108.45209522372794,12.741830225364286],[108.45355243762143,12.741466874867832],[108.45359821479656,12.7410854065736],[108.45259876378688,12.741276140656902],[108.45175190056312,12.74132763903447],[108.45114154987377,12.740826006037212],[108.45053882785375,12.740428323995516],[108.45012683946413,12.73971879051699],[108.44861621959296,12.738334055220458],[108.44828815543855,12.73817860599379],[108.44726581657737,12.737866755569188],[108.4461748132228,12.737817164010027],[108.44532795059898,12.737113352672953],[108.44497699878761,12.735688563192646],[108.4447710045391,12.735638018419497],[108.44459552814472,12.735883112301668],[108.4442674644754,12.735855456336164],[108.44440479312628,12.734991427800855],[108.44336719591803,12.732534762261439],[108.44203205181635,12.722759600164892],[108.44390125305615,12.721750611966973],[108.44602222482551,12.722798700641599],[108.44728870523976,12.723090524552607],[108.45110340163426,12.723200196534465],[108.45201892931311,12.723054284667004],[108.45426960120126,12.721725816555205],[108.45555133882354,12.720738763142691],[108.45603962017891,12.720641488650006],[108.45644397780151,12.720263833445854],[108.45697803602678,12.71945893202239],[108.45744342886866,12.719397897087628],[108.45862598465915,12.719604844307762],[108.4594499590153,12.719251985451574],[108.46003742279309,12.719349260098351],[108.46101398529659,12.719715469832595],[108.46154041367475,12.719703072567018],[108.46175403660752,12.719385499036699],[108.46199054833818,12.718786591916427],[108.46244831175554,12.718356485321905],[108.46324939787596,12.718134278250243],[108.46395893201787,12.71834217891038],[108.46259326984836,12.712517136762468],[108.46057147908184,12.705627792316102],[108.45895404842403,12.70055424494127],[108.46030445118004,12.699563376765502],[108.46083087893034,12.698894852330037],[108.46055622133822,12.697391860748848],[108.46006793873664,12.697369927070454],[108.45997638699713,12.69727455902325],[108.4599763873906,12.696939819274744],[108.4600603102161,12.69654595220838],[108.46002216283158,12.696381920200729],[108.45970172801067,12.695958489496045],[108.45968647022401,12.695795410270067],[108.45971698693889,12.695718163201963],[108.46024341509208,12.695130699036586],[108.46026630419621,12.694847457972184],[108.45989246321305,12.694302910192928],[108.45961017615099,12.694234244648882],[108.45993060993978,12.69372116851168],[108.4596483229417,12.693690650886465],[108.45968646984397,12.69254242649818],[108.45976276343708,12.692025535453098],[108.459945869083,12.691801421882811],[108.46010608553723,12.691466682419577],[108.46070117829106,12.690716140856154],[108.46080036076563,12.69012104769026],[108.46080799049722,12.689392441013664],[108.46094531935813,12.688790671828391],[108.46211261621994,12.687094085473314],[108.46313495577618,12.687384955585724],[108.46367664222916,12.687930457955439],[108.46394367200236,12.68841492494047],[108.46397418875402,12.688588492396276],[108.46382923092361,12.688986175707495],[108.46379108371713,12.689207427219182],[108.46468372230731,12.690255515860883],[108.46529407443835,12.690429084188962],[108.46573657932144,12.690397613713484],[108.46611804905177,12.690261237249208],[108.4669877994,12.689513557040408],[108.4672243103896,12.689364783398018],[108.46801013866073,12.689065330532603],[108.46908588411064,12.688788764460021],[108.47016925757165,12.68831192682103],[108.47162647192997,12.688261382197897],[108.47234363453673,12.688091628337995],[108.47307605659607,12.688021055715456],[108.47349567406327,12.688135497039562],[108.47377796076424,12.688375822991619],[108.47489948211289,12.688549391868417],[108.47556324010095,12.688781134834672],[108.4757005690873,12.689037673358207],[108.47569293872216,12.689301841390758],[108.47559375708362,12.689896934324889],[108.4754487992912,12.690043799164657],[108.47514362326838,12.690085761184035],[108.47473926531008,12.6899675063594],[108.47415943117312,12.689983718213094],[108.47390766089565,12.690161101452887],[108.47374744419497,12.690513960835808],[108.47319049832801,12.690840118223853],[108.47315235100865,12.691052787447326],[108.47319049786383,12.691330306239259],[108.47335834505424,12.691663137971142],[108.47359485562107,12.69201123062841],[108.47392292022643,12.692276351559993],[108.47422046582706,12.692375532901824],[108.47438068447582,12.692324035530568],[108.47470111778198,12.692020766040391],[108.47519702948885,12.691700331889791],[108.47538013422701,12.691460958852229],[108.47543354026844,12.69110237825593],[108.47550220501559,12.691019408562681],[108.47567768143162,12.690932624515897],[108.4758760446035,12.690932623721135],[108.47601337402644,12.69099652035362],[108.4760744085966,12.691070907023628],[108.47608966781446,12.691181533561455],[108.47579975119163,12.691871038894424],[108.47578449202678,12.69206368172385],[108.47612018575266,12.692449919745494],[108.47614307433633,12.692603461400893],[108.47589893275739,12.692902915266298],[108.47562427530299,12.693153731214293],[108.4756242755751,12.69345890704914],[108.4756929392403,12.693719260577652],[108.47596759861648,12.69405781529669],[108.47615833261924,12.694061629196183],[108.47669238975122,12.693695417776652],[108.47738666495641,12.693009727488041],[108.47782153975629,12.692842833781382],[108.47785968728648,12.692759863870888],[108.47838611610372,12.692632072185894],[108.47878284412761,12.692661634853101],[108.47895832046629,12.692613952458204],[108.47900409739202,12.692546241188552],[108.47898120775132,12.692072264615444],[108.47892017314415,12.69176041294998],[108.47895069097785,12.691671721783694],[108.47906513205314,12.691597335029028],[108.48020954089061,12.69172608050529],[108.48052234603834,12.691617361537421],[108.48071308076122,12.690466277285472],[108.48070545183779,12.689957968757012],[108.48076648692968,12.68989693405199],[108.4810258862874,12.689821592608563],[108.4811403268726,12.689890258178302],[108.48130817423336,12.69021546100066],[108.4814149851179,12.69065510448037],[108.48133106200596,12.69119107009759],[108.48143024406623,12.691428535269393],[108.4815904610019,12.691516273081955],[108.48188037853139,12.691516272671167],[108.48248310098043,12.691272131882041],[108.48258228347132,12.691116682604685],[108.48245258281364,12.691001287517825],[108.4824907300243,12.690770498887389],[108.48233814245239,12.690580718042087],[108.48234577094344,12.690405241681846],[108.48251361792933,12.690126768597768],[108.48246021171974,12.689814917589644],[108.48238391809105,12.689605109111831],[108.48213977795277,12.689476362849668],[108.48197956141354,12.689266554645766],[108.4819643025142,12.689056747184921],[108.48204822528407,12.688791624314156],[108.48221607209368,12.688744894900855],[108.48246021176747,12.68874489514332],[108.48261280029438,12.688677183978191],[108.48266620559095,12.688269964514433],[108.48278827587625,12.687924735097395],[108.4829866409938,12.68768726961404],[108.48296375163578,12.687525145372764],[108.48271198208624,12.687464109217746],[108.48248310117444,12.687490812471193],[108.48217792473316,12.68767391830475],[108.48197193089956,12.687883727076917],[108.481826973295,12.687883726961486],[108.48152942560753,12.68759953155031],[108.48140735631388,12.687586181000462],[108.48115558573362,12.687741630086244],[108.48102588605994,12.687748304409352],[108.48092670356338,12.687626234564805],[108.48094959170595,12.687152259125781],[108.48078174629896,12.686941496846094],[108.48076648723725,12.686840406617591],[108.48082752197405,12.686738363641675],[108.48143024391574,12.686291090801753],[108.48149127889975,12.685965888081421],[108.48158283183471,12.685837141877693],[108.48172779013642,12.685837141441306],[108.48191852532058,12.68610798580251],[108.48204822467025,12.686643951080734],[108.48233814195376,12.68673836373364],[108.4828264232751,12.6866239224372],[108.48283405321044,12.686440817709194],[108.48300952882542,12.686087957526349],[108.4829027165111,12.685572973710139],[108.48297138230167,12.685010305810652],[108.4827425003298,12.684617392456934],[108.48155994423165,12.683702818520366],[108.48155231365506,12.683506361305596],[108.48172016088452,12.683174482432838],[108.48194141399667,12.683100096465585],[108.48212451887244,12.683194510845333],[108.48262805845943,12.683628431227426],[108.48280353493922,12.683648458455075],[108.48287982916062,12.683600775890326],[108.48287220021206,12.682733885021655],[108.48239917712952,12.682015768496992],[108.48239917661643,12.681920401422971],[108.48258228286569,12.681805006437518],[108.48295612305625,12.681723944705581],[108.48311633957177,12.681791655837452],[108.48329944614058,12.682184568127363],[108.48344440401144,12.682197920216145],[108.48359699184124,12.682123533646202],[108.48355121533119,12.681887022799623],[108.48367328583072,12.681568495268019],[108.48373432072485,12.68126999521706],[108.48383350297452,12.681228987380988],[108.48391742681098,12.68124996829209],[108.48398609078664,12.681337706271709],[108.48403949648215,12.681540837997732],[108.48409290251482,12.681588522117186],[108.4841920844264,12.681568495572002],[108.48427600766207,12.681290976116358],[108.48427600736008,12.68094479195673],[108.48398609059144,12.680409780890242],[108.48385639138463,12.680050245599865],[108.48387164986556,12.679921499671456],[108.48397083158746,12.679893843142175],[108.48404712550223,12.679941526561503],[108.4842302313798,12.680266729241403],[108.48440570777761,12.680294386020405],[108.48445148389189,12.68026005439405],[108.48444385510105,12.680124631880618],[108.4840623843804,12.679399839236703],[108.48407764324301,12.67916904981419],[108.48413104963748,12.679081312402728],[108.48422260257536,12.679067961612306],[108.4842836373566,12.679101339122395],[108.48437518958889,12.679345480229975],[108.48449726091062,12.679474226647297],[108.484695624611,12.67956196401817],[108.48481006590646,12.679548613056538],[108.48500842948697,12.679169050431858],[108.48534412258448,12.67834221513337],[108.4856416697051,12.677955975934491],[108.48595447499605,12.677848211439326],[108.48665637829198,12.677719465132466],[108.48684711336827,12.677604070814601],[108.48683185435459,12.677468648617713],[108.48673267260936,12.677393309015816],[108.48622150341946,12.677278868412552],[108.48579425747194,12.677129141373717],[108.48533649341933,12.676519743080151],[108.48501605949676,12.676181189074608],[108.48497028250412,12.675937048260703],[108.48512287070683,12.675631872225697],[108.48543567576277,12.675157896202348],[108.48553485784099,12.674676291040734],[108.48567981674765,12.674466481795195],[108.48594684536944,12.673748364982053],[108.48628253867777,12.673483243737747],[108.48678607803551,12.673334471309714],[108.48685474352334,12.673205724582084],[108.48681659652193,12.673117987067958],[108.48657245517718,12.672914854036307],[108.4864809021933,12.672649733061187],[108.48651904931216,12.671762814583222],[108.48645801413201,12.671294560480415],[108.48661823145788,12.67107807652824],[108.48686237225569,12.670956006695995],[108.48703784829334,12.670969358047854],[108.48715228930747,12.671071401376057],[108.48719043602344,12.671172491019565],[108.48715991853936,12.671525351143307],[108.48719043649196,12.671680798420459],[108.48735065319975,12.671822897023782],[108.48769397674629,12.671952596556467],[108.48797626475742,12.672385564577656],[108.4882204043405,12.672527662104587],[108.48842639811411,12.672494283812215],[108.48846454551682,12.672419896452931],[108.48824329261627,12.671355596326668],[108.48802966928243,12.671023717795245],[108.48802966973177,12.670860639512888],[108.48825092246223,12.670373311245708],[108.48841876800896,12.670196882028536],[108.48857898676019,12.670183530975192],[108.48902149107393,12.670413365368352],[108.48918933698239,12.670420995265376],[108.48924274304969,12.670345655023697],[108.48914356174886,12.670115819758827],[108.48875446218892,12.669668546718825],[108.48864765019943,12.669241300368997],[108.48867053966222,12.669031491897286],[108.48887653207304,12.668686261399213],[108.48904437969614,12.668577542645178],[108.48963184234381,12.668699613287474],[108.48973865392887,12.66863190278314],[108.48976154188409,12.66851650737335],[108.48958606650753,12.668326726400988],[108.48955554839839,12.668095937937132],[108.4896471015678,12.667716374454242],[108.49011249398104,12.667445531307685],[108.49006671777018,12.666943898164762],[108.49013538249024,12.666829457862269],[108.49031085849022,12.666869512667592],[108.49078388109787,12.66711365224374],[108.49107379796449,12.667120328149604],[108.49136371509283,12.666991582761224],[108.49159259691668,12.667072644067453],[108.49210376654,12.66747986365847],[108.4923479070236,12.667479863228401],[108.49318714047139,12.666943898150363],[108.49323291653572,12.666808476463641],[108.49313373450376,12.666544309703887],[108.49267597121609,12.665941586378544],[108.49263782442772,12.6655210160337],[108.49283618863282,12.66520916563183],[108.49291248227819,12.664583553935497],[108.49375171505923,12.662971845054237],[108.4970705019071,12.65568577254041],[108.48464221699798,12.638198246807795],[108.48430652345681,12.63698231138489],[108.48468799353375,12.636103977379287],[108.48497028081675,12.631939280710704],[108.48538226764363,12.631121029267057],[108.48497028028861,12.629354824044212],[108.48284930792646,12.623832095516615],[108.48219318072941,12.623376240313751],[108.48154468220959,12.622808802787832],[108.48062915504579,12.621676791700395],[108.48025531370352,12.620808947912765],[108.48009509710448,12.620250095185293],[108.47981280877487,12.619870532568944],[108.47878284043497,12.619128573705988],[108.47852344147061,12.618869174670357],[108.47850818231481,12.618484843546957],[108.4771806674149,12.617962231149548],[108.47621173471235,12.617132533646993],[108.4784166295614,12.614393580317078],[108.48423022829184,12.611245501539523],[108.48564166621816,12.607557643484878],[108.48580951295038,12.606407511813764],[108.48600787733783,12.603128778978753],[108.48706073309593,12.602533685953693],[108.48712939769906,12.602030145690211],[108.48851031778672,12.59951530626852],[108.4876634553256,12.599767076278095],[108.48564166554318,12.600653993516909],[108.48480243189222,12.601353991081679],[108.48306293123953,12.601147043784954],[108.48251361366094,12.600688326607527],[108.48163623387477,12.599248277682628],[108.47899646281392,12.598253595638171],[108.47576159942889,12.598585474920409],[108.47408313236336,12.594671594680491],[108.47406787337766,12.59306751481884],[108.47383136257777,12.592866290334301],[108.47106189234472,12.594815600640992],[108.47065753428572,12.594757426230128],[108.4695207545288,12.592525827848789],[108.46750659399548,12.590639460333378],[108.46400470173563,12.586437571088714],[108.46185321258021,12.585184442751483],[108.45506305113454,12.577432978154343],[108.45108050718792,12.572972643733678],[108.45075244248598,12.57229839595428],[108.45086688423392,12.571574557293657],[108.45219439789695,12.56884037265174],[108.45233172656695,12.567528117093962],[108.45222491567056,12.564345705816113],[108.45186633348528,12.563145029390371],[108.45098895342572,12.561278688279819],[108.44913501013377,12.558841097439636],[108.44851702916222,12.55779491667851],[108.4472810668541,12.557255137043892],[108.44663256886982,12.557122577082936],[108.44615954616452,12.556737291485362],[108.44586962890997,12.556172716492425],[108.44639605673974,12.554340708313836],[108.44715899700337,12.552830087035707],[108.44705218463334,12.5527366274121],[108.44694537357559,12.552165376779843],[108.44697589094531,12.551815378297135],[108.44714373791223,12.551296579185994],[108.44738787869906,12.550730097450444],[108.44837969950217,12.549157488233531],[108.44862384072866,12.548591959001364],[108.44862384093695,12.547915803938015],[108.4484254758085,12.547496187571703],[108.44824237073774,12.547231065724686],[108.44802874733347,12.547099458905329],[108.44773120048134,12.547076569891718],[108.44684619110377,12.547452318065659],[108.44652575683332,12.547466623488727],[108.44570941179457,12.547070848381662],[108.44550341714088,12.546933519001211],[108.44541186512336,12.546696053842615],[108.44543475358417,12.546330796807428],[108.44554919480102,12.545838701332352],[108.44569415260575,12.545665132520925],[108.44590014634134,12.545580255420912],[108.44643420373505,12.54575954646317],[108.44673175074271,12.545759545850313],[108.44685382038432,12.545665132113639],[108.44696063250504,12.545431482373944],[108.4469377438392,12.545273172457799],[108.44683093218076,12.545156824304728],[108.4467012327043,12.54509388096338],[108.44629687444052,12.545077669153407],[108.44573992823042,12.545183526799288],[108.4448778071718,12.545453416859207],[108.44454974313085,12.545395242918351],[108.44408434998653,12.545194017670488],[108.44384783934107,12.544849740896789],[108.44374102722446,12.544109690475988],[108.4436036981359,12.543966638262425],[108.4433824463836,12.54391704722511],[108.44313067613611,12.5439599630122],[108.44272631826375,12.544188843945136],[108.4423601071025,12.544337618408292],[108.44197100833402,12.544273722484807],[108.4415056149079,12.54427848997289],[108.44125384497617,12.54431949852545],[108.44088000405522,12.544541703952703],[108.44048327641667,12.545013773819429],[108.44034594752897,12.545093881746316],[108.44022387651567,12.54510437279429],[108.43988055288786,12.544919359273948],[108.43955249017343,12.544628488668467],[108.43939990264964,12.544157373111785],[108.4390565792077,12.543359148634819],[108.43895739696259,12.54322658749321],[108.4388276968002,12.54318939420739],[108.43831652791008,12.543406832825779],[108.43733996498301,12.54405723729716],[108.43644732652943,12.544525492411598],[108.43629473850042,12.544749605864155],[108.43629473805755,12.545225488895529],[108.43653124944984,12.545728075224321],[108.43692034803634,12.546288835889664],[108.43695086612232,12.546462404690578],[108.43692034832152,12.54661403827739],[108.43663043108738,12.546789515103846],[108.43605822740413,12.547007906465836],[108.43573779233353,12.547002184765418],[108.43521136386258,12.546822893504556],[108.43482226511031,12.54679619102704],[108.4342958376677,12.546904909938023],[108.43366259701594,12.547192919973774],[108.43349475028472,12.547171938734666],[108.43334216260287,12.54710804248455],[108.43307513380843,12.54682289342316],[108.43283099306994,12.546278345811988],[108.4326936637716,12.545755731499176],[108.43257159432467,12.545447696146276],[108.43238085916343,12.54523597963857],[108.43206042408741,12.545183527849995],[108.43161029049051,12.545177805840085],[108.4312517076969,12.545417178195505],[108.430938903456,12.545833933629497],[108.43076342702165,12.54663215920323],[108.43057269255065,12.546860087273629],[108.43044299258113,12.546860087304694],[108.430343810038,12.5468066809466],[108.4300538932696,12.54459606394254],[108.43005389336423,12.544330942475495],[108.43045825096739,12.543511736843943],[108.43054217504599,12.543041574578908],[108.43072527967094,12.542734491550402],[108.43094653238668,12.542580950666776],[108.43131274275066,12.54250179532565],[108.43219012412463,12.542597162307557],[108.4322816773871,12.542565691564239],[108.43231219368285,12.542454111871713],[108.43228167657873,12.542337764121145],[108.4321290886941,12.54209457624761],[108.43094653227703,12.541665422404067],[108.43068713276713,12.54139076511283],[108.43026751575316,12.54105888579126],[108.42925280671909,12.540905345200937],[108.42889422498637,12.540663112033064],[108.42868823171405,12.540177690589363],[108.42851275619549,12.539962160812422],[108.42830676131614,12.539899218068614],[108.42806262107901,12.539961206846069],[108.42766589309251,12.540231096403376],[108.42734545803634,12.540590631718914],[108.42715472304981,12.54070316558344],[108.42702502401076,12.54070316606222],[108.42690295296809,12.54060875174795],[108.42662829452429,12.540101396565671],[108.42630786116396,12.539781915738459],[108.4261781609573,12.539197314169648],[108.42612475431638,12.539102900144142],[108.42546099782547,12.538995135182],[108.42492693994805,12.539211619164735],[108.42456072895247,12.539272653784789],[108.42440814095997,12.539248813277172],[108.4240495598897,12.539090502483925],[108.42381304863234,12.539055216843646],[108.42365283049504,12.539093363658038],[108.4234239482886,12.539295542745203],[108.42340869072754,12.539483416089626],[108.42343157878925,12.539576876748951],[108.42392748993436,12.540224420710361],[108.42398852514073,12.540362704052216],[108.4239503780134,12.540505755188988],[108.423805418607,12.540543901959344],[108.42363757313525,12.540500032577182],[108.42355364892464,12.54038559234194],[108.42328662012774,12.540174830344217],[108.42298144422294,12.540119517344142],[108.42200488160948,12.540160525288996],[108.4217149650775,12.54001365866589],[108.42161578258025,12.539841043999154],[108.42160052358092,12.539661754230114],[108.42175311161147,12.539327968422144],[108.42176837028026,12.539058078321862],[108.421730223135,12.538956035039023],[108.42163104146734,12.538833010655527],[108.42147845317312,12.538741458351279],[108.42113513081706,12.538623201704418],[108.42100543039471,12.538447725715557],[108.4210206891028,12.53827797181671],[108.42117327724976,12.538032878065742],[108.42131823636727,12.53796516689715],[108.42167681722009,12.537909853858585],[108.4218217765719,12.53782783766059],[108.42182940555479,12.53764854676581],[108.4216691884842,12.537557948223467],[108.42112750153862,12.537375795968853],[108.42076129054338,12.53714310017931],[108.42052477918284,12.536813128026319],[108.42021960363182,12.536637652024911],[108.41994494514311,12.536591876194752],[108.41972369224615,12.536622392670028],[108.4192354117899,12.536793101366623],[108.41848773061328,12.537127841298556],[108.41820544348782,12.537138331108233],[108.41787737958441,12.537086833366216],[108.41717547465188,12.537167895363163],[108.41693896341091,12.537297595178053],[108.41675585865967,12.537492144450727],[108.4166643055609,12.537690509422625],[108.41661089973105,12.537927019812349],[108.41654986405939,12.53880440068077],[108.41609973007093,12.539577829930469],[108.41613787795605,12.539851535335307],[108.4162599478198,12.539980281080078],[108.4165498642282,12.540026057546322],[108.41721362168042,12.539944040843347],[108.4175187973076,12.53999077093869],[108.41768664469429,12.540171015834662],[108.41777819792519,12.540511477346305],[108.41773242014045,12.540861476438101],[108.41754168516691,12.541154253878577],[108.41728228624746,12.54124866794993],[108.41695422241096,12.541218150003688],[108.41646594168965,12.541089403948192],[108.41568774225968,12.54136787762738],[108.41509265088325,12.541145671636022],[108.41491717452058,12.541156161109958],[108.41319293067995,12.5424312245202],[108.41263598554904,12.542902339778765],[108.41231555086621,12.54334484429422],[108.41149157557756,12.544005740480442],[108.41056078984253,12.544661868820995],[108.40916461094221,12.54572616861166],[108.40892809968928,12.545967448982765],[108.40872973570735,12.54626404183299],[108.40859240681746,12.547886242296572],[108.40869158903213,12.548093188644586],[108.40898150566416,12.548278201604678],[108.41000384512029,12.548454632157004],[108.41265124424052,12.548483242228045],[108.41286486680394,12.54838215151045],[108.41317767273789,12.548096049757945],[108.41345233122274,12.548001635600352],[108.41403216503427,12.54790340742532],[108.41463488711642,12.547937739620357],[108.41548937882614,12.548223842592721],[108.41584796080708,12.548544277118985],[108.4163362416274,12.548724521385981],[108.41696185191142,12.54870067942721],[108.41732043392936,12.54872738243988],[108.41767901475988,12.548887599699805],[108.41777819811504,12.549136508272264],[108.41780871497879,12.549451220665938],[108.417717162165,12.54973350894377],[108.41703814577012,12.550093043964806],[108.41634387137525,12.550596583314828],[108.41590136627234,12.550762523649745],[108.41515368621116,12.551127780587034],[108.41470355225057,12.5511439928142],[108.41448992780164,12.551039088649603],[108.41427630515486,12.550762524117667],[108.41424578785325,12.550538410122767],[108.41442126384636,12.549908030542925],[108.41459674004179,12.549596179986867],[108.41496295049429,12.54941116714003],[108.41536730884572,12.549128878591091],[108.41546649088536,12.54884754532413],[108.41542834413193,12.548684466723927],[108.41516131466238,12.548543322960606],[108.41458911102627,12.548543322735593],[108.41422290019757,12.54886185087504],[108.41396349993339,12.549158442588203],[108.41371172965621,12.549596180009488],[108.41374224826097,12.549878466461596],[108.413963499554,12.550464022822545],[108.41385668939422,12.55067192407851],[108.41321581969443,12.551276554172967],[108.41266650289559,12.5514863621874],[108.41214007455983,12.551573147068913],[108.4116823113782,12.551838267811315],[108.41162127590921,12.5521367682683],[108.4118425289115,12.552512515827486],[108.4124986569732,12.553022732102479],[108.41421527001243,12.553749431656346],[108.41469592197375,12.553989756811308],[108.41481799258473,12.554149974624647],[108.41486376897426,12.554453243290455],[108.41462725827193,12.554876674618054],[108.41416186489707,12.555212368032395],[108.41352862531612,12.555476536120677],[108.41283434974136,12.555668224238897],[108.41256732075611,12.55558811613191],[108.41239947460262,12.555388797738209],[108.41207904029487,12.554469456327366],[108.41145342931286,12.553798068770627],[108.41093463093515,12.553453791769753],[108.41062182477205,12.55332599968713],[108.41011065569094,12.55331837152206],[108.40967578089321,12.553597797012012],[108.40934771681168,12.553845752781184],[108.4090425412635,12.554341662808607],[108.40892809977471,12.555013050665107],[108.40898913471729,12.555748333285813],[108.40869158911813,12.556611408228333],[108.40880603063668,12.557498325728382],[108.40883654674866,12.558122982193181],[108.40873736528111,12.55851017433528],[108.40856188902752,12.558913578822583],[108.40834826589557,12.559179653697267],[108.40814990256145,12.559636463221025],[108.40687579329646,12.560429920516567],[108.40544909661135,12.561490406920953],[108.40522021433027,12.561497082339129],[108.40499896190424,12.561414112328627],[108.40482348629949,12.561153759288983],[108.40477008057039,12.560814251532342],[108.40489215008265,12.560490002611985],[108.40527362013559,12.56008373650014],[108.40625781228799,12.55935036147168],[108.40667742829964,12.55872284342449],[108.4069597158426,12.558022846104723],[108.40708941587901,12.556753506136955],[108.40699023363095,12.556348194445153],[108.40669268746079,12.555610050341745],[108.40605944817425,12.554748882151376],[108.40554064920627,12.554207195485958],[108.4051515499862,12.554073681258135],[108.40496081470363,12.554081310474466],[108.4047395621677,12.554173817013691],[108.40369433483507,12.555167545148452],[108.40311450112088,12.555641521560146],[108.40229052713215,12.556208958319491],[108.40179461616015,12.556394924262914],[108.40104693498002,12.556383480699154],[108.39994830308052,12.556012501973843],[108.39904040495112,12.55538593817179],[108.39766711368071,12.55351673573292],[108.39681262033943,12.552126279139998],[108.39551562321962,12.549894680291727],[108.39498919527355,12.549345364461445],[108.3946763901667,12.549156536793157],[108.3943788441548,12.549135555907327],[108.39408892727138,12.549231877139997],[108.39374560400243,12.549471249690113],[108.3934862042789,12.549706807110425],[108.393341246679,12.549975742416384],[108.39308184676325,12.5509580279487],[108.3930665886802,12.5513909958841],[108.3933870222272,12.553176274231976],[108.39328784046765,12.553457607742061],[108.39310473538136,12.553599706288967],[108.39288348226029,12.553634037804827],[108.39205187849102,12.553345075309712],[108.39202136166512,12.553583493192788],[108.39218920782938,12.554476131902444],[108.39192217829077,12.555616726830289],[108.38917559645944,12.558389058084643],[108.38694781409984,12.559055676451669],[108.38293475266975,12.560536733890887],[108.3820878898752,12.560741773426454],[108.37912768415866,12.558369031754001],[108.37792223929704,12.56003223980313],[108.37786120510421,12.562027327234013],[108.37726611308383,12.563154570159512],[108.3722230826356,12.568888060101283],[108.37068957464345,12.577057235243048],[108.37348956274715,12.584922187034405],[108.37413806207186,12.585416190391568],[108.37466448999508,12.585998885564274],[108.37539691190841,12.587037437016328],[108.37592333952072,12.587631576113306],[108.37620562811053,12.587815634861819],[108.37582415771206,12.588828437344482],[108.3748170776005,12.590891234282433],[108.37443560843465,12.592292181973104],[108.37388629173057,12.593545310503549],[108.37294787605899,12.59466015557194],[108.37100238073748,12.595251433369452],[108.36723346012815,12.595494621051174],[108.35820025686125,12.597130173791351],[108.35404223710009,12.59577309479111],[108.35760516454323,12.607076042859154],[108.35721606585342,12.608567590034758],[108.35694903617302,12.609419220931393],[108.35424823058221,12.61090313819256],[108.34978503414537,12.613716478348723],[108.34893817269459,12.614549989826571],[108.34760302832842,12.616106385965013],[108.34669513104083,12.61739479972825],[108.34677142495754,12.617938394730823],[108.34736651702806,12.618922586694508],[108.3481676039348,12.619763727014984],[108.34899920780842,12.621031160742353],[108.34892291353576,12.621601458110124],[108.34802264463698,12.62281262355385],[108.34759539949661,12.625104303649339],[108.34698504763873,12.626175279776868],[108.34547442790888,12.625328416693813]]]]}}]}