{"type":"FeatureCollection","name":"gis.vn","features":[{"type":"Feature","properties":{"ma_huyen":"649","ten_huyen":"Krông Búk","loai":"Huyện","cap":2,"stt":7,"ma_tinh":"66","ten_tinh":"Đắk Lắk"},"geometry":{"type":"MultiPolygon","coordinates":[[[[108.22052784446431,12.931510343564376],[108.22164173697546,12.930406941231348],[108.22217579443074,12.930287732856126],[108.2234727921799,12.929068936157531],[108.22379322548899,12.926575078574245],[108.22438831875873,12.925450696616474],[108.2271883066999,12.925588025275884],[108.22744007668364,12.924468411852587],[108.22590656790484,12.92327059711033],[108.22705097728361,12.922174825069263],[108.22826405088513,12.92067946311746],[108.2297517827488,12.920145405722327],[108.23087330382769,12.919101131679069],[108.23129292032148,12.917979610550782],[108.23127766163914,12.915884388440384],[108.23185749554389,12.91461218680711],[108.23438282515143,12.91165198118072],[108.23313160456524,12.911245716269157],[108.23115559097785,12.909945858222265],[108.23011036421453,12.908927334363177],[108.22898884300392,12.907673252407053],[108.22811909180126,12.906526936352977],[108.22756214582144,12.905596149408398],[108.22679157624691,12.904636753499778],[108.22642536523622,12.903866184072514],[108.22605152576855,12.903280628740722],[108.21937580530468,12.902116192251135],[108.21566791968408,12.901571644527037],[108.20933552227699,12.901557339721116],[108.20822162993991,12.901617421306325],[108.20729084369287,12.901361836122476],[108.2062074701992,12.900700940335966],[108.20497150753998,12.899461163779488],[108.2044755967706,12.900149715783638],[108.20396442803938,12.900482548754269],[108.20325489429214,12.900706662152077],[108.20242328994487,12.901027097202546],[108.20139332236509,12.901105298050203],[108.20049305268792,12.90124548834751],[108.19981403708755,12.901711835170872],[108.19949360256537,12.901993169563836],[108.19928760852729,12.902240171507543],[108.19928760935194,12.902586354103935],[108.19941730943043,12.903524770373647],[108.19937153175792,12.904459371722558],[108.19892902735266,12.905541791858996],[108.19893665749528,12.906574620996423],[108.19868488740238,12.907266989138245],[108.19844074627756,12.907531156568503],[108.19760914237891,12.90801276159052],[108.1974260370353,12.908449545139348],[108.19740314801334,12.908726110449656],[108.19747944207113,12.909745587423874],[108.1972276721546,12.90997065585753],[108.1963426633041,12.91270674671204],[108.19753284901633,12.916513815497792],[108.1979448366287,12.918033972041945],[108.20016498988727,12.925056830459983],[108.20023365536089,12.928437605320333],[108.20053120094691,12.930366888452811],[108.2010576290741,12.931189909995986],[108.20137806453712,12.931487455824634],[108.20227833351571,12.931576147716719],[108.20227833314549,12.93536700382868],[108.20195026946462,12.939402952571939],[108.20136280604073,12.94183100762027],[108.1997377448102,12.943483726338586],[108.19911976359434,12.943682090233159],[108.19676228139235,12.945536033683391],[108.19554920840572,12.946609870275413],[108.19317646641662,12.947938338987212],[108.19106312438305,12.94950045797529],[108.19004078507928,12.95018615014295],[108.18767567191527,12.951157943818815],[108.18314381171493,12.9525522163466],[108.18018360659792,12.954462425173492],[108.1771165903808,12.955742256834696],[108.1758043351636,12.956670182238737],[108.17562122899153,12.95749797149499],[108.1752702769874,12.957923310920084],[108.17407246248162,12.958339112690716],[108.1735155162064,12.958659547376852],[108.17257710085393,12.959082025131544],[108.16897602658149,12.96776999816107],[108.17108173960382,12.96831263992864],[108.17282124182753,12.968829530831488],[108.17401905618387,12.969515222075918],[108.17338581731735,12.970344919908495],[108.17281361279869,12.970827478954837],[108.17203541464018,12.971309083904222],[108.16917439198208,12.972098727119805],[108.16680164929848,12.97239245772707],[108.16237660090088,12.973207850030086],[108.16173573143345,12.973412890296975],[108.1600648948905,12.974155802201798],[108.15956898355107,12.974510569722458],[108.156830031025,12.97711696158842],[108.15475483535182,12.978541751053635],[108.15426655461111,12.978722948656083],[108.15335865640736,12.978903193592778],[108.15243549976825,12.978856463827476],[108.15132160835063,12.979537386851344],[108.1510927269599,12.979759592825102],[108.15083332676824,12.980141063239493],[108.14946766566223,12.980023760960808],[108.14800282109586,12.979545017290523],[108.14411183058802,12.97789515985557],[108.14194508253067,12.975753208314297],[108.14167805291906,12.97533073042715],[108.14131184192367,12.974388499990981],[108.14118977175376,12.973690410059369],[108.14105244186761,12.973550220050335],[108.1406099377272,12.973385234463256],[108.13948078714246,12.972451587267548],[108.139152723065,12.97235526608322],[108.13846607794814,12.972340961507934],[108.13813038358508,12.972183604845718],[108.1375658092224,12.971784015205728],[108.13743610853987,12.971378702895604],[108.13756580852841,12.970523257698694],[108.1374055923073,12.970193286318947],[108.136696057461,12.969685932446811],[108.1357347539489,12.968214412210775],[108.13491840833852,12.967723269956416],[108.13464375073113,12.966904064160538],[108.13371296472958,12.965677637671615],[108.13265247829267,12.964734453675286],[108.1314394040038,12.96357287899334],[108.13094349419663,12.96339072737407],[108.1290514042607,12.96304454408175],[108.12902851626154,12.96941985662777],[108.11788960098961,12.975284001200018],[108.11564655882034,12.976918599349908],[108.11725636069829,12.978151699007524],[108.11675282034174,12.978309056052423],[108.11654682670815,12.978461644233676],[108.11576099958256,12.979428669413691],[108.11536427082989,12.980022808856944],[108.11508961301323,12.980280301443187],[108.11465473688543,12.980319401955395],[108.11428852549166,12.980267903340119],[108.11402149825504,12.980370900768527],[108.11235829023111,12.98127402950301],[108.11103840340553,12.981802365409425],[108.10997791851746,12.98185481821332],[108.10861225702018,12.982189557529203],[108.10728474180296,12.983073614278233],[108.10601063312919,12.98454704027827],[108.1061479634144,12.995788953376673],[108.10600300492203,13.004001996703483],[108.10424824414538,13.003868483201577],[108.10395832645898,13.003815077231755],[108.10333271648064,13.003598592753706],[108.10295887676125,13.003765485790783],[108.10259266572976,13.00383701246559],[108.10232563655666,13.003956220649092],[108.10205860737969,13.0039438231738],[108.101852613427,13.003980063057153],[108.10124226302311,13.004241369837617],[108.10060139342839,13.00540866718475],[108.10004444816164,13.006789588002235],[108.1032106478285,13.02315368557221],[108.10450001487023,13.028956794013052],[108.10453816206333,13.029349707678351],[108.10449238624275,13.0294746386988],[108.10417195068368,13.029728317270296],[108.10403462239873,13.029884718806173],[108.10400410507391,13.030047797910601],[108.10419484037112,13.030805969278822],[108.10417958081742,13.030896568138727],[108.1037752230181,13.031571769374269],[108.10266896116103,13.03388729121367],[108.10266133163705,13.035118484252672],[108.10255452025126,13.03586616557366],[108.10234089765927,13.036151313416378],[108.10198231512916,13.036352539892293],[108.10154743979417,13.036487960796409],[108.1008836824905,13.036390686157125],[108.10063191183445,13.036467933519315],[108.10052935707499,13.036695477530628],[108.10038777213137,13.037009620467433],[108.10002156140325,13.03742351560345],[108.09989186133753,13.03767051755968],[108.09986897371186,13.038195991286866],[108.09997578410473,13.038303756945316],[108.10010548442575,13.038366699261866],[108.10058613627815,13.038394355736425],[108.10085316548128,13.038474464587122],[108.10095997629544,13.038595581588792],[108.10101338198837,13.03872432786834],[108.10098286450523,13.038891220799746],[108.10065479993665,13.039353752662098],[108.1006166535239,13.039624595691206],[108.10064717109793,13.040435218466433],[108.10073872421879,13.040532493792158],[108.10083027699504,13.040553474505279],[108.10109730494356,13.04051151287015],[108.10150929361672,13.040682221096699],[108.10170002760233,13.040893936810578],[108.10184498664437,13.041273498725348],[108.10218830910662,13.041444206274951],[108.10224171568025,13.041530990591598],[108.10202046233577,13.042741203587711],[108.10179158092498,13.043575669064019],[108.10179921015448,13.043693924368181],[108.10188313314255,13.043784524233983],[108.1020433507155,13.04385700301171],[108.10225697390065,13.04388465901743],[108.10234089753696,13.043968582324686],[108.10247059690789,13.044590378224541],[108.10263081418921,13.045060539632079],[108.10276051337955,13.045109176913357],[108.10307331976055,13.045122528631634],[108.1031267244357,13.045160675684146],[108.10313435487282,13.045244598726711],[108.10305806051467,13.045394326047333],[108.10308857753236,13.045578385096992],[108.10316487146794,13.045662307826264],[108.10342427143719,13.045755767852972],[108.10351582413924,13.045895004910319],[108.10353871227777,13.046273613928717],[108.1036531530491,13.046368026423941],[108.10379811182537,13.046326065927635],[108.10390492383011,13.046218299497575],[108.1039888468791,13.045544053047186],[108.10411091625858,13.045411491957845],[108.10431691073148,13.045289421501488],[108.10495015060832,13.045223617499975],[108.10508748002319,13.045174980855482],[108.10581990141071,13.044721031960917],[108.10614033588229,13.044560814019093],[108.106270035415,13.044554139024521],[108.10639210605319,13.044721031762489],[108.10694142285715,13.0458406444095],[108.10715504619456,13.046042823982878],[108.1074220740876,13.046036149054167],[108.10779591502907,13.04592456867127],[108.10834523122548,13.045875930498138],[108.10857411256626,13.045924568323231],[108.10880299446885,13.046321296796716],[108.10905476524778,13.046655082520312],[108.10973378110845,13.046849632453945],[108.11007710350749,13.04703750639467],[108.11015339772793,13.047134780157808],[108.11013813849554,13.047329330566559],[108.1099092571083,13.047705078167771],[108.10969563419658,13.048163796017235],[108.1097642992168,13.049158477755926],[108.10960408064139,13.04947795895777],[108.10848256008329,13.050159835632218],[108.10794087278313,13.050605201511582],[108.10761280938523,13.050952339421817],[108.10758992146634,13.05124511825743],[108.10818501451611,13.051787757579065],[108.10827656691119,13.051974678546545],[108.10833760249606,13.052434350125383],[108.10827656689253,13.052622222634865],[108.10812397874899,13.052732850041723],[108.10794087273028,13.052732849503347],[108.10761280901382,13.05256595670426],[108.10746022098365,13.05255928125923],[108.10737629787486,13.052684212145026],[108.10739155747434,13.053143883242521],[108.10755177421558,13.053421402504403],[108.10811634916308,13.05382480729929],[108.10826130800874,13.054291153958749],[108.10802479684588,13.055229568877067],[108.10745259234147,13.056662942421635],[108.10729237525766,13.056969071508448],[108.10684224068622,13.05717697252034],[108.10655232339151,13.05718460085569],[108.10547657895444,13.056683922268858],[108.10495778053983,13.056092644300724],[108.104622087291,13.055835152582228],[108.10449238688265,13.055814171120112],[108.10442372241228,13.05588379021435],[108.10440083457189,13.056579018469451],[108.10430928144076,13.057302857459579],[108.10415669404381,13.057483101200246],[108.10395069984483,13.057643318884999],[108.10372181866715,13.057726287935676],[108.10337849491961,13.05770626102221],[108.10311146637795,13.057622338242949],[108.1025468911403,13.057135964553172],[108.10173054612937,13.056641961327303],[108.10126515351487,13.056509399905226],[108.10078450126358,13.056468392228998],[108.10018940769689,13.056509400387387],[108.09983082749697,13.056648636179496],[108.09917469906979,13.056996728310825],[108.0983278361439,13.05802574282139],[108.09787770242099,13.058456803732767],[108.09730549700582,13.058832551784777],[108.0969316571757,13.058965111920957],[108.09652729953771,13.058950806214401],[108.09622212355949,13.058838273982321],[108.09595509460436,13.059667016758304],[108.09494038531632,13.061172867920245],[108.09495564459654,13.061353113039797],[108.09587880068212,13.06209316415853],[108.09638234116295,13.062101746759197],[108.09702321064654,13.061611558471911],[108.09793110793112,13.060071374315925],[108.09851094218716,13.059322739650808],[108.0992281054912,13.05896988036739],[108.09945698753917,13.059065247437793],[108.0996782390015,13.059331322673321],[108.10005207923327,13.06036415221799],[108.1007005785529,13.061671639764825],[108.1010973061676,13.06291046304196],[108.10086842422443,13.063598061867276],[108.10043354963511,13.06455364342775],[108.10012837355482,13.065542603834075],[108.09963246335123,13.066334154283432],[108.09954091097971,13.066790009719563],[108.09962483339558,13.066987421011293],[108.09977742194641,13.067030335984263],[108.09998341549776,13.066961670542122],[108.10025807346499,13.06672992899244],[108.10046406755657,13.06641998371002],[108.10077687300142,13.066161538828034],[108.1011125660648,13.066127206065529],[108.10145588846123,13.06613579012802],[108.10185261703674,13.066608811750102],[108.10213490486139,13.067047501846243],[108.10227986269219,13.067650223683993],[108.10211964595726,13.068320656890267],[108.10207386934455,13.069137955827275],[108.10226460479211,13.069723512292695],[108.10264607380071,13.07048073019293],[108.10310383824223,13.07115116308066],[108.10337086672318,13.071305658004711],[108.10356923105832,13.071297074600135],[108.10369130106811,13.071219826803976],[108.10375996566944,13.071030999535818],[108.10366078339608,13.069998170584592],[108.10379811309436,13.069723512190386],[108.10456868147881,13.069137955510998],[108.1046526048095,13.068897629737688],[108.10456868204292,13.068613434692283],[108.10438557528593,13.067091371067846],[108.10448475752004,13.067004586959136],[108.10459919871359,13.067004586317863],[108.10476704616491,13.06714286942244],[108.10502644535177,13.067451859438046],[108.10534687961412,13.06813182997933],[108.10569783150919,13.068493272059719],[108.10629292508928,13.069955254639027],[108.10694905302243,13.070866968036105],[108.10720082308089,13.070936585996701],[108.10734578120851,13.070936585331713],[108.10758229312634,13.07078113634782],[108.10767384509592,13.070342446731278],[108.10758992156323,13.06985225720852],[108.10732289299834,13.069379235907212],[108.10665913587773,13.068974877593359],[108.10640736626675,13.068398858875705],[108.10620900214461,13.067796136815907],[108.10643025366706,13.066299821222007],[108.1065294357044,13.066024209312157],[108.10668965352153,13.065818215803025],[108.10713215803024,13.065722848366313],[108.10739155801411,13.065740014671189],[108.10800953905843,13.065989876001002],[108.10841389686968,13.065929795315467],[108.10861988978404,13.06580963239327],[108.10881825487401,13.065456772605726],[108.10898610034613,13.065303231059195],[108.10908528281894,13.065319443086247],[108.1091768354021,13.065448189819906],[108.10917683602514,13.065737153442948],[108.10897084160815,13.067056084687342],[108.10875721874875,13.068132783134004],[108.10892506630255,13.068455124945956],[108.10993214620082,13.068905259886774],[108.11001606963681,13.069146538894605],[108.10993214608335,13.069435502200927],[108.10927601775836,13.069869423313854],[108.10916157693563,13.070030594764956],[108.10929127731153,13.070335770285368],[108.10968037583169,13.070609475838856],[108.10980244562548,13.071011925226973],[108.10980244591126,13.071333314544544],[108.10837575047776,13.07310238016892],[108.10820027372617,13.07352008933335],[108.10850544954661,13.074291611340207],[108.10900136011828,13.0747903841966],[108.10942097695917,13.074838068095273],[108.11009236315208,13.074629212408551],[108.11064168024463,13.073777582001922],[108.11084767422793,13.073761368634734],[108.11109181461951,13.074050332380004],[108.11117573863673,13.074565316761692],[108.11112233270826,13.075256730956866],[108.11125203091379,13.075561905481676],[108.11149617186956,13.07594814513894],[108.11187764206304,13.076269532843641],[108.11251088260936,13.076462174320692],[108.11334248590735,13.076527024625742],[108.11389180191297,13.076639557223476],[108.11450215476509,13.077025797037047],[108.11480732942064,13.07710590476994],[108.1157228570308,13.077089692775008],[108.11669179053568,13.077619935964512],[108.11805745138336,13.077609444812158],[108.1183397398396,13.077651406644792],[108.11923237882846,13.078134919446816],[108.11988850629699,13.078376198501303],[108.12022419922609,13.078777695098301],[108.1203081237603,13.079067612814805],[108.12020894186634,13.07967891885973],[108.12022420011367,13.080257798814143],[108.119987688331,13.080499077292727],[108.11987324744355,13.080707932732508],[108.12003346531952,13.080949212755723],[108.12027760560355,13.081013108216867],[108.12113972771495,13.080820466207603],[108.12160512092751,13.080836678472817],[108.1219331851423,13.080916787570514],[108.12215443640552,13.081350709214197],[108.12220021421673,13.081865693046597],[108.1224290952023,13.082074547456209],[108.1226350890482,13.082058335420522],[108.12296315304711,13.081833268897064],[108.12335988142925,13.081800843311433],[108.12389393891064,13.081656838032748],[108.12432881461127,13.081865693338255],[108.12445851361656,13.08213844405013],[108.12442036684936,13.082283402642608],[108.12419911521071,13.082428361332525],[108.12416859672793,13.082557107847455],[108.12422963310966,13.082653428279754],[108.12445851361284,13.082702065772308],[108.12474080229681,13.082702065026343],[108.1249849426197,13.08281459976006],[108.12530537679248,13.082846070345939],[108.12590047017835,13.08270206524874],[108.12644978590443,13.082862282555089],[108.1273195367468,13.083408738577301],[108.12773152518199,13.083939933953443],[108.12837239395144,13.084431077619994],[108.12877675243554,13.085243607217008],[108.12908192740566,13.08563366025784],[108.12945576789929,13.08651199425443],[108.13011189595868,13.087502862605454],[108.13037129490367,13.08829918073447],[108.13038655435025,13.08924236485144],[108.13022633770954,13.089973832756375],[108.13025685462708,13.090250397184782],[108.13069173040681,13.09090080387575],[108.13092061256981,13.092095757786343],[108.13109608872004,13.092663193371857],[108.13140126318453,13.092858697980187],[108.13172169816792,13.092999840300314],[108.13283559034406,13.094561005253693],[108.13347645955318,13.095393563925008],[108.1338274119928,13.096387292302458],[108.13398762909357,13.098210718045342],[108.13437672807456,13.099065209315135],[108.13469716307169,13.099558260035344],[108.13628407663536,13.100716019569559],[108.13695546358983,13.101351166999004],[108.1371767162782,13.102600480694083],[108.13725300981008,13.103466416459776],[108.13866444776141,13.104996110644024],[108.13886281217715,13.10543098537923],[108.13882466553167,13.106065178765403],[108.13843556600195,13.106868173252604],[108.13858815412776,13.110780145205917],[108.14012166277163,13.112274553270296],[108.1404573561964,13.112385178631177],[108.14068623852346,13.112571146277444],[108.14212819380128,13.113990212777273],[108.14251729309791,13.114602471592299],[108.1427080277883,13.114741707737874],[108.14470692877791,13.115122224007205],[108.14495106983114,13.11513176064934],[108.14560719821611,13.115010644971232],[108.1462709545705,13.115038301029795],[108.14862080906728,13.115975762787164],[108.14952107723843,13.116259003539508],[108.15208455447628,13.117283250134763],[108.16026326542425,13.12001266560612],[108.16317006480372,13.120916749180747],[108.16362782879469,13.12239303661075],[108.16359731072794,13.123010064336855],[108.16285725977161,13.124709511401024],[108.16280385360336,13.125163460882192],[108.16526051859958,13.128511811737948],[108.1655733248516,13.12865295528183],[108.1657488009365,13.128859902400379],[108.1659242770832,13.129152680541992],[108.16595479351999,13.129381562795258],[108.16587849956365,13.129763032953148],[108.16596242360457,13.129914666451999],[108.16622945161784,13.130051041475376],[108.16642781653913,13.130019570402027],[108.16651174019904,13.129852677324271],[108.16642781732067,13.129392052579187],[108.16651174006375,13.129218484393716],[108.16654988731575,13.128783608371815],[108.16629048740697,13.12772884416322],[108.16639729884146,13.126772309400002],[108.16659566293734,13.126152421394723],[108.16657277466751,13.125880623766694],[108.16629811713199,13.125423813592253],[108.16613789941087,13.124511147363677],[108.16626759882796,13.124326134193351],[108.16666432749362,13.124163056213954],[108.167663778655,13.123902703566845],[108.16795369526433,13.12314167137752],[108.16815968835733,13.122890853927961],[108.16856404714457,13.122890854356806],[108.1693880212587,13.122793579864421],[108.16947957427577,13.12265243639449],[108.16946431576098,13.122477913552299],[108.16938039160901,13.122358703795676],[108.16976949210358,13.12154331264819],[108.16989919086146,13.121445084078132],[108.17033406623939,13.121402169134587],[108.17066975998765,13.121738816267369],[108.17095204738594,13.121728324787231],[108.17115804104323,13.121543312958963],[108.17150136388904,13.121336364659786],[108.17184468714198,13.121282006262419],[108.1720201630896,13.121282005903796],[108.17244740859651,13.121478462861928],[108.17317220045157,13.121467018581644],[108.17418691062763,13.121140862301136],[108.17449971528015,13.120826149675231],[108.17473622708678,13.120717431137233],[108.1762392181431,13.120771789380992],[108.17656728138877,13.120945358777153],[108.1772920752343,13.120923423493926],[108.17767354337771,13.120575333090684],[108.1782457486267,13.120271110606732],[108.17831441273921,13.120032692900242],[108.17816945474638,13.119695091273593],[108.17826100803855,13.119532013583317],[108.17841359572888,13.11951007886745],[108.17862721873166,13.119575882596504],[108.17887135830686,13.119815254963244],[108.17913075903199,13.119999313645277],[108.17948933965559,13.120532417323949],[108.17981740378625,13.120804214435513],[108.18044301341149,13.121064567605252],[108.18090077807403,13.121054077216742],[108.18105336572475,13.121347809032844],[108.18116017818319,13.121369743607124],[108.18131276450498,13.121325875012177],[108.18145772399859,13.121358299881736],[108.18164845857743,13.121630096414677],[108.18195363473859,13.12233676968882],[108.182174886858,13.122480775042797],[108.18222066311031,13.122648620238706],[108.18206807463505,13.122960472660065],[108.18225881034567,13.12304439522228],[108.1824419156273,13.122984314692081],[108.18280049728227,13.123128319014139],[108.18295308533352,13.12308063574699],[108.18297597286711,13.122936630644764],[108.18284627440921,13.122732544720579],[108.18286153311713,13.122588539490488],[108.18301411951626,13.122528457240326],[108.18318196664511,13.122648620167794],[108.18319722628458,13.122852706910153],[108.18332692605674,13.122960472824557],[108.18353291864456,13.12293663058523],[108.1836549898968,13.122576141310834],[108.18403645938398,13.122552299164255],[108.1843111168309,13.122612381464592],[108.18441029989927,13.122732544545299],[108.18441792924718,13.122888946245395],[108.18485280381981,13.123213195830925],[108.18522664509085,13.12324848156462],[108.18556996831785,13.123237037533134],[108.18576833215327,13.123176956628516],[108.18577596069618,13.122972869601993],[108.18593617931234,13.122876548883633],[108.18619114475987,13.122799367041521],[108.18656941781614,13.122684860009661],[108.18680662294149,13.12272387437104],[108.18711873465665,13.122684860371855],[108.18731709927344,13.122792625763601],[108.18732472851075,13.123176956249278],[108.18782063920908,13.123572731407519],[108.18805714996036,13.123477362998502],[108.1881563318145,13.123357200775178],[108.18849202596776,13.123357200710066],[108.18885060707221,13.12323703744492],[108.18929311228666,13.122912788190684],[108.18968221153676,13.122900389934497],[108.19008656915945,13.12303295133397],[108.19041463288873,13.123297118857062],[108.19064351548852,13.12340488454119],[108.19081899108166,13.123393440415176],[108.19104024358379,13.123213195557764],[108.19129201330381,13.1229003905034],[108.1921388760081,13.122588538817924],[108.192558493021,13.122732544596193],[108.19290181609354,13.12299671094263],[108.1931383275241,13.123069191287726],[108.19345113267849,13.123056792749894],[108.1936647552029,13.122936630460263],[108.19413777849333,13.123164558456182],[108.19498464014823,13.123789214900405],[108.1952669284244,13.123776816781517],[108.19546529239045,13.123224638975271],[108.19581624435021,13.122756385030936],[108.19654866656795,13.122564696518094],[108.19805165752287,13.121796035098125],[108.20024892345062,13.120282553412954],[108.20192738952639,13.11933460189596],[108.2028200290801,13.118746184274144],[108.2056123868659,13.117292783970832],[108.20744344186244,13.116427802412145],[108.20870229181237,13.116163634282449],[108.20972463094265,13.115671538278246],[108.21077748733437,13.114698789946159],[108.21158620358696,13.114170455088578],[108.21483632488635,13.111084363784014],[108.21581288723611,13.109415433257382],[108.21608754615809,13.107181928505863],[108.21775838265283,13.107128522648766],[108.21885701566427,13.107445142781916],[108.2191698210707,13.107356451635589],[108.22048970587078,13.107450864449143],[108.22156545114304,13.107269665969126],[108.22232076121102,13.107650182358459],[108.22431966245274,13.106505772613396],[108.22609731125974,13.10768165337453],[108.22663136897181,13.10796489547292],[108.23143788772083,13.109622380837166],[108.23367330074245,13.11045589152773],[108.23418447055934,13.110712429907588],[108.23636647706333,13.112053296732705],[108.23857900158313,13.112987896323641],[108.24193593442443,13.114611050907108],[108.24777242206841,13.117177388693527],[108.25276204643157,13.11853160528964],[108.25457021354181,13.118204495178137],[108.25659963214103,13.117997547835786],[108.25661489017281,13.11907043127796],[108.25656148526586,13.119580646981886],[108.25634786217037,13.120498082209608],[108.25604268626358,13.1213516198644],[108.25589772753392,13.122387310669554],[108.25588246999129,13.12351169197997],[108.2563249732287,13.124492070338636],[108.25666066807575,13.126471898886955],[108.256797996905,13.12635650386261],[108.25698873192393,13.126305005373077],[108.25743886536466,13.126317402314346],[108.2584230580417,13.125946423744702],[108.25905629793708,13.12622871179908],[108.2593996198196,13.126266858071043],[108.26006337816628,13.126023671344802],[108.26079579935977,13.125511547018144],[108.26119252777185,13.125306508069782],[108.26155873900909,13.124704739255273],[108.26181813883221,13.124166867387043],[108.26221486680362,13.124077221326456],[108.26268788891944,13.124166867043732],[108.26299306429634,13.124052425838126],[108.26314565238891,13.123795887358723],[108.26323720535376,13.123117825252343],[108.26374074602789,13.122566600695405],[108.26417562088666,13.1224388091213],[108.26444264931247,13.122554202906677],[108.26448079678552,13.122809788289201],[108.26457997866693,13.123014827961297],[108.26489278490598,13.122976680993261],[108.2652895130007,13.12242641134812],[108.2656480947841,13.122105975832953],[108.26593801195794,13.122183223995073],[108.26612111652415,13.122516056188243],[108.26634999917916,13.12260570192447],[108.26652547499677,13.12249030726705],[108.26688405540341,13.122131726097995],[108.26708242119793,13.122157475244283],[108.26720449057125,13.122605701857372],[108.26731130273521,13.123232265646728],[108.2675172962239,13.123411556877098],[108.26771565990462,13.123450656548709],[108.26788350640977,13.123399158836037],[108.2682344591665,13.123142619712816],[108.26850911787395,13.123002430069283],[108.26871511072025,13.123053928481358],[108.26905080528206,13.123271367136775],[108.26979848510663,13.12338389984079],[108.27032491265679,13.123418231571238],[108.27066823610507,13.12372626836521],[108.27188130983042,13.12410201693308],[108.27237722092471,13.124631305617607],[108.27244588480391,13.124956508717034],[108.2726213612119,13.125092884074226],[108.27391835765657,13.124939342349531],[108.27430745681735,13.124443431614823],[108.27477284968658,13.124033351778662],[108.27520009710898,13.123999019614745],[108.27593251788244,13.124119182621195],[108.27706166873027,13.12396468734792],[108.27754232098857,13.123571773281155],[108.2781526716957,13.123537441182881],[108.27851125441506,13.122929950110148],[108.27878591196817,13.121770282240005],[108.279113975573,13.118853946421144],[108.27941152168208,13.118081470087144],[108.2806093371054,13.116614718964728],[108.28360005987207,13.113850016810712],[108.28385182971425,13.11348475954085],[108.28415700610228,13.112565417739164],[108.28424092814781,13.11098041074884],[108.28405782339888,13.110608477457916],[108.2838594580853,13.108922381143323],[108.28298207819161,13.107312578970962],[108.28295156006948,13.106918711340127],[108.28305837242887,13.106217760208732],[108.28305074364722,13.10581244977645],[108.28272267974266,13.105385203661335],[108.28298207862527,13.105025667319042],[108.28315755460073,13.104545969225134],[108.28310414817784,13.103779215032148],[108.28289815524721,13.102574724319116],[108.28248616699669,13.100877184367384],[108.28121205832714,13.100082774511439],[108.27986165614588,13.099647898097029],[108.27888509317167,13.099083323157462],[108.27831288825278,13.098822970059304],[108.27735921402994,13.098040957331794],[108.27552053004719,13.09726562043984],[108.27409383304571,13.095961947754038],[108.27392598673008,13.095468897789532],[108.27439137943722,13.094579118942331],[108.274971213864,13.094113725897037],[108.2757265240832,13.094264407707346],[108.2758943693991,13.094174761626315],[108.27616139897573,13.093758005573138],[108.27668019792735,13.093341249753058],[108.27717610864639,13.093346018451433],[108.27761861320745,13.093300241877001],[108.27799245382866,13.092996973242254],[108.27794667762838,13.092280763837948],[108.27766438934373,13.091574091235637],[108.27751943012262,13.090907472970144],[108.27770253690235,13.090398211067281],[108.27800008240862,13.089992899450685],[108.27857228722051,13.089487452173708],[108.27912923382227,13.088751215264532],[108.27849599336928,13.087807078184742],[108.27834340534054,13.087021250181479],[108.27834340524805,13.0853189404564],[108.27813741127352,13.084446329113542],[108.27786275310838,13.081968684027625],[108.27755757716936,13.08039512052246],[108.27726003066486,13.080041307772706],[108.27701588975951,13.079890626513816],[108.27660390260615,13.079738038672483],[108.27637502108794,13.07953299888365],[108.27632161576072,13.079366105846841],[108.27647420285746,13.076650995217447],[108.27623006304218,13.073988336482907],[108.2759554047156,13.073191063999467],[108.27568074594966,13.072652238005533],[108.27513142945088,13.072350877220336],[108.2749483243774,13.072201150829901],[108.27485677176321,13.071812051645777],[108.27487203017171,13.069641487987347],[108.27455159528392,13.068030732648632],[108.27457448312403,13.067513840851749],[108.27481099433496,13.067210572478865],[108.27536031132797,13.066746133007266],[108.2754366054864,13.066284555366138],[108.27546712225863,13.065601723939466],[108.27594777422358,13.065024751298067],[108.27954121897038,13.062881845101344],[108.28092213947585,13.062304871662743],[108.28105946947052,13.062173265129626],[108.28121968649728,13.061667816451756],[108.28128835051453,13.060966866349743],[108.28144093847946,13.060728447764346],[108.28392049107907,13.059684174570457],[108.28510304801937,13.058939353989613],[108.28642293294908,13.058694260138727],[108.28704854349873,13.058331863834809],[108.28781148319537,13.057324783757382],[108.2880479941212,13.056845085261159],[108.2890398151061,13.05604018418519],[108.28952046756157,13.055258170954371],[108.28975697828643,13.055080788427231],[108.29050465902722,13.054683105714906],[108.29147359237851,13.053830521121148],[108.29306050557663,13.051737205682848],[108.29430409675835,13.051396743488679],[108.29514333062849,13.050670997150057],[108.29579182879087,13.049258605234247],[108.2961351516149,13.047006026033184],[108.2967302452849,13.046280279984918],[108.29876729242378,13.04532565247779],[108.29909535707577,13.044810668166631],[108.29924794434415,13.044084921901158],[108.29947682655721,13.041962997196602],[108.29948445579568,13.040992156205872],[108.29934712687454,13.039609327658706],[108.29914876290817,13.038380041514719],[108.29943105009329,13.036644355164928],[108.29949208540626,13.035468474910159],[108.2994310501046,13.033958807851468],[108.29872914498159,13.03129233424363],[108.2983247868938,13.030111685981442],[108.29776021197179,13.029338255681441],[108.29693623836316,13.02835787885026],[108.29660054390334,13.02742041677088],[108.29586812217353,13.02720202563747],[108.29525777100912,13.026934996193964],[108.29343434476624,13.025322332242203],[108.2916948433391,13.022863760687452],[108.29039784538966,13.021437063684969],[108.28923054852153,13.019976988919565],[108.28871937931011,13.019558325256078],[108.2883455388491,13.019163504702227],[108.28799458678827,13.018309012084368],[108.28787251673255,13.017067328172788],[108.28762837555519,13.015532866482054],[108.28710194688824,13.01486052520099],[108.28641530075203,13.014442816343028],[108.2851411926598,13.013804808427947],[108.28557606818372,13.009612455191684],[108.2861940486199,13.002004995082666],[108.2865755181309,12.998394383309677],[108.28638478296112,12.997111692386467],[108.28472157504744,12.99585093435313],[108.28395863523708,12.995204344076821],[108.28060170212703,12.994777098175497],[108.27990742664544,12.995021237964137],[108.27953358678936,12.995069876234945],[108.27944966310599,12.994816197690387],[108.27903004685068,12.994574918618962],[108.277870379402,12.99434794380448],[108.27760334995529,12.994223967092458],[108.27742787382446,12.993982687329073],[108.27730580298697,12.993005170613241],[108.27641316416445,12.99190844466803],[108.27632924037476,12.991533650529933],[108.27666493408654,12.989619627175498],[108.27666493381392,12.989284886789171],[108.27598591802172,12.988133802527104],[108.2759019944387,12.987852469076282],[108.27777882530835,12.985710515469393],[108.27916737591687,12.98513544927515],[108.28040333792895,12.9846805475497],[108.28487416296531,12.98424662524934],[108.28527852069445,12.984137906041349],[108.2855760666683,12.983975781738032],[108.28796406793359,12.981528652939645],[108.2886049364595,12.9806875115025],[108.28973408683802,12.979675663623627],[108.29216786370209,12.977748287574403],[108.29258748031857,12.977268589523357],[108.29276295618534,12.976672543747094],[108.29292317318756,12.976522816106941],[108.29693623542765,12.969869984403083],[108.29687519906528,12.9692634466931],[108.29635640133505,12.968923939411447],[108.29601307830316,12.96876658343311],[108.29534932006115,12.968682659260525],[108.29481526324058,12.968251597822425],[108.29444142335079,12.968161953504794],[108.29431935228504,12.96807707637008],[108.29425831737528,12.9678710822617],[108.294456680886,12.967229260256294],[108.29431172289873,12.966857326863439],[108.2936098186858,12.96660078801894],[108.29187794616116,12.966843974861996],[108.29124470557083,12.966871631919421],[108.29084797758141,12.966736209951561],[108.29003163218184,12.966111552825133],[108.2896501633395,12.965643299375966],[108.28958912796571,12.965201747759894],[108.28964253314578,12.964580906569791],[108.2900926682027,12.96367872990575],[108.29087849504324,12.961838138586312],[108.29097004739558,12.96117533471712],[108.29089375404037,12.960674656350296],[108.29035969597645,12.959659945770962],[108.29018421995627,12.95865954194959],[108.29006214938617,12.957157504641788],[108.28964253220173,12.95618284999721],[108.28793354852479,12.953647029734393],[108.28747578389093,12.952732455883547],[108.2867662513909,12.952080142941112],[108.28578968780141,12.95155276089307],[108.28449269091176,12.95107306315662],[108.28329487584996,12.950417888748134],[108.28292103580515,12.95003165117395],[108.28345509306618,12.948188197935902],[108.28417988575053,12.94838656158519],[108.28470631399499,12.948481929697111],[108.28523274163355,12.945537936515704],[108.2906267243467,12.944556604791691],[108.29235096727983,12.944322954869087],[108.29278584300275,12.94419230167894],[108.29348774722838,12.943909059976985],[108.29369374062108,12.943776500003747],[108.29405232191499,12.943410289361973],[108.2944795686633,12.942697893845775],[108.29471607970605,12.94243944831556],[108.2952272486103,12.942354570616224],[108.29676838726311,12.942337404472568],[108.29772969059479,12.938911806311088],[108.29811116024193,12.937907587975454],[108.29964466889665,12.934279810058904],[108.29993458600826,12.933761011188036],[108.30014057821359,12.933246981634138],[108.30030079649728,12.932666192885842],[108.30059071383701,12.930639635472552],[108.3006136010477,12.92959822326731],[108.29781361308096,12.929394136123083],[108.28537769997456,12.929202448420725],[108.28504200642617,12.928623568718043],[108.28479023584634,12.928521525077542],[108.2843019548811,12.928657901214928],[108.28416462611781,12.928981195676442],[108.28400440891033,12.929704082172279],[108.28378315639449,12.929823290475545],[108.28337879849968,12.929840457015699],[108.28292866374817,12.929639232190679],[108.2822801659371,12.928859125636121],[108.28206654259411,12.928973567183238],[108.28196510337807,12.929513523572778],[108.28179188384593,12.930435549684178],[108.28120442112602,12.931216608777849],[108.28103657435955,12.931758296235468],[108.2811128683197,12.932551752738814],[108.28097553890132,12.932690036167674],[108.28082295148481,12.932728183540071],[108.28020496991377,12.932174098420704],[108.27997608911419,12.932186496095085],[108.27990742443372,12.932665240339004],[108.27993794184142,12.933345210182374],[108.27976246562625,12.933799158852905],[108.27950306589723,12.933987987144073],[108.27878590300297,12.934152019578622],[108.27848072700989,12.934504878395327],[108.27848072706242,12.93471850093182],[108.27857228016366,12.934933078250259],[108.27896137897855,12.935046564921553],[108.27962513596006,12.935134303314424],[108.28000660614353,12.93566359188278],[108.28019734113622,12.936318767217342],[108.28025837642114,12.93702448630041],[108.28018208214048,12.937162768134735],[108.27990742418434,12.937124621071868],[108.27941151358037,12.936621081624908],[108.27925129649628,12.93654574121591],[108.27915974374861,12.936645877503512],[108.2792589253294,12.937326799974667],[108.27921314909902,12.937855136078737],[108.27906056161584,12.938082110523698],[108.27877064446844,12.938195598435357],[108.27845783959651,12.938082110327088],[108.2774507591164,12.936545741353436],[108.27719898888867,12.936482799348662],[108.27703114235256,12.936570537321366],[108.27703114190727,12.936785113841564],[108.27724476522798,12.937199962246021],[108.27718373054162,12.9372886538692],[108.27697773596267,12.937288653533306],[108.27623768562229,12.93707407722082],[108.27597065655014,12.937099826370485],[108.27593250915841,12.937238109908925],[108.27629109158424,12.93772925171465],[108.27631397935487,12.937968623660394],[108.2761995384443,12.938120257150118],[108.27564259248383,12.937994372557126],[108.2751161646768,12.937678706408068],[108.27492542884688,12.937741649636179],[108.27488728254897,12.937868487628938],[108.27490254122678,12.938384425765046],[108.27478810069213,12.938573253955312],[108.27442188942409,12.938586604770606],[108.27393360787852,12.938410174462444],[108.27352925016257,12.93842257280196],[108.27333851524017,12.938536059684592],[108.2733156275463,12.938863170905893],[108.27282734647413,12.940211665638794],[108.27246113514533,12.940992725062486],[108.27172871316517,12.941508662547795],[108.27116413827461,12.942251574597869],[108.27120228501279,12.942843806601951],[108.27170582534794,12.943373095931292],[108.27217884786167,12.944217098446284],[108.27236958298714,12.945310962910368],[108.27262898237026,12.945545566641021],[108.2727663118337,12.945840252225507],[108.27266712976667,12.946214091953516],[108.27244587654033,12.946600330536494],[108.27252979985481,12.94709910192031],[108.27278156966524,12.947246922502968],[108.27320881631444,12.9469856153236],[108.27346821570373,12.9469970594263],[108.27351399209078,12.947212589317402],[108.27334614600703,12.94834650837782],[108.2724763943112,12.948306454252583],[108.2697755884481,12.948628796037841],[108.26245136950939,12.946305645923406],[108.26033039860557,12.945481670897081],[108.25891896057398,12.94460333706128],[108.25559254416902,12.941570652561314],[108.25379963587076,12.943457020706438],[108.25266285600769,12.944821728727467],[108.25218220383326,12.945161236977679],[108.25114460725274,12.945270909242396],[108.2478715966351,12.949056995894578],[108.24666615182589,12.948052777489943],[108.24213429173561,12.944528951280773],[108.24292774838392,12.94282759592795],[108.24265309017896,12.942699803643382],[108.24237080281124,12.94267596191291],[108.240318495913,12.941733731527847],[108.23965473733678,12.941282643780456],[108.23782368367927,12.940178289374156],[108.2368928970842,12.939553632201854],[108.2361757344229,12.939159764286133],[108.23408527909257,12.93693579668143],[108.2309267106451,12.93476523380308],[108.22965260072284,12.931876554307669],[108.22893543806092,12.930624378910041],[108.22820301581672,12.93020380913601],[108.2273408944781,12.929561986687103],[108.22670002500158,12.929268254320139],[108.22586842062688,12.9290784735034],[108.2248918592435,12.929362668832365],[108.22409840160532,12.92968882598801],[108.22334309178369,12.93019331895421],[108.22283192154046,12.93071974802098],[108.22237415850437,12.930940045718943],[108.22222919942064,12.931371106619165],[108.22170277149223,12.931949987571276],[108.22128315522065,12.931983366148195],[108.22052784446431,12.931510343564376]]]]}}]}