{"type":"FeatureCollection","name":"gis.vn","features":[{"type":"Feature","properties":{"ma_huyen":"652","ten_huyen":"M'Đrắk","loai":"Huyện","cap":2,"stt":10,"ma_tinh":"66","ten_tinh":"Đắk Lắk"},"geometry":{"type":"MultiPolygon","coordinates":[[[[108.69496937071366,12.63440451992011],[108.69506092208545,12.634788851299218],[108.69510669960559,12.635218958306266],[108.69501514611224,12.63701281976414],[108.69493885238964,12.637585978030504],[108.6946641948166,12.638085703267496],[108.69438953639583,12.638466218652182],[108.69335956790339,12.639581064957918],[108.69286365722223,12.64024672884124],[108.69252033483757,12.640817979931008],[108.69241352245047,12.641343455687164],[108.69238300585256,12.642203669527158],[108.69227619390884,12.643016200438568],[108.6916963597141,12.644973139590215],[108.69129200145444,12.64728961444799],[108.69133014920851,12.64783988471993],[108.69200916623234,12.648898463821471],[108.69222278876066,12.64933047801277],[108.69219227080292,12.650263171805591],[108.6925813696744,12.652969698736669],[108.69293232178481,12.65479026342454],[108.69292469343702,12.655316691707382],[108.69274921694138,12.655769686656178],[108.69217701229428,12.656672816944251],[108.69193287273373,12.657197338278786],[108.69185657826772,12.65772281160242],[108.6919252420754,12.658201557334241],[108.69208546007049,12.658872943209076],[108.6925355949187,12.660527567953208],[108.69337482804943,12.662615160831441],[108.6932985335282,12.662902217374205],[108.69204731331638,12.663297992225015],[108.68952961248755,12.663993221297833],[108.6883775745588,12.664461475372237],[108.68720264802221,12.665240628005394],[108.68678303078575,12.665644031695148],[108.68623371464844,12.66650043203528],[108.685936169083,12.667574268886883],[108.68537159231451,12.667951924119135],[108.6846315421234,12.668351512467291],[108.68396778481711,12.668872219881608],[108.68322773252319,12.669702870394731],[108.68226642979019,12.671392781511564],[108.68112964997128,12.672769887563819],[108.68075580941368,12.673388821510533],[108.68053455677075,12.673865658418867],[108.6799242063108,12.676132542469785],[108.67983265329981,12.678331715788627],[108.67994709412949,12.67909846928454],[108.68028278737248,12.679818493683856],[108.6812974970892,12.681047780393362],[108.68134327354332,12.681287152210118],[108.6813203847796,12.681477887116424],[108.68124409128447,12.681692463342003],[108.68104572704574,12.681930882135184],[108.68055744500191,12.682404858993413],[108.6798173944207,12.683235509774962],[108.67912311941342,12.684305531936577],[108.6789705309214,12.684853895170598],[108.67852802620637,12.68537650814194],[108.6781847047769,12.685613019640297],[108.67774219907591,12.68579994030009],[108.67658253135103,12.68688998926599],[108.67638416721675,12.68727145897007],[108.67633839051372,12.687462193767832],[108.67635364937162,12.687869412704138],[108.67657490174412,12.688325268763792],[108.67666645416499,12.68873248786287],[108.6766664541055,12.68909202301278],[108.67648334946193,12.689711912422915],[108.67614002691326,12.690546376927333],[108.67608662056833,12.690832478951055],[108.67610950898597,12.691192013767813],[108.67624683719889,12.691767080614522],[108.67629261470627,12.692198141188838],[108.67614002673085,12.692938192250534],[108.67577381548327,12.69537482997985],[108.67563648658414,12.697214468739066],[108.67539997581723,12.699006422454348],[108.67529316360857,12.70034538072764],[108.6753084233895,12.701062543934226],[108.67539997581602,12.701613768010539],[108.67570515101279,12.702884061930138],[108.67618580331872,12.704132422168357],[108.67647572005349,12.704732282613557],[108.67678089644764,12.705309255741335],[108.67719288300357,12.705815657082447],[108.67736072989645,12.706291540561335],[108.67736073057138,12.70665393659893],[108.67720814188255,12.70691524411116],[108.67694111370218,12.707128866452818],[108.67627735587156,12.707242354309093],[108.67537708685839,12.70716319882713],[108.67488880620786,12.707039220761338],[108.67369862126803,12.706908568349714],[108.67240162401593,12.707136495756856],[108.67086048619555,12.70767341513349],[108.67005176987556,12.708025321626074],[108.66901417210113,12.708709105468758],[108.66638966112299,12.710265502189996],[108.66558094503647,12.710592612608595],[108.66397114350552,12.710961684626808],[108.662185864065,12.711232527279183],[108.6611558964399,12.711534843114823],[108.66020222248355,12.712076529670647],[108.65856190229343,12.712874756060918],[108.65782948000059,12.713035927297696],[108.65575428549359,12.713137016451498],[108.65465565171216,12.713246689432381],[108.65512867390764,12.714495048209418],[108.6553194095579,12.71511875102584],[108.65531178009678,12.715931282037806],[108.65542622121076,12.716458664028513],[108.65559406765722,12.716866836615797],[108.65666218319578,12.717976912806737],[108.65721149911724,12.718985901266187],[108.65788288632864,12.720379218916925],[108.65799732711245,12.720810280019125],[108.65798969744169,12.721958503619286],[108.65808125084521,12.722341881167397],[108.65832539153523,12.722679481803814],[108.65873737909497,12.722945556437713],[108.65939350632101,12.72319065159563],[108.66024037014715,12.724130974329334],[108.66072102191862,12.72490058909763],[108.66115589706757,12.725502356995177],[108.66159077271311,12.725913391492215],[108.66200276018355,12.726180419950753],[108.66243763524385,12.7263749689257],[108.66331501606905,12.726478919869582],[108.66400166103256,12.726627693008718],[108.6648256360585,12.727114067480507],[108.66579456866062,12.727600440867631],[108.66650410332926,12.727750167948232],[108.66738148289207,12.727781639145785],[108.66806049945825,12.727740631033539],[108.6698228892709,12.727324829021214],[108.6707078995236,12.72687850858974],[108.6713945455217,12.726693495686145],[108.67322559954532,12.726494177497575],[108.67415638509235,12.72619091001676],[108.67539997687683,12.72565208394526],[108.67584248175253,12.725632056882231],[108.67613239923931,12.725706443426619],[108.67657490275134,12.725925788738353],[108.6769563729008,12.72628818503443],[108.67809315349032,12.72756515485061],[108.67862721178875,12.728096350384229],[108.67969532658175,12.728583679000018],[108.6813280163149,12.72924362171566],[108.68225117389055,12.729563101545807],[108.68273182582348,12.729830130973603],[108.68360920530719,12.730627402298788],[108.68413563339307,12.731325492553394],[108.68437214592419,12.732069358798585],[108.68453236299327,12.733529433607092],[108.68472309763412,12.733937606755939],[108.68559284927107,12.734921797485999],[108.68765278498823,12.736355170597369],[108.68779774399744,12.736667976033457],[108.68779011361649,12.73716960889033],[108.68743916162748,12.73819576214693],[108.68731709216385,12.738744124824656],[108.68728657403817,12.739294395221906],[108.68732472097679,12.740299568143548],[108.68700428687576,12.74106155355673],[108.6864015650507,12.742754326194895],[108.68579884231843,12.744710311783257],[108.68491383315573,12.748218879057648],[108.68482990931183,12.748964653279716],[108.68521137984784,12.749635085955305],[108.68528767325807,12.75044666360805],[108.68525715527137,12.751681671193593],[108.68549366757148,12.755569801244265],[108.6856844016729,12.757723198753132],[108.68566914421562,12.75874076860257],[108.68560047872889,12.759107933623662],[108.68549366799235,12.759356842915576],[108.68421192943322,12.761102066812716],[108.68355580114874,12.762181625540297],[108.68308277926796,12.76277862580095],[108.68287678495776,12.762959823602523],[108.68221302808712,12.763371811667637],[108.68074055510499,12.763909684074271],[108.67923756375357,12.764765129847536],[108.67814656096853,12.765723573650915],[108.67736836215553,12.766885148096593],[108.67659779402379,12.767746316852588],[108.67578907853598,12.768224107738217],[108.67511769154959,12.768468247240008],[108.67412587035135,12.768626557255308],[108.66941853295226,12.76891933554758],[108.66907521125532,12.768882142606659],[108.66814442379346,12.76862369682509],[108.66713734376475,12.768497811888441],[108.66661091553021,12.768510210104223],[108.66613789364592,12.768622743443517],[108.66553517237001,12.76893459533824],[108.66451283297408,12.769710886444745],[108.66320057679997,12.770533906859827],[108.66189594980749,12.7710231421524],[108.66014118965502,12.771508562001568],[108.65916462671446,12.771700250668841],[108.65860005157083,12.771895754417427],[108.65811939969419,12.772258150738018],[108.65773793042554,12.772642481389004],[108.65704365484314,12.77224861378816],[108.65587635757123,12.771437036345304],[108.65545674046655,12.771199571188841],[108.65507527167448,12.771112787771768],[108.65488453667055,12.771177637579047],[108.65463276668999,12.771175730526704],[108.6536790915325,12.770633089568934],[108.65296955884715,12.770159113997448],[108.65162678461057,12.769696582119735],[108.65103169227334,12.769690860015604],[108.65062733437216,12.76942001578488],[108.64982624784012,12.768712389626646],[108.64964314305844,12.768643724842718],[108.64812489298457,12.768579829103142],[108.64649220287318,12.768615114851528],[108.64299793905587,12.769034732439886],[108.64103718564311,12.769418109191545],[108.63896961924006,12.770017016263706],[108.63626118453503,12.769580233467009],[108.63019581515186,12.76909862905683],[108.62879200608623,12.769158709435791],[108.62632771212367,12.76865230911964],[108.62458058129904,12.768936503924712],[108.62326832516533,12.769239772624077],[108.62207050987784,12.769415248834461],[108.62105579994065,12.769401896834045],[108.61746998444642,12.768571246807216],[108.61483784369085,12.768125881616342],[108.61338062931793,12.768142094187771],[108.61235829060594,12.768255581376984],[108.61177082717457,12.76836525370877],[108.61110706949547,12.768664707228057],[108.61035938841337,12.769309391876975],[108.60867329229221,12.769868244766037],[108.60833759935939,12.769861568474902],[108.60790272411796,12.769622196523068],[108.60731526038799,12.769382824510684],[108.60693379101485,12.769516338371037],[108.60662098527462,12.770273556370157],[108.60600300501295,12.77072655135912],[108.60557575841726,12.771125187427609],[108.60502644262836,12.77121864746619],[108.6040956555352,12.771031728312423],[108.60353871071244,12.77117859357662],[108.60320301666907,12.771847119200652],[108.60324116389846,12.772344936715372],[108.60304279937948,12.77276455427456],[108.60276051157972,12.773144115723863],[108.60232563689063,12.774144520637401],[108.60158558556763,12.774715771735861],[108.60117359818211,12.774822583430174],[108.6009599743638,12.775354733046493],[108.60053272847335,12.775580754321698],[108.59913655027032,12.77611195160983],[108.59849568076527,12.776684154937943],[108.5973665294725,12.777003636296627],[108.59678669607419,12.777881017863074],[108.59614582671836,12.777894368667152],[108.59571858083656,12.778227200226036],[108.59519978148242,12.778293004570653],[108.59484120099599,12.778583875573874],[108.59474201913291,12.77917038478528],[108.59432240154736,12.779535642554148],[108.59370442097122,12.779670110785585],[108.59292622245984,12.779917111426142],[108.59186573723636,12.780049672541063],[108.59147663752545,12.780351987874885],[108.5910036150033,12.781036726224443],[108.59087391564628,12.782145849210181],[108.59066792206453,12.782794348323893],[108.59041615170187,12.783200613029663],[108.58996601839719,12.783323637124063],[108.58957691896785,12.78351151092049],[108.58870716790452,12.784460416987361],[108.58850880313376,12.784917226751714],[108.588546949594,12.78533875162452],[108.5888139786771,12.785672537268365],[108.58889790182592,12.78589951126779],[108.5888063504548,12.78640686620066],[108.58830280977443,12.7875913304923],[108.58789845231085,12.788675657249055],[108.5854723045812,12.79002224562579],[108.58513661086538,12.790432325417415],[108.58305378609728,12.795881621247354],[108.58226032970533,12.797501913539792],[108.581939895114,12.798058860212466],[108.58182545440569,12.7985452341436],[108.5819475248861,12.798808448212782],[108.58245869345947,12.799162261393304],[108.58319111536208,12.799435965684385],[108.58425160133781,12.799902311869383],[108.58583851570503,12.800803534788875],[108.58734913592441,12.802524917416724],[108.58786030539486,12.802838675766042],[108.58856221026197,12.802869192677072],[108.58899708616705,12.80321347016166],[108.58908863781562,12.80373131505158],[108.58911915552477,12.804175727299326],[108.58884449781478,12.804447523623843],[108.58770771772035,12.804814688875087],[108.5874254302351,12.805096976300769],[108.58748646512106,12.80547653931075],[108.58759327700132,12.805799834311175],[108.58816548231867,12.806224219275881],[108.58889790284266,12.806621902422586],[108.5892488556092,12.807178846906053],[108.5895082553853,12.807806365269428],[108.58988209484178,12.809502951812009],[108.5902025302593,12.810505262915594],[108.5906984408758,12.811265342069126],[108.59109516954871,12.812267654107853],[108.59212513780108,12.81336151811121],[108.59326954735364,12.813716284888663],[108.59452839793002,12.813624732196045],[108.59526844838037,12.813817373817752],[108.5958482822166,12.814698568924797],[108.59603901738323,12.815397613312944],[108.59586354160669,12.816724173942013],[108.59598561181579,12.817798010985378],[108.59580250636992,12.818598144249934],[108.59551259016075,12.8193982760131],[108.59578724754384,12.820187919060759],[108.59623738140705,12.820674293584869],[108.5968935098988,12.821125381739645],[108.59706898550886,12.821828239687266],[108.59702320953636,12.822200172555183],[108.5972749801835,12.823145263637231],[108.59756489717788,12.824035995455178],[108.59744282610973,12.824511878581527],[108.59622212310752,12.825129859448896],[108.59331532409192,12.827377669771684],[108.59303303589658,12.82781731421305],[108.59282704320019,12.828021400671883],[108.5924303140596,12.828143470954679],[108.59214039711813,12.828315132345702],[108.59193440310155,12.828575484567379],[108.59194966176378,12.828934067083509],[108.59214802674698,12.829236381895214],[108.5931169605053,12.830067031591708],[108.59323140080875,12.830252998356203],[108.59324665883075,12.830612533955684],[108.59309407171982,12.83107029725291],[108.59262867828409,12.83192097485628],[108.59181996364195,12.832528464868231],[108.5911485766824,12.832903259453094],[108.59075184718438,12.833466881358074],[108.59042378356872,12.83405815896988],[108.59001942542399,12.834554070653539],[108.58995839037951,12.834999435848568],[108.59025593721434,12.835728996145487],[108.59061451861824,12.836781853154317],[108.59073658985528,12.837511414138307],[108.59053059511356,12.838088387677866],[108.59060688963581,12.838533753401148],[108.5911104297424,12.839232796657162],[108.59166737596063,12.839893692556393],[108.59197255032582,12.840387695008706],[108.59226246814525,12.84214627168109],[108.5925218673496,12.842650765521356],[108.59301014928374,12.843785637742636],[108.59317036575769,12.844868057603808],[108.59337636016409,12.845476502208863],[108.59379597736593,12.845810288413839],[108.59431477592508,12.846712463448544],[108.59456654600035,12.847269409303653],[108.59444447506515,12.847674721433268],[108.59409352314495,12.848190659338226],[108.5938798999129,12.849386566407139],[108.5938188647429,12.850520486181445],[108.59390278792243,12.850925798237231],[108.59444447546018,12.851644868136756],[108.59482594547148,12.852852219533787],[108.59520741579162,12.853872651016543],[108.59519978500164,12.854683274024884],[108.59469624509754,12.85565506868752],[108.59450551041827,12.85658680783533],[108.59450551084875,12.857695932150078],[108.59477253946301,12.858272905266888],[108.59545155541367,12.85866581847041],[108.59571858508173,12.859032983170925],[108.59564229060013,12.859724397365087],[108.59567280864957,12.860386247239083],[108.59583302609114,12.860842103301305],[108.59625264300266,12.861263626785705],[108.59703846952819,12.861468666915721],[108.59791585117247,12.861537332017193],[108.5979845143984,12.861822479885472],[108.59781666870335,12.86231171543485],[108.59786244457054,12.86269604636657],[108.59817524962303,12.863035554517305],[108.59836598520151,12.86339699714388],[108.5989915947296,12.864249580819108],[108.60077687370108,12.865240448746718],[108.60128804327887,12.865650528905585],[108.60238667641443,12.866186493730053],[108.60308635430209,12.866992644891715],[108.60544606343642,12.866201752682267],[108.6083986394454,12.865756386479198],[108.60960408282627,12.865681047103022],[108.61000844097026,12.865725868378695],[108.61045094647841,12.869775169888877],[108.61081715770393,12.872417802200166],[108.61041279969342,12.876465195771335],[108.61056538800027,12.877169961424363],[108.6124117010182,12.881053322996497],[108.61295338810359,12.882460946075788],[108.61283894826437,12.882776612722767],[108.61217518994086,12.88299405072439],[108.611496174496,12.883352632213743],[108.61117574014878,12.884201402543296],[108.61148854488181,12.88691842035999],[108.61178609140075,12.888769502404914],[108.6124727374166,12.890572901136576],[108.61267873022172,12.892298097494304],[108.61347981806344,12.893461579356453],[108.61431905104573,12.894081469155406],[108.61664601535996,12.894593591855227],[108.61774464855576,12.895275469097793],[108.61952992824763,12.896857614967924],[108.62116261800287,12.897942895378026],[108.62313100219293,12.898981446932366],[108.6249315394937,12.899711007234732],[108.62760945603203,12.900253648357179],[108.63017293349448,12.901137704436282],[108.63215657543068,12.901757592142323],[108.63505574581995,12.902594917855765],[108.63867970846276,12.903509491943495],[108.64118214976098,12.904083604163457],[108.64355489160597,12.904502267115314],[108.6447374478268,12.904589051281524],[108.6453478000444,12.90467583624624],[108.64865132725,12.905309074681986],[108.65203114892134,12.905478829605675],[108.65493794879066,12.905750626354552],[108.65549489396456,12.905967110812078],[108.66029378332058,12.906907433371229],[108.66206380333506,12.907173508337399],[108.6634218358501,12.907206885964182],[108.66417714512626,12.907273644156245],[108.6664125589477,12.907594077706742],[108.66802236012141,12.907866828687954],[108.67100545364555,12.908693665224721],[108.67221089825932,12.908767098181972],[108.67414876448521,12.909248702919651],[108.67543813264098,12.909784668150031],[108.67583486047252,12.909883850038835],[108.67628499473797,12.909894341146329],[108.67852803643372,12.909252518048516],[108.6797639992857,12.909278266121824],[108.682472433556,12.910021178389128],[108.68712636535817,12.91067444544463],[108.68954488342074,12.910841338028908],[108.69310018111817,12.911307685263901],[108.69538137041359,12.911327712133632],[108.69747945329703,12.911260955069563],[108.69841786902147,12.911361090852553],[108.69915029157659,12.91162811991475],[108.70083638712032,12.912501684930861],[108.70164510348603,12.912629478084224],[108.70235463774155,12.912620894124776],[108.70325490600571,12.912876479118518],[108.70516988357818,12.914587370515004],[108.7062227406312,12.915060392919196],[108.70787068947375,12.915335051507041],[108.70843526504386,12.915555349433005],[108.70912190963784,12.915555349497136],[108.71083852421357,12.915400854396905],[108.71159383419499,12.915570607993924],[108.71295949580008,12.91638790702809],[108.71485921502976,12.917435041536427],[108.71665975235209,12.917512289635553],[108.71807882051898,12.917820326081335],[108.72016927397144,12.917611471591469],[108.72099324790084,12.917764059494663],[108.72193166450509,12.918235174340964],[108.72266408645763,12.918761602069544],[108.72309896156749,12.919257512714891],[108.72416707741172,12.921407095271135],[108.72447225241487,12.922579160770686],[108.72473928120354,12.923292509289663],[108.72481557553652,12.923976294072164],[108.72468587603755,12.924514166279065],[108.72342702585996,12.926465384139155],[108.72253438675536,12.92761074680913],[108.72137471852695,12.928656927867554],[108.72025319785524,12.930240027078579],[108.71965810473101,12.931550375482198],[108.71833822010711,12.933853498746641],[108.7173998053892,12.936171881728118],[108.71617910124314,12.93734967013605],[108.71526357366913,12.938110702336935],[108.71205159925637,12.941419951436988],[108.71239492204302,12.942109458690824],[108.71257039795444,12.94266831173937],[108.71252462080496,12.943040244976423],[108.71228811013209,12.943375938842761],[108.71173879436442,12.94383751622628],[108.71113607204208,12.944263809102713],[108.71083852556309,12.944745415082952],[108.71082326595914,12.945083016086398],[108.71094533725784,12.945447319154079],[108.7111360719695,12.945750587502872],[108.71137258366521,12.946019523839087],[108.71172353557644,12.946288459784139],[108.71202871107212,12.946433417634232],[108.71222707526084,12.946424835192122],[108.71241781029715,12.946372382919211],[108.71257039880547,12.946266524666465],[108.71266195104536,12.946127289191265],[108.71281453808659,12.945528380759917],[108.71296712600426,12.945238463951293],[108.7134859257466,12.945017212057097],[108.7136690311327,12.945035331656106],[108.7139970956692,12.945196502290374],[108.71421071822314,12.945396773200116],[108.7143785646815,12.945756309942896],[108.71434804743697,12.94605767033642],[108.71440908228121,12.946358077336479],[108.71455404064156,12.94655644204904],[108.71501180442876,12.94669758531021],[108.71561452615337,12.94707714821209],[108.71683522927981,12.947456710833643],[108.7170183355802,12.947615020386191],[108.71719381178272,12.947841994355606],[108.717903345177,12.948083274230873],[108.71828481490877,12.948305480864592],[108.71843740262578,12.948500983647268],[108.71881124389789,12.950048797510076],[108.71882650200727,12.950397842591714],[108.71877309669107,12.950825088414005],[108.71882650159675,12.951120727737099],[108.71897146090072,12.951298110503656],[108.7191011607733,12.951311461870215],[108.71919271254671,12.951385848537225],[108.71929952446925,12.951540343958513],[108.7195512945653,12.952074402138855],[108.71958181151163,12.952245109645006],[108.71958944171087,12.952412002450973],[108.71953603586168,12.952659003783916],[108.71917745406651,12.953549735514065],[108.71904775463858,12.954148643414248],[108.71879598449613,12.954437606890952],[108.71882650151652,12.954628341877923],[108.718910426005,12.954653136568238],[108.71919271298256,12.954526298371592],[108.71997091173395,12.954083793797187],[108.72090932730228,12.95332276165518],[108.72116109642468,12.953224532786267],[108.72149678989352,12.952815406724781],[108.72206136625584,12.95257221933708],[108.72266408746673,12.952716224660174],[108.72318288673038,12.952158324386865],[108.72353383855162,12.9519027407623],[108.7238161255351,12.951819770682857],[108.72415944907142,12.951858871740727],[108.72437307195914,12.951979987448011],[108.72478505923318,12.952421538446504],[108.7249757936661,12.95248066622649],[108.72567006848186,12.952246062643773],[108.72713491290011,12.952350013579615],[108.72774526474345,12.952189796451202],[108.72869893929528,12.952028625700766],[108.73059865837668,12.95220982304985],[108.73238393570881,12.952473037566545],[108.73265096495703,12.952391973895248],[108.73358938129228,12.951886527414036],[108.73448201993592,12.950266234165774],[108.73490163733788,12.949308745149432],[108.73550435913306,12.948269240177815],[108.73652669798008,12.94777332959928],[108.73722097305864,12.94777332937654],[108.73839589896104,12.94790970506179],[108.73947164419974,12.947783819380382],[108.73970052570785,12.94803558993511],[108.73997518364139,12.948099485664594],[108.74092885806071,12.947972647773355],[108.74176046174493,12.947783819626796],[108.7423402963642,12.94778381915718],[108.74287435378777,12.947667471671815],[108.7433397469262,12.947800032445281],[108.74349996449371,12.948078505404313],[108.74360677633287,12.948520056888494],[108.74373647547267,12.9486144708217],[108.74404165118627,12.948624960097634],[108.74431630952316,12.94833027527279],[108.74511739581935,12.94801460860697],[108.7454073127296,12.94808041210489],[108.7455217545314,12.948228231134014],[108.74575063598802,12.948238721983868],[108.74588796523582,12.948038450362368],[108.74596425924483,12.947764746590392],[108.74646016958829,12.947491995011505],[108.74700185643842,12.94712387684576],[108.74783345994894,12.94721829024271],[108.7479631602797,12.947080961032668],[108.74794027191444,12.946871152884253],[108.74768850236454,12.946670881500562],[108.7473375498615,12.946513524931865],[108.74719259092377,12.946250311548585],[108.7472154790424,12.946081511010203],[108.74752828556754,12.945882193050432],[108.74822255882476,12.94560848828178],[108.74854299381448,12.945545546303391],[108.74932119230553,12.94559799785106],[108.74979421551518,12.945303312142592],[108.75002309704887,12.94528233062969],[108.75009939140891,12.945387235632118],[108.75012990816661,12.945597998233453],[108.75025197776073,12.945713392032722],[108.75044271359438,12.945744863639124],[108.75066396606685,12.945566526389484],[108.75089284770709,12.945240369590465],[108.75122091215425,12.944966665187037],[108.75205251585272,12.94476734689001],[108.75240346824683,12.944734922029957],[108.75276967932254,12.944755903251975],[108.7533266240081,12.94490372307492],[108.75354024700971,12.944840779754639],[108.75372335365799,12.944630018150109],[108.75379201763623,12.944094052767477],[108.75388357037937,12.943914762133838],[108.75416585833221,12.940635076442437],[108.75349447086478,12.93929516410101],[108.75372335326209,12.938279500563942],[108.75505086800736,12.936712613106591],[108.75574514160374,12.935813298583826],[108.75603505837368,12.934435238914926],[108.75672933368827,12.933575025570821],[108.75817891866387,12.933587421904004],[108.75946828641715,12.93272720848859],[108.76024648518029,12.932072987802652],[108.76087972498435,12.930889477756402],[108.76110860641545,12.92979465991764],[108.7609407592735,12.928181043259746],[108.76110097646621,12.927357067853947],[108.76169606979177,12.926330913585888],[108.76248189733577,12.923391689158283],[108.76261922624731,12.922566761474032],[108.76299306672459,12.921797146157482],[108.764061182634,12.920442927926365],[108.76466390469815,12.920081486718898],[108.7649004157337,12.91981350367892],[108.76499959698253,12.919302334392725],[108.76506826219655,12.919218409931462],[108.7652055908492,12.919167865959688],[108.76551076675187,12.919276585256128],[108.76575490734061,12.919243206491435],[108.76613637689681,12.919017185325979],[108.76622792993541,12.91856419062266],[108.76636525938486,12.918261875550138],[108.76652547610126,12.918135989953322],[108.76680013467903,12.918102610779055],[108.76715108625103,12.918212284404932],[108.76735707984957,12.918203701241724],[108.76748677993648,12.918111195007413],[108.76756307429378,12.917876591009001],[108.76754018521541,12.917532314270593],[108.76770040360898,12.91725574876231],[108.76820394291012,12.916844715341506],[108.76850148930599,12.916802752812359],[108.76878377681474,12.91685329763928],[108.76900502958904,12.916811335669808],[108.76920339338977,12.91640030273215],[108.76940938708337,12.91624962177731],[108.76962301070216,12.91624103920179],[108.77030965610193,12.91633354600172],[108.77048513259759,12.916241039024234],[108.77067586733182,12.91571270360857],[108.770706384039,12.915168155709543],[108.77061483095044,12.913641322763802],[108.77072927185594,12.91323028906788],[108.77108785404226,12.912610400362924],[108.77148458207303,12.912248957953114],[108.77146932419366,12.912082064867972],[108.77101155977311,12.91187225631916],[108.77102681900793,12.911569941676277],[108.77115651846377,12.911142695694162],[108.77156087567494,12.91097484980432],[108.77177449947966,12.910656321373198],[108.771888939609,12.910136569715577],[108.77227803863953,12.909725535929258],[108.77258321509545,12.909003604220585],[108.77333852502947,12.90804611552318],[108.77327748961335,12.906346667073914],[108.77359029515893,12.905749667356133],[108.7739107301074,12.903541910885135],[108.77437612235688,12.901566850914586],[108.77413961114115,12.899331439201118],[108.77419301676058,12.89921413730931],[108.77446767570002,12.899030077670556],[108.77645894761734,12.89865051520169],[108.77795430852869,12.898497927651547],[108.77841207227888,12.898250925439898],[108.77957174095596,12.897073137885025],[108.7806551143641,12.896870958399097],[108.78101369516004,12.89573036463344],[108.78176900521949,12.894990312174224],[108.78236409842351,12.894579279560288],[108.78264638631747,12.894078600721192],[108.78278371532217,12.892982827935251],[108.78292104419275,12.892455446384187],[108.78330251463716,12.891764032502444],[108.78459951147758,12.890255319338403],[108.78466817555274,12.889495241360097],[108.7838823482681,12.887618410478574],[108.78374501799357,12.887002336022388],[108.78472921011016,12.88522659514663],[108.78500386926359,12.883880006904754],[108.78518697366701,12.882565842629345],[108.78633901262856,12.879958497697272],[108.78671285263303,12.877912865659816],[108.78731557472885,12.87707840060207],[108.78927632833424,12.875429497281036],[108.78964253932698,12.873726235133873],[108.78961202241832,12.871716843022819],[108.7904741438743,12.87066017184185],[108.79283925665611,12.86973701518075],[108.79344960732908,12.869145736828372],[108.79358693608593,12.867556916194332],[108.79587575559452,12.867215500766488],[108.7970964581929,12.86764942163734],[108.79727956406204,12.868007049241365],[108.79689809436178,12.869623527440682],[108.79695149933008,12.87043701148922],[108.7974321521501,12.871168481029255],[108.79837056814644,12.871414528902712],[108.80017110525912,12.871310577610215],[108.80149861898452,12.871030197839533],[108.80210897075827,12.871280060289164],[108.80384847297012,12.873363838676692],[108.80521413500674,12.87424789472347],[108.80622884448361,12.87413059274915],[108.80825063411382,12.872944221547414],[108.80905172045546,12.873275146439868],[108.81132528042275,12.87492691039591],[108.81222554817157,12.874894485587777],[108.8131105584071,12.874637947416371],[108.81412526742747,12.874579772763678],[108.8155672233938,12.874698028154473],[108.8174593137282,12.873451576017489],[108.81850454030214,12.87297092355979],[108.81856557513126,12.872852668161764],[108.81733724320735,12.872207030455545],[108.8168337019547,12.87180648824357],[108.81684896102601,12.871284828286813],[108.81702443760759,12.870796546922776],[108.81742879564563,12.87034450442378],[108.82076284134254,12.867720946201676],[108.82215902045766,12.866789206512353],[108.82392903958312,12.867005690738138],[108.82603475219045,12.868009909493816],[108.82703420371364,12.86805091767481],[108.82988759743654,12.867089614522408],[108.83161946941618,12.865372046389934],[108.83287068994429,12.863333089812775],[108.83307668357669,12.8620856833846],[108.8353960195852,12.861576421862218],[108.83761617361394,12.861396177968185],[108.83777639053132,12.860327108581183],[108.83889028177104,12.859562261078745],[108.8394395986097,12.85893951268882],[108.83972188597434,12.85818134119345],[108.84570333123143,12.857331617158755],[108.84666463505235,12.85604415715349],[108.84737416920545,12.85560641941767],[108.84827443748668,12.854833943660287],[108.84884664186326,12.854852063703762],[108.85047170293295,12.854222638502932],[108.84958669218754,12.84112201446677],[108.84927388768237,12.839242321619503],[108.84948751074214,12.838490826184305],[108.85008260295626,12.835652690437511],[108.8533022070896,12.830926281223269],[108.85540792003108,12.828177791275465],[108.85969564026841,12.826415400777805],[108.8618852761745,12.827097277592383],[108.86209889898244,12.826814037328173],[108.8622209700642,12.825374941782993],[108.862594809766,12.824769358922524],[108.86405202451097,12.824725489970962],[108.86461659900186,12.82439837939789],[108.86553975642367,12.82235751669538],[108.86601277895508,12.820880274761883],[108.86674520111805,12.817730288666285],[108.86774465041444,12.816893916581998],[108.86972066397166,12.816439013285935],[108.87157460734396,12.816315988662142],[108.87300893278305,12.816570620097751],[108.87443562979641,12.816583018112908],[108.87537404574601,12.816266397566862],[108.87846395058914,12.81435141922072],[108.88043996393296,12.813854555817327],[108.88145467320537,12.814139703273545],[108.88237782990774,12.814755777140201],[108.88494130634564,12.815371850556232],[108.88623067389163,12.816351274698926],[108.88692494966647,12.817215303614262],[108.88706227838853,12.817216257751973],[108.88856526891605,12.81578860635991],[108.88989278423361,12.815162042574968],[108.89122029804433,12.814978937125147],[108.89177724419349,12.815121988482495],[108.89322682959133,12.815313676265188],[108.89474507824143,12.815270760549485],[108.89781209535712,12.814796785122454],[108.89998647270012,12.814205506332096],[108.90168782776696,12.813457825413305],[108.9025041732442,12.813492157757317],[108.90359517679349,12.81435809472511],[108.90634175843576,12.812193253081933],[108.90769979021887,12.811346390604303],[108.90840932417012,12.810355523223244],[108.90904256468596,12.809986451041208],[108.91003438529604,12.809579231714636],[108.91088124840219,12.808782913739147],[108.91147634121211,12.80859408609303],[108.9170763164894,12.81121287550581],[108.93779775274226,12.810199118896255],[108.93816396386828,12.810036040830523],[108.93975850726295,12.804725027773769],[108.9400179070723,12.804642058852975],[108.94023153023676,12.80470881588273],[108.94004079521412,12.805203772765262],[108.93991872360215,12.805658674784532],[108.93995687106529,12.806201315584126],[108.94017049374258,12.806627608966526],[108.9403993759169,12.806889869028689],[108.94084951105576,12.807053900825512],[108.94151326775727,12.807093001518307],[108.94235250142079,12.80678305745993],[108.94491597802927,12.805425978736382],[108.94534322412068,12.805406904500831],[108.94579335778113,12.80564913831271],[108.94619771587239,12.805930472384759],[108.9465562980516,12.806269026691016],[108.94672414398775,12.806802130648755],[108.94680806803986,12.808052397276096],[108.94684621493357,12.809535361786075],[108.94714376119192,12.81032977190625],[108.94764730150162,12.810842848294815],[108.94824239479081,12.811259604569095],[108.94882222822044,12.811434126513495],[108.94938680365047,12.811395979197483],[108.95127889355767,12.8105329045441],[108.95233937925406,12.810203886231058],[108.95330831244063,12.810197211335073],[108.95469686279031,12.810707426049577],[108.95567342432439,12.811172818866622],[108.95690175793632,12.811463689871658],[108.95836660116765,12.812461233035915],[108.95964070966295,12.813033438010711],[108.96018239700867,12.813508367643415],[108.96099111266271,12.814505911129435],[108.96194478693955,12.81517348298856],[108.96336385533974,12.815960264329581],[108.96424123464601,12.816148137546865],[108.96551534407415,12.816196776126544],[108.96788045590047,12.81605753841872],[108.97042867412061,12.816301679477782],[108.97129842520559,12.816141462466469],[108.97234365231341,12.81586012841586],[108.97264119960354,12.815607404536902],[108.97287771005246,12.814989423857584],[108.9731828861486,12.813697194615514],[108.97306844523148,12.812797879078225],[108.97203847642183,12.81035647335794],[108.9718248533256,12.808800077149382],[108.97193929406072,12.808105802306967],[108.97232839288233,12.807660436012867],[108.97315999718252,12.807371472946764],[108.97354146703105,12.80713114735527],[108.97369405483455,12.806845997879751],[108.97387716097677,12.805265760338795],[108.97391530670424,12.804511402688213],[108.97376271964156,12.803885792864003],[108.97316762699319,12.803292607925822],[108.97261830995016,12.80281863121854],[108.97186299991276,12.801488256344985],[108.97152730613527,12.801194524451104],[108.9709322136365,12.800761556275834],[108.9705660021598,12.800408696084652],[108.97047445025177,12.800184583240785],[108.97051259730371,12.799971914197803],[108.97063466751516,12.799764012874803],[108.970916954055,12.799583768405798],[108.97139760687811,12.799461698366253],[108.9719774401347,12.799382542948832],[108.97267934561579,12.799325321863458],[108.97302266706761,12.799443578291568],[108.9735414661223,12.799704884606118],[108.97398397199066,12.799785947076172],[108.9743807007942,12.799738262593566],[108.97485372265413,12.799515103578328],[108.9754030381362,12.798910473759765],[108.9758455437027,12.797882412932108],[108.97610494331397,12.796526287921933],[108.97602864923415,12.795982693170018],[108.97526570969154,12.79470095598632],[108.97490712813766,12.794178341248202],[108.9745714342832,12.793847416219498],[108.974029747395,12.793626164230043],[108.97380086629883,12.793476437830225],[108.97367879479886,12.793316219430656],[108.97361776062483,12.79315600213104],[108.97375508937544,12.792085980355312],[108.97365590679703,12.791967724263593],[108.97325154876184,12.791791294822318],[108.9729463733622,12.7912581903563],[108.9727251210625,12.791146610870554],[108.97218343451685,12.791070316436775],[108.97203084584132,12.7910016528147],[108.9719164053709,12.790868138716082],[108.97190114580256,12.790644978279753],[108.97230550427925,12.789968823414089],[108.9725572739134,12.789798115729246],[108.97271749179889,12.789756153400504],[108.97342702491342,12.789985989409276],[108.97375508935062,12.790007923098939],[108.9740526361285,12.790003155608943],[108.97457906363448,12.789855335335057],[108.97489186928873,12.789823864646047],[108.97536489110236,12.789888714155305],[108.97557851454043,12.789777134137033],[108.97571584379952,12.789548252376187],[108.97573110181445,12.78942046031901],[108.97564717871397,12.789100025447347],[108.97573873171403,12.788786265842628],[108.9757387323418,12.788621280961904],[108.97563192022535,12.788407658511494],[108.9752275624136,12.787996624158584],[108.97491475670081,12.7878306850534],[108.97480031610401,12.78768191269026],[108.97471639306166,12.787196491156347],[108.97474690960438,12.786859843893838],[108.97509023334077,12.786535595039066],[108.97586080191677,12.786371563279289],[108.97648641224689,12.786090229271327],[108.97661611172319,12.785892819449016],[108.97692891707892,12.784993504274215],[108.97705098816988,12.784513805948167],[108.97718831678013,12.784461352722028],[108.97740956864843,12.784450863368084],[108.977943627014,12.78474459526067],[108.97939321225806,12.78568491835952],[108.98025533283814,12.786499354608072],[108.98046132723378,12.786621425793324],[108.98060628501383,12.786649082205455],[108.98082753850748,12.786531779772718],[108.98105642026538,12.786199902051667],[108.98124715541344,12.785737369610512],[108.98136159633464,12.785327289672466],[108.98139974305909,12.78499159542191],[108.9811708612916,12.78397211909516],[108.98090383225362,12.783455227075734],[108.98067495024495,12.783151004456366],[108.98069783799842,12.782953594103065],[108.98075887267942,12.782858227199343],[108.98094197881599,12.782788608507223],[108.98151418299314,12.78271040677983],[108.98204061232707,12.782699917036823],[108.98266622220764,12.782749507355401],[108.98299428600811,12.782840106932829],[108.9835817491203,12.783427570451769],[108.98390981327326,12.783528659893292],[108.98423787718379,12.783519122747231],[108.9852754751549,12.783243510405597],[108.98584767978407,12.782999370724088],[108.98671743111711,12.782453868375665],[108.9868071329064,12.78241016793993],[108.98701497684596,12.78230891047574],[108.98733541089098,12.782085750414327],[108.98786946936241,12.78151068424824],[108.9879991689161,12.781257007408993],[108.98793813394838,12.780198428532996],[108.98806020350533,12.779939029402955],[108.98817464527438,12.778989169001777],[108.98801442777533,12.777174327403259],[108.98786184013234,12.776020381170149],[108.98748799881811,12.77521071188804],[108.9872972636156,12.774031970463412],[108.98687764781607,12.77372870228737],[108.9863664775285,12.773497913141368],[108.9863130722144,12.773206088403503],[108.98645803050454,12.772779795721284],[108.98677846577421,12.772313449375304],[108.98675557695877,12.771904323414697],[108.98623677872055,12.771736475997132],[108.9855653918683,12.771431299791754],[108.9854585798609,12.771007869279428],[108.98574849634888,12.770490976784545],[108.98629018374503,12.770077082641123],[108.98686238826886,12.769485804950447],[108.98699971763959,12.768759104714816],[108.98709126999385,12.767891260994547],[108.98735066974497,12.767420146111682],[108.98753377545037,12.767312380909187],[108.98809835006762,12.767152163774483],[108.98843404372316,12.766972872479096],[108.9894258657381,12.765585276462673],[108.98951741764088,12.764780375980331],[108.98935720010898,12.76366076123991],[108.98946401219692,12.763310762804448],[108.99048634973074,12.762527796397528],[108.9911043309249,12.761908861339084],[108.99131795437333,12.761592241272563],[108.99125691927874,12.761055323662115],[108.99107381437345,12.760757776547509],[108.99088307879475,12.760265680738938],[108.99089070825379,12.758406015634083],[108.99104329587915,12.757761332589798],[108.99137899025935,12.757022233823674],[108.99154683576171,12.754476876909424],[108.9911882549774,12.75383696159445],[108.99073049099381,12.753224702639246],[108.9900438459761,12.752586694918586],[108.9892427589688,12.751943918100459],[108.98857900181392,12.751306863609601],[108.98840352564001,12.750787111088396],[108.98847218919735,12.749932618642303],[108.9885255957925,12.747886987704769],[108.98819753144663,12.74702486602144],[108.98789235550827,12.746694894570188],[108.98679372252737,12.7458861791967],[108.98432942835313,12.744325014084584],[108.98404713970942,12.743759485218115],[108.98402425178853,12.74226317010699],[108.98407002939742,12.741657586686374],[108.9842989104178,12.740750642474376],[108.98442098091941,12.74047026264636],[108.98459645681002,12.739614816313138],[108.9847261573853,12.739197106739141],[108.98480244973071,12.738524766712066],[108.98485585596025,12.7383416618852],[108.98541280189728,12.737155290757931],[108.98577138349143,12.736209245311898],[108.9860078948725,12.735182138129257],[108.98616048228317,12.734174104101768],[108.98650380425404,12.730716081085246],[108.9868166109676,12.72907099235312],[108.98737355505752,12.727085442947782],[108.98938008647532,12.724696487549258],[108.99043294330897,12.723835320468131],[108.9945528163834,12.721027702863664],[108.99451466897416,12.720320075953301],[108.99395772355123,12.718992561219244],[108.99384328231206,12.718021721692736],[108.99378987647708,12.717172951692948],[108.99424001100078,12.71639856707647],[108.9953157550869,12.714870780804256],[108.9953996781837,12.714427322159889],[108.99368306486727,12.712767928710921],[108.9929048660411,12.712296814016321],[108.9927827959373,12.712053627291459],[108.99281331356075,12.711023659241071],[108.99197407970104,12.70904669189328],[108.99196645050172,12.708016724029317],[108.99201222679041,12.70692571980825],[108.9916689045286,12.706317276069012],[108.99111958705313,12.704948752634724],[108.99086018837454,12.704795211855705],[108.98664113376486,12.70413812961104],[108.98594685874436,12.703789084836169],[108.9855653884556,12.703416199458557],[108.98551198188623,12.703051894833862],[108.98569508849117,12.702589362552843],[108.98774739514465,12.700280517732367],[108.9877626544405,12.699845642090107],[108.98735829634104,12.699357361019517],[108.98664113323684,12.698321671134789],[108.98645039845613,12.696945518119442],[108.98657246778457,12.696088164996116],[108.9867326846042,12.695805877266164],[108.98750325363399,12.694942801316847],[108.98832722903182,12.69432291322918],[108.98923512729723,12.692722648339275],[108.98941060326344,12.691390365272833],[108.98912831462762,12.690579741137197],[108.98810597570035,12.689985602265542],[108.9872698016608,12.689797884220086],[108.98545094704524,12.689389556184548],[108.98436757222227,12.688876479119118],[108.97924824807033,12.683915465751358],[108.978454791238,12.68295988416025],[108.97805806330702,12.682279914039928],[108.97647114911264,12.68292459823818],[108.97409077782149,12.68318971925416],[108.97238942269307,12.683237403941538],[108.97100850213694,12.683529228124],[108.96763631041725,12.6854785381069],[108.9668733704931,12.686119408116598],[108.96654530567646,12.686541885219793],[108.96619435388156,12.686579078830858],[108.96521779243831,12.685621590263453],[108.9638979063046,12.684630722429365],[108.96349354875292,12.684405655426369],[108.96258565090257,12.684357970838995],[108.96195241106778,12.68441423778736],[108.96067830189429,12.684788077986857],[108.95944233966539,12.685223907278525],[108.95668812909297,12.686793655235663],[108.95421620474406,12.688125938967042],[108.95288106062593,12.688581795812645],[108.95034047169672,12.688731523361787],[108.94892140454908,12.689122528589756],[108.94667073333997,12.690401406407297],[108.94593068156426,12.691144319259834],[108.94355031074724,12.694046350356954],[108.94265004261445,12.6942618805892],[108.9412386043302,12.693220468568368],[108.93836995197996,12.691489549670417],[108.93722554236268,12.69067225049687],[108.93624898072835,12.690098138390693],[108.93424244977567,12.689173074513219],[108.9334261048055,12.688701960076026],[108.93326588647392,12.688268037525543],[108.932037554473,12.686983438879189],[108.92989369395477,12.685106607790381],[108.92935200687934,12.684727998898824],[108.92823048650627,12.684456201730988],[108.92368336702918,12.684087129493232],[108.92311116185294,12.683800073495748],[108.92264576889646,12.683391901272573],[108.92131825450774,12.68174395177491],[108.92050953883042,12.68082842484402],[108.91935749923807,12.679636331951135],[108.91889210675966,12.679248185970454],[108.91831227294719,12.679203363289883],[108.91531392046751,12.679281565332003],[108.91325398467208,12.679254862232128],[108.91259785670158,12.679149004550217],[108.91214772160254,12.67896303864803],[108.91111012466013,12.678085657648236],[108.9107439131078,12.677921625626261],[108.91049214355144,12.677919717966228],[108.90952321047409,12.67839655524599],[108.90872212301353,12.678552004431985],[108.9076997843168,12.678281160118582],[108.90361805834671,12.676763865418982],[108.90276356575617,12.676372858663285],[108.9026414958945,12.676128717235864],[108.90168019211812,12.672027918343044],[108.90190144455576,12.671766611166708],[108.90293904181281,12.671127649120207],[108.90409870958304,12.67033896109502],[108.90488453765104,12.669617029376047],[108.90921803413089,12.664835305815474],[108.91194935686441,12.662573190485764],[108.91397877566233,12.661353440129524],[108.91455098106556,12.660798402694809],[108.91458149770408,12.660238595205946],[108.91342945968806,12.657121034562802],[108.91332264677621,12.65162691571219],[108.91298695374836,12.648988099239407],[108.91288014211314,12.6477740713663],[108.91281147752044,12.645662636356777],[108.91162129178761,12.641139359961311],[108.91127033974587,12.640366882187594],[108.91035481257836,12.639426559859423],[108.90945454319727,12.63899931329293],[108.90847798142802,12.638688416552947],[108.90779133577742,12.638543457845481],[108.90760059996732,12.638402313761787],[108.9065782615577,12.636959404705086],[108.90554829305792,12.63515505247762],[108.9046098777725,12.634121269995427],[108.90392323175536,12.633649200789545],[108.90103169158313,12.630956024894518],[108.89976521154074,12.629079193353531],[108.89894123684738,12.628093094350962],[108.89764423934383,12.62689337235971],[108.8962404319505,12.625331253720956],[108.8949663224171,12.624224991554948],[108.8934099250365,12.623726219393708],[108.89094563097204,12.622863144300673],[108.88967152201491,12.62285360763483],[108.88858814843873,12.623089165462531],[108.88807697948431,12.623323769499375],[108.88742848054837,12.623785347617089],[108.88591786039622,12.624986977735738],[108.88441486897119,12.625909181197345],[108.88386555368197,12.626324982892832],[108.88276692058976,12.62666544421404],[108.88229389801742,12.626545281359585],[108.88100452978817,12.625660272614303],[108.88045521335708,12.625398965304216],[108.87960072142222,12.625111909591183],[108.87905903392004,12.625084252412522],[108.87821980150477,12.625404687088148],[108.87736530931883,12.625794740268752],[108.87662525721349,12.625881524130703],[108.87615223497082,12.625831933176245],[108.87491627270909,12.62516817677966],[108.87083454639362,12.621216149402782],[108.86890430931157,12.619124742112204],[108.86791248808773,12.617787690441835],[108.86640186809026,12.615574212734826],[108.86550922929038,12.614189477412165],[108.86515827598792,12.613533349297642],[108.86435719039929,12.611111016443672],[108.86389179688223,12.609893174565524],[108.86335010979485,12.609049171937317],[108.86207600069488,12.607568116417697],[108.8615572016236,12.606105180549353],[108.86145039092334,12.60447058203437],[108.86173267764664,12.602068275886365],[108.86257191190822,12.599752754849435],[108.86291523383609,12.598098129929483],[108.86286945746373,12.596382470018897],[108.8628999752093,12.595566124623922],[108.86312122688224,12.594937653913124],[108.8639833494033,12.593987793551424],[108.8649446521371,12.593271584856694],[108.86632557359603,12.592909187686136],[108.86701984813757,12.592377991804852],[108.8680421876377,12.590763420343581],[108.86883564443959,12.59032663722771],[108.8704759635278,12.590059608296675],[108.8725740475255,12.589796394091257],[108.8750230832878,12.589278548902833],[108.87875385733024,12.588037818790943],[108.87928028578861,12.5876687467626],[108.88042469422415,12.585541099082706],[108.88153858643375,12.583636611711968],[108.88243885390247,12.58258280083833],[108.88367481576428,12.580923407389609],[108.88484211339687,12.580488531814918],[108.88852711158502,12.579549162929275],[108.88945789685707,12.579510061887696],[108.89208240888436,12.58028635287253],[108.8931657835221,12.577377645874348],[108.89337177655867,12.57691511382344],[108.89437885678353,12.575182287851076],[108.8945772212976,12.574700682697298],[108.89462299705498,12.574422209022236],[108.8946153683734,12.574051229167459],[108.8944932969774,12.573653546893912],[108.89408130978195,12.572922079596864],[108.89373798691173,12.57241567855657],[108.89303608313723,12.571583120617126],[108.89302082385385,12.571225492638307],[108.89321918885652,12.570445387608238],[108.89328785324028,12.569916097909212],[108.89329548221085,12.569426863091556],[108.89301319472,12.568080274605233],[108.89304371175903,12.567470877481561],[108.89315815245418,12.56719431078075],[108.89347095874827,12.566746084280316],[108.89385242762634,12.566352216635437],[108.89446278012197,12.565920202328417],[108.8955385234921,12.565286008616031],[108.89640827433253,12.564709989023378],[108.89730091449105,12.564293233919978],[108.8965379744914,12.562638608983404],[108.89635486937287,12.56212076376706],[108.89526386496482,12.559563008800813],[108.89498920752979,12.558780042867953],[108.89437885669176,12.557305661311835],[108.89374561640108,12.556022015353633],[108.89350147481692,12.554359761777071],[108.8933717748897,12.553721753729556],[108.89327259331931,12.552039471314126],[108.89317341097664,12.551495877364605],[108.89295978760951,12.550805417005018],[108.89269275926932,12.550134984113612],[108.89222030137782,12.549093155565846],[108.89172904043177,12.54800986266079],[108.8915025736937,12.547510471984154],[108.8913826715603,12.54727753735091],[108.89077015133509,12.546087590446254],[108.8904649755659,12.545647945876487],[108.89007587664364,12.545221654260361],[108.889732553807,12.544967023397309],[108.88938160155193,12.544831601564143],[108.88732166585821,12.544517842148618],[108.8866807956072,12.54427465558233],[108.88597889165506,12.543924657428011],[108.88541431672483,12.543548909184786],[108.8848268535753,12.543094006650545],[108.8827440283834,12.541347829370336],[108.88269188155292,12.541298609043302],[108.8825304054583,12.541162816316021],[108.88199634701358,12.540642110134499],[108.88127155503561,12.53981527428576],[108.88045520926774,12.538624135351444],[108.87931843024033,12.536708203582416],[108.87828083163309,12.534799901358351],[108.87721271645646,12.533202496027119],[108.87687702290397,12.532603588895697],[108.87604541870226,12.531318990189243],[108.87527485059138,12.530200330373505],[108.87468738655927,12.528931943327878],[108.87436695204072,12.528333035174125],[108.87340564833143,12.526921597388307],[108.87327594868263,12.526629772918486],[108.87319202539403,12.52628835825815],[108.87287922009946,12.524275151365261],[108.87267322652998,12.523373928691399],[108.87263507930591,12.52304300372428],[108.872703743714,12.522817936739774],[108.87377185910145,12.521052685532092],[108.87447376328252,12.52004465196258],[108.87480182683512,12.519333210388636],[108.87529010769155,12.518793430833439],[108.87625904093473,12.517954198029985],[108.87676258201262,12.517336216202452],[108.87692279864268,12.516986217197529],[108.87708301613006,12.516325321221395],[108.87716249003914,12.51612149887531],[108.87719745668653,12.515995350921957],[108.87724958293195,12.515898134207621],[108.8773042687652,12.515757885213905],[108.87744532281776,12.515533080219631],[108.87757892674848,12.515283909364294],[108.8780977263027,12.514493313283923],[108.87826029946719,12.51402825846042],[108.87828648291422,12.513846615221276],[108.87827262671709,12.513732304233239],[108.87822086455793,12.513627163540797],[108.87818025652739,12.513584525233892],[108.8780305518321,12.51352611760709],[108.87775440320702,12.513462391834175],[108.87712879201091,12.513490047531787],[108.87596912371305,12.513773289191235],[108.8757326126431,12.513933506922312],[108.8750078211829,12.51428541281502],[108.87466449765479,12.514280643542284],[108.87398548163948,12.51383241654598],[108.87326068845734,12.513243999865628],[108.87297077211358,12.512923565648226],[108.87259693124855,12.512285557903256],[108.87236804975736,12.511806812764611],[108.87231464467294,12.511581745510327],[108.8719865808748,12.510784473148039],[108.87194080352876,12.510354366308595],[108.87197132129414,12.509996738861927],[108.87218494416496,12.509071674178058],[108.87279529523394,12.507480945660758],[108.87287921983442,12.506939258028604],[108.87281818410052,12.506422367127021],[108.8727113725214,12.506182995357625],[108.87255115521292,12.505996074721267],[108.87231464423033,12.505809154726135],[108.87133045260659,12.505297985403528],[108.87107868198899,12.50507101080166],[108.87069721257296,12.504572239167924],[108.87043018276592,12.504291858723077],[108.8698122018021,12.503889408479875],[108.86959857899792,12.503808346412772],[108.86888141615324,12.503710117217173],[108.86857624041988,12.50362810134529],[108.86744708991777,12.503248539207743],[108.86714954327792,12.503087368122204],[108.86689014370583,12.502873745314588],[108.86518878930934,12.501077976634],[108.86389179160733,12.499586429114297],[108.86353320946827,12.499080982748882],[108.8620225892752,12.497578945217024],[108.8614732734625,12.496920910188244],[108.86064929859441,12.495832767282687],[108.86032123450381,12.495143261584069],[108.85990161875846,12.494451847719212],[108.85880298528058,12.492729511365038],[108.85829944491799,12.492254581165762],[108.85824603898978,12.492044773072747],[108.85834522149672,12.491689052669722],[108.85886402001469,12.491304722533306],[108.85999317019015,12.490685786889419],[108.86505908793941,12.488086070847647],[108.86856098000959,12.486022319945647],[108.87051410569566,12.484991397368017],[108.87294788196458,12.484016742471717],[108.87491626594611,12.482607211591608],[108.87718982663748,12.481161441089556],[108.87794513652116,12.480330789926512],[108.87826557004921,12.479810084286688],[108.8783800109865,12.479444826978225],[108.8784868230237,12.478844966149364],[108.87849445216612,12.478400552662919],[108.87836475201881,12.477797831232452],[108.87793750567602,12.47639592954586],[108.87728137827546,12.474690759552903],[108.87581653454806,12.46993383270549],[108.87566394622093,12.46959337085476],[108.87534351178942,12.469224298890895],[108.8749773003544,12.468960130621317],[108.8739931081662,12.4686120399379],[108.87184161945642,12.467994058568797],[108.87008685868268,12.467300737717597],[108.8696901300658,12.467088068633567],[108.86956043066438,12.466904010061311],[108.8695604304671,12.466616953628156],[108.86967487133987,12.466016138495691],[108.87037677481878,12.462950075395929],[108.87040729306717,12.46232255784908],[108.87036151683344,12.46182473963014],[108.87017841081507,12.461013162897348],[108.86984271833347,12.459885919528023],[108.86936206631697,12.458850229005076],[108.86851520264425,12.45750936377735],[108.86794299792636,12.456511820768089],[108.86778278042759,12.456014002229685],[108.86775989301327,12.45562108871676],[108.86808795714474,12.45504888337119],[108.86848468479077,12.454607332406843],[108.87025470456314,12.453316056917165],[108.8697969403368,12.453197801395543],[108.86878223218353,12.45305951924956],[108.86647052481905,12.452884042332057],[108.86518878652922,12.452847803208062],[108.86320514393975,12.453158701421456],[108.86146564135791,12.45390352084703],[108.86029071572418,12.454522456008776],[108.85919208229882,12.455010736925507],[108.85713214548993,12.456092204159411],[108.8547136271283,12.456923807843136],[108.85364551282552,12.457045878384163],[108.85122699489604,12.457130755118209],[108.8503725028662,12.457203234291063],[108.84986133258121,12.457303370130623],[108.84954089805493,12.457457865177636],[108.84919757539458,12.457690562314184],[108.84895343424981,12.457949961318844],[108.84865588852007,12.458418215893959],[108.84813708981099,12.459748591829204],[108.84745807396462,12.461129512556182],[108.8469774212818,12.461622561551987],[108.84657306388308,12.461801852377778],[108.84601611896281,12.461850489833237],[108.84517688494931,12.461778010819163],[108.84387225841022,12.461558666085766],[108.84288806637204,12.461446131938908],[108.84083575985936,12.461638775020505],[108.83969135042446,12.461812343204906],[108.83873004668563,12.462118472643956],[108.83766193121811,12.46265920628867],[108.83679218069854,12.463023509801927],[108.83605975885717,12.463884677794011],[108.83556384771445,12.464927043952205],[108.8345186206439,12.466114367887029],[108.83393878650588,12.466469134980844],[108.83366412864954,12.466855373213198],[108.8336259817072,12.467333164112558],[108.83398456301215,12.467933979156566],[108.834312626567,12.468624439715722],[108.83437366247045,12.469044056614814],[108.83180255652141,12.470368709439636],[108.83149738113042,12.470455494362083],[108.82918567326126,12.47061666542992],[108.82863635722151,12.470701542320088],[108.82708759056669,12.470590915655594],[108.82687396753815,12.470615711694427],[108.82652301525697,12.47084840923392],[108.82610339873496,12.471302358058564],[108.82565326435694,12.471717206379966],[108.82454700176193,12.472597447061],[108.82344837006261,12.473295537064047],[108.82101459247535,12.474452344668329],[108.82040424028446,12.474866238316256],[108.82021350552365,12.47504743694929],[108.82017535910191,12.47534784430526],[108.82027454085336,12.476211873078478],[108.82073230490643,12.477633801820058],[108.82023639422056,12.478467313174669],[108.81968707765762,12.479001370946463],[108.81899280259609,12.479419081004364],[108.81874866310727,12.479730931977143],[108.81829089859262,12.480511038045208],[108.81765002957304,12.481028883051636],[108.8168565726154,12.481428471315823],[108.81594867517168,12.482139912469718],[108.81429309550073,12.483202306777521],[108.81227893576356,12.483824102245386],[108.81081409230917,12.484386770110993],[108.80966205421052,12.484691946139773],[108.80905170213161,12.484738676303484],[108.80801410384728,12.484651892699407],[108.80765552306222,12.48447927738683],[108.80725879351714,12.48411020524589],[108.80625934329876,12.482794134321766],[108.8049928631111,12.480926840158373],[108.8042528127664,12.48018869621088],[108.80398578340579,12.480133383313463],[108.80364246032107,12.480157225592174],[108.80339832043212,12.48033842302343],[108.80323810290848,12.48075136439383],[108.80314655037071,12.481139508970818],[108.80296344450072,12.481525747358138],[108.80274982179026,12.481719343730745],[108.8025361987692,12.48200544499989],[108.8023988699784,12.48210844204378],[108.80213184040261,12.48208078607981],[108.80136890167928,12.481263487875582],[108.80113239043123,12.480947821614398],[108.8004991501898,12.480367033743512],[108.80020160353578,12.480285971241736],[108.79940814634183,12.480305998696654],[108.79919452372944,12.480688421374275],[108.79901141881402,12.480925886199655],[108.79863757834092,12.4818499965273],[108.7974702803734,12.483365385403761],[108.7962343188378,12.484817831863225],[108.79577655585673,12.485546438986635],[108.7953721978526,12.486537306993966],[108.79539508574467,12.486798612925845],[108.79547137961298,12.487034171027501],[108.7959215140471,12.487692205739624],[108.79690570575045,12.488831847327669],[108.7973482104537,12.490449279248418],[108.7973100635815,12.491076795684435],[108.79709644048509,12.49143442448868],[108.79548663852923,12.492749541035534],[108.7951662041039,12.493151992162733],[108.79497546913316,12.493539184173306],[108.79496784037862,12.49437651063277],[108.79502887475196,12.49560961073492],[108.79480762233493,12.496235221029641],[108.79445667052926,12.497043937088804],[108.79415912369367,12.497459739476282],[108.79354114350996,12.498082488313571],[108.79159564743816,12.499619811395922],[108.79131335968783,12.4999059134331],[108.78997058582257,12.500359863074182],[108.78820056741057,12.501026481906106],[108.7870866751634,12.501353592209464],[108.7860567067921,12.501425117441357],[108.7843553524013,12.501411765987548],[108.78403491676089,12.50144133037554],[108.78349323042885,12.5016282505257],[108.78322620169065,12.50178656042803],[108.78200549832292,12.502698273107683],[108.78192421172945,12.502763791989194],[108.78154773483244,12.50304636414702],[108.78124494931522,12.503311302247763],[108.78112048896305,12.503411621370711],[108.78095627964963,12.50356388770522],[108.78063983664941,12.503840775385964],[108.78028125521291,12.504189819077325],[108.77910632934555,12.505654663706215],[108.77884692906707,12.505844444195],[108.7785951589046,12.505938858204372],[108.77829126139008,12.505952633575136],[108.77697772673108,12.50594648776459],[108.77614612273972,12.505859703498054],[108.77590198272459,12.505777687658489],[108.77554340105652,12.50558218467954],[108.77437610413264,12.504435867707839],[108.77401752172052,12.504161209514038],[108.77345294727053,12.503883691053147],[108.77282733707415,12.503751129346668],[108.77229327862898,12.503698677579965],[108.77191943884493,12.50372728792655],[108.77124805219496,12.503865570493703],[108.77088947047294,12.503990501766332],[108.77000446116683,12.504063934440952],[108.76869983421412,12.503988594604484],[108.76850146951462,12.503891319641294],[108.76832599350115,12.503777832738988],[108.7680971118726,12.50343927868922],[108.76781482502213,12.502508491619064],[108.76728839553365,12.501031250593966],[108.76692981491423,12.500644058978018],[108.76662463902056,12.500433296479429],[108.76586169924299,12.500026078063888],[108.76521320011456,12.499620766640986],[108.76464099516397,12.498875947310252],[108.76435870871211,12.498400063508848],[108.76393146198598,12.498127313131766],[108.76336688754019,12.498003335310132],[108.76302356439479,12.497973771314896],[108.7625963187898,12.498022408741848],[108.76216907214913,12.498175950368326],[108.76117725047297,12.498637528031036],[108.76083392795908,12.498687120180096],[108.76043719961422,12.498684257666811],[108.75921649612717,12.498203606663951],[108.75839252124122,12.498290391296202],[108.75811786350955,12.498407692965335],[108.75775165193271,12.498732896181517],[108.75726337123173,12.498933167102118],[108.7568437542735,12.499186845172161],[108.75629443845484,12.499434800622785],[108.75601978043001,12.499620767135388],[108.75540179896149,12.50032553274331],[108.75514239906512,12.500559182091266],[108.75502795821329,12.500540109426298],[108.754173466665,12.499376626202535],[108.75326556775194,12.498366685302287],[108.75178546620988,12.497765870482256],[108.75112170791246,12.497566552276387],[108.75093097404809,12.497343392101746],[108.75066394525047,12.496786447420616],[108.75051135678969,12.496150346658839],[108.75042743275384,12.493004174094544],[108.75027484588611,12.492394775882198],[108.74964160574463,12.490856499817701],[108.74902362436485,12.487837166872394],[108.74903125340823,12.48630461230514],[108.74910754713983,12.484533639216929],[108.74860400750865,12.482943863675573],[108.74848956636373,12.481355996229972],[108.7483598670615,12.480667442477246],[108.74798602619721,12.48010954338962],[108.74761218627555,12.479815811820318],[108.7471315343485,12.479652733460865],[108.74669665868093,12.479596466787457],[108.74414844127055,12.47941622318693],[108.7434541656998,12.479199739305631],[108.74107379463541,12.477752060743626],[108.74053973703899,12.477245659555798],[108.73926562730067,12.47506651370097],[108.73872394112342,12.475881905885416],[108.73828906573924,12.476168961969497],[108.73761767912927,12.476348252410185],[108.7360536531166,12.476361603885799],[108.73524493712776,12.476539941162319],[108.73438281548069,12.476823182468012],[108.73204059167306,12.47717413468817],[108.7308580356044,12.477533669190029],[108.72977466101268,12.477947564926925],[108.72831744693912,12.478886933303057],[108.7269670433417,12.479298921252806],[108.72241992495272,12.480159135663218],[108.72190875526476,12.480313630540202],[108.72147387943228,12.480573984302048],[108.72130603319533,12.480943056370572],[108.72119159248071,12.481814715332618],[108.72105426409064,12.482368798701394],[108.72075671622335,12.482603402696066],[108.72021502943039,12.482678743544103],[108.71860522758573,12.48279699962007],[108.71798724648481,12.482923838222138],[108.71652240292043,12.484074922934509],[108.71595782779522,12.484307619122651],[108.71536273459134,12.484302851230044],[108.71493548878053,12.484246584770764],[108.71415729084312,12.483737322113397],[108.71218890639771,12.481764170683059],[108.71195239530842,12.481180521431945],[108.71231097658712,12.480153414678439],[108.71220416578832,12.479782435770757],[108.71191424793979,12.47938284571229],[108.71164721977392,12.479195925743928],[108.711319155237,12.47919306395056],[108.71105212650924,12.479243609043156],[108.71064776785572,12.479584070828524],[108.7103502221006,12.479660364555071],[108.710029787347,12.47963175425559],[108.70962542992125,12.479469629447268],[108.70901507857492,12.479067179350896],[108.7074129055087,12.477441164876678],[108.70519275120711,12.475810381379775],[108.70368976077116,12.4749091597296],[108.70201129407896,12.47422346740706],[108.70253772157176,12.475377413498618],[108.70348376685389,12.477187487802448],[108.70391101325254,12.478221270687143],[108.70391101317735,12.478881212268057],[108.70331592035289,12.479335161603945],[108.70333880810546,12.479743334748884],[108.70835132135198,12.48779902175873],[108.71073169293604,12.491072985813037],[108.71389026185099,12.49469122568218],[108.71710986764991,12.499271723799508],[108.71838397545325,12.501871440035993],[108.71878833398807,12.504384372150342],[108.72013873721683,12.505892131455282],[108.72085589984505,12.507414194852158],[108.72142810534484,12.509123180636731],[108.72194690383438,12.510041568239757],[108.72276324942507,12.511348102177648],[108.72357196564714,12.514507625171476],[108.72525043226156,12.517867419481709],[108.72723407498994,12.520825717806538],[108.72865314142895,12.523037288615987],[108.72914142342533,12.523640010669192],[108.72915668249043,12.523970935941422],[108.72869891917817,12.52465948892201],[108.72783679716105,12.525406215532476],[108.72711963432153,12.525435779400745],[108.72682971732063,12.525664662158208],[108.7266160940127,12.52622542150998],[108.72679919948399,12.526440951411475],[108.72721881572186,12.526555392601644],[108.72769183934966,12.526842448349159],[108.7279054615771,12.527273510113822],[108.72666187110478,12.527999255768254],[108.72553272042538,12.529232357230084],[108.72343463665364,12.532149647073389],[108.72248859212064,12.534144734125091],[108.72265643831057,12.534557675492856],[108.72295398511613,12.534849499469281],[108.72298450262997,12.53505549320843],[108.72253436855867,12.535468434655865],[108.72231311602668,12.53548560048896],[108.722191045081,12.53569159368963],[108.72217578737457,12.535931918932114],[108.72222919210125,12.536190364941868],[108.72239703926667,12.536379193134236],[108.72286243189855,12.536516522293839],[108.72299976149475,12.536739681250584],[108.72341174810539,12.538579319402757],[108.72365588904239,12.538922642610478],[108.7243425352722,12.53921446598477],[108.72446460512006,12.539490078261652],[108.72437305273424,12.539816235552498],[108.7241365416816,12.54014334581724],[108.72391528856164,12.540349339429756],[108.72386188371819,12.540555332787699],[108.72394580696086,12.540709828254842],[108.72422046444711,12.540898655160092],[108.72612781325908,12.541844700786474],[108.72657794765978,12.542582844880435],[108.72673053561715,12.54270396183476],[108.72692127091294,12.542686794728171],[108.72711200585287,12.542428349026553],[108.72745532878177,12.542256687141663],[108.72772235684968,12.542291020574615],[108.72817249169353,12.54244551520563],[108.72847003769056,12.542995784989337],[108.72850055552172,12.54332194282013],[108.7281419740734,12.54373488317706],[108.7278139094172,12.544043873555772],[108.7274171814453,12.544043873551528],[108.72649402517027,12.543940876328987],[108.72535724442368,12.543889378560777],[108.72486133347667,12.54412970490572],[108.72447986511918,12.54474863826396],[108.72418994768904,12.54498896489288],[108.72402972956876,12.545333241598563],[108.72412128262903,12.54577956063641],[108.72405261851,12.546038007119567],[108.7238618837692,12.546295498320625],[108.7237092962166,12.546638821858158],[108.72351856049524,12.546638821868507],[108.72313709110567,12.546518658597016],[108.72152728916456,12.546415661754416],[108.72019977333223,12.546759938213789],[108.71968860491296,12.547103261230692],[108.71963519874933,12.547223424356254],[108.71971912219571,12.547395085793418],[108.72000903895142,12.547498082055359],[108.72028369783399,12.547743176899912],[108.72022266241571,12.548482274435564],[108.72037524988481,12.548662519339588],[108.72055072686155,12.548679685137936],[108.72083301379767,12.548633908407846],[108.72106189546774,12.5487674227535],[108.72120685346258,12.548932409049119],[108.72125263072643,12.549342488815379],[108.72137470055401,12.549581861350104],[108.72157306452779,12.549651479129478],[108.72175617125374,12.549629544062622],[108.72182483472771,12.54985079683348],[108.7217485405772,12.55012736206004],[108.72157306527696,12.550370549204391],[108.72119159586588,12.550403928317854],[108.72094745463907,12.550591801739301],[108.72022266331257,12.550769185148575],[108.71972675190929,12.550824498022118],[108.71951312892483,12.550978994359388],[108.71902484822289,12.551034307313522],[108.71869678378562,12.551156376752537],[108.71858234279304,12.551454877356225],[108.71855182516589,12.551780080124505],[108.71861286037309,12.552329395862019],[108.71877307797935,12.55277094869294],[108.71878833561449,12.553168629870084],[108.71836108965842,12.554240560677664],[108.71826190819813,12.555822705245243],[108.71813983809395,12.55607733705109],[108.71766681512635,12.55613265040435],[108.71735401006032,12.556243276764718],[108.71717853434518,12.556497907316965],[108.71713275780115,12.556685781480429],[108.717231939709,12.556973790839121],[108.71736926893881,12.557128286258465],[108.71780414431828,12.5572474951337],[108.71835346136615,12.557456350445637],[108.71837634927832,12.557570791172088],[108.71830768511263,12.557703351892421],[108.7180788027833,12.5578797815785],[108.71773548030735,12.558583593250026],[108.71788806802478,12.559362745384776],[108.71797962128038,12.559517240587802],[108.71779651492416,12.559760427795858],[108.71757526298671,12.559827184732661],[108.71734638088873,12.559627866564737],[108.71680469441756,12.55964121726358],[108.71621723046455,12.559949254790624],[108.71544666191416,12.560159063938208],[108.71530170352223,12.560325003038896],[108.7153017029912,12.560833311226501],[108.7154466624024,12.561291074429842],[108.7161943424393,12.561813688678248],[108.716591071544,12.562622403906607],[108.71668262350397,12.56294569994788],[108.71651477759369,12.563232755589564],[108.71585101924121,12.563816404478711],[108.71532459171522,12.564094878124202],[108.7109224315526,12.564532613940422],[108.71025867304468,12.564970351076623],[108.70970172778557,12.56595168114313],[108.70911426413805,12.566203451437689],[108.70773334479613,12.566441869963159],[108.70732898659291,12.566706991653959],[108.70731372741385,12.567012167729962],[108.70808429651272,12.567622519167685],[108.7081453313933,12.56790099230113],[108.70765705033037,12.568908072561877],[108.70772571421368,12.569253302116485],[108.7080156317048,12.569545126746114],[108.70898456478567,12.569763518358256],[108.70931262813036,12.569736815513606],[108.70958728752932,12.5698417189772],[108.70967883984972,12.570204115582202],[108.7101289748305,12.570466376511392],[108.71021289779851,12.570701933733009],[108.71026630377708,12.571052885313794],[108.7103883737419,12.571294165052842],[108.71067066139693,12.571534491850501],[108.71174640593354,12.571967459817504],[108.71192951214334,12.572193480841038],[108.71196002901137,12.572285986123559],[108.71166248274487,12.573133803690906],[108.71139545421484,12.573502875670497],[108.71115131325057,12.57372889579355],[108.71025867356255,12.574342108155832],[108.70967121111885,12.575034476432885],[108.70925922351834,12.575241423307777],[108.70807666699926,12.575721121871387],[108.70751972178863,12.576057768810042],[108.70618457773843,12.57723841805555],[108.70532245577779,12.577851631138028],[108.70399494124162,12.578497268094166],[108.7029726025172,12.578902580554182],[108.7025911331665,12.579133368785383],[108.70173664056117,12.579147674376975],[108.70097370107904,12.579372740883482],[108.7004014972891,12.5799630656174],[108.69991321470664,12.58060012056809],[108.69932575200099,12.581411697020231],[108.69924182908585,12.58161864412454],[108.69921893984743,12.582043029725687],[108.6991044987502,12.582397796739103],[108.69892902278013,12.582651473522963],[108.69842548291724,12.582887031858233],[108.6978990551472,12.583505012105872],[108.6976091380262,12.584090568588392],[108.69756336241174,12.584344245858482],[108.69759387911627,12.585648872649822],[108.69747943811959,12.585810043823043],[108.69589252434007,12.586696007201208],[108.6954881656665,12.58695826753317],[108.69538898373317,12.587216712919773],[108.69537372623415,12.587548592096946],[108.69557971899275,12.588171341237683],[108.69558734928977,12.588738777815966],[108.69588489488012,12.589586593517874],[108.69586963620688,12.589859345264445],[108.69572467852048,12.589978554216948],[108.6946718213365,12.590218879705422],[108.69434375703928,12.590380051005601],[108.69425220514543,12.590500214309971],[108.69429798112913,12.59076724307061],[108.69454212184314,12.591371872367704],[108.69446582783051,12.591929772285308],[108.694496345007,12.59296260097819],[108.69467182177206,12.593944885818038],[108.69469470904889,12.594317771833591],[108.6945726395471,12.595111229203697],[108.69438190404725,12.595872260977265],[108.69396991728709,12.596420624205528],[108.69348163628365,12.596886971716556],[108.69318408917276,12.59704814230256],[108.69223804411183,12.59723220134247],[108.69194049873835,12.597384789182522],[108.69175739346863,12.59755931170064],[108.69145221727166,12.59801612102153],[108.69133777666606,12.598204949501785],[108.69123096486345,12.598578789501541],[108.69129962939611,12.598846772478439],[108.69160480573937,12.599178650620432],[108.6916887289102,12.599644043103408],[108.69170398767918,12.599962571945952],[108.69163532242881,12.60036311469807],[108.69139881206787,12.600694992883748],[108.6904527669538,12.601576188102294],[108.68985004436121,12.60198626804041],[108.68941516891944,12.602129320155939],[108.68927021102391,12.602277138339211],[108.68922443465893,12.602424958579197],[108.68928547001613,12.602627137336087],[108.68957538703692,12.603144029059719],[108.68959827429936,12.603535988722872],[108.68955249887809,12.603701928414948],[108.68940753952681,12.603872635615598],[108.6890642169078,12.603988030681895],[108.68878193000528,12.604029039047314],[108.68846912411766,12.603992799056828],[108.68793506700084,12.60375247243003],[108.68724842038387,12.604038575865959],[108.68666095779683,12.604702333162258],[108.68625659924172,12.604808191131205],[108.68585987126585,12.604804375648365],[108.68499012032281,12.604711869870137],[108.68442554438738,12.604379990717973],[108.68405170449738,12.604315140664331],[108.68377704617102,12.604379991029813],[108.68354053527709,12.604606012240852],[108.68324298839336,12.604988435530387],[108.68270893206447,12.605320313834042],[108.68177814426437,12.605684617244357],[108.68049640669203,12.606039384174606],[108.67996997900008,12.606385568403411],[108.6798021312956,12.606597284222138],[108.67977161500532,12.606787065726458],[108.67990894337785,12.607086519314896],[108.68032856050353,12.60746035904352],[108.6810762408603,12.608031609934283],[108.68124408745291,12.608294824164883],[108.68139667571165,12.609023431545985],[108.68157215185279,12.60924468450837],[108.68203754465426,12.609544137245802],[108.68298359005584,12.609968522195686],[108.68342609521534,12.61027751378494],[108.68367023508111,12.610724786048372],[108.6838533406127,12.611420968475878],[108.68386096972404,12.61167941437874],[108.68376941656662,12.611886362649637],[108.68359394086532,12.61199317337577],[108.68286152017983,12.612084726015798],[108.68246479056788,12.612237314181524],[108.68161029927171,12.612979272964003],[108.68136615780864,12.613556245845059],[108.68134327005056,12.61403594350343],[108.68109912921784,12.615363458527176],[108.68080158293576,12.61552939780949],[108.67963428611264,12.615617135398896],[108.67913837529878,12.615981439837757],[108.67888660494634,12.616576533233548],[108.67865009428021,12.616945604408876],[108.6779710782092,12.617240289550502],[108.67744464917786,12.617207864656226],[108.67717762150745,12.616974214910718],[108.67678852119506,12.616470675307072],[108.67642231113788,12.616488795140091],[108.67604084066942,12.616682391413553],[108.67581195923705,12.616880754890074],[108.675705146921,12.617060999252397],[108.67569751771107,12.617230752683218],[108.67586536489806,12.617747645325437],[108.67588825345193,12.61802420959889],[108.67569751787019,12.618554453184606],[108.67528553104343,12.619177203552496],[108.67499561382347,12.619490962070673],[108.67456073779576,12.619801858969836],[108.67469806735913,12.620502810464378],[108.6745302214574,12.621308665070586],[108.67394275744013,12.6223672434883],[108.67373676456589,12.623008112051753],[108.67366809891101,12.623558382307497],[108.6738130583301,12.624102931695008],[108.67444629767843,12.62512050163643],[108.6750642782815,12.625291209363416],[108.67568988971328,12.625205378176368],[108.67577381242393,12.625024180694703],[108.67571277736528,12.62460074968659],[108.6758195882792,12.62444243933238],[108.6759569171145,12.624433856139149],[108.67612476443841,12.624539713448751],[108.67627735224977,12.624530177078055],[108.67655201003251,12.624415736695456],[108.67702503326132,12.624412874831775],[108.67748279665447,12.624513009787496],[108.67755146172063,12.624706605862222],[108.67755146167704,12.626056056057102],[108.67782612005274,12.628075938683695],[108.6778032320429,12.629006724620252],[108.67793293131669,12.631432871597305],[108.6785966885874,12.632738451988331],[108.67901630557023,12.63378940127807],[108.67935199879796,12.634451251746393],[108.67966480424357,12.634531359397872],[108.68003864450704,12.63449607379575],[108.68038959733019,12.63440070691523],[108.68075580798929,12.633979182295514],[108.68107624232432,12.633419375621767],[108.68154926522317,12.633132319507471],[108.68196888123349,12.633097033775185],[108.6827318207495,12.63337550603911],[108.68365497825856,12.63385997236583],[108.68478412837192,12.633941987936828],[108.6857759488105,12.634118418417913],[108.68618793734171,12.633919100198653],[108.68671436481357,12.633319239383612],[108.68708057616445,12.633154253497265],[108.6877061864931,12.633460382984007],[108.6878892919228,12.633965830559182],[108.68792743850845,12.634456973404543],[108.68793479922259,12.634465462104815],[108.68816395055198,12.634729723333335],[108.68847675533223,12.634671549307742],[108.68897266598417,12.634248118087303],[108.68936176551541,12.634024958205135],[108.69121570793456,12.634283404325023],[108.69170398921428,12.634166102044118],[108.69203205359702,12.633730272551867],[108.69245166887049,12.633636812762951],[108.69335193797018,12.63388381371666],[108.69396229012338,12.633777955822675],[108.6940767306768,12.633576730797232],[108.69496937071366,12.63440451992011]]]]}}]}